{"type":"FeatureCollection","features":[{"type":"Feature","geometry":{"type":"Polygon","coordinates":[[[9.4405,51.6504],[8.9708,51.5067],[8.1258,50.6858],[7.8515,50.9258],[6.8007,50.3618],[6.405,50.3233],[6.021,50.7543],[6.2244,51.365],[5.9532,51.7478],[7.0657,52.2414],[7.6186,52.4712],[9.1253,52.412],[9.4405,51.6504]]]},"properties":{"NUTS_ID":"DEA","LEVL_CODE":1,"CNTR_CODE":"DE","NAME_LATN":"Nordrhein-Westfalen","NUTS_NAME":"Nordrhein-Westfalen","MOUNT_TYPE":null,"URBN_TYPE":null,"COAST_TYPE":null}},{"type":"Feature","geometry":{"type":"Polygon","coordinates":[[[6.405,50.3233],[6.8007,50.3618],[7.8515,50.9258],[8.1258,50.6858],[8.4224,49.5834],[8.2326,48.9666],[7.3688,49.1615],[7.2766,49.5486],[6.3801,49.5511],[6.1377,50.13],[6.405,50.3233]]]},"properties":{"NUTS_ID":"DEB","LEVL_CODE":1,"CNTR_CODE":"DE","NAME_LATN":"Rheinland-Pfalz","NUTS_NAME":"Rheinland-Pfalz","MOUNT_TYPE":null,"URBN_TYPE":null,"COAST_TYPE":null}},{"type":"Feature","geometry":{"type":"Polygon","coordinates":[[[6.3801,49.5511],[7.2766,49.5486],[7.3688,49.1615],[6.3671,49.4695],[6.3801,49.5511]]]},"properties":{"NUTS_ID":"DEC","LEVL_CODE":1,"CNTR_CODE":"DE","NAME_LATN":"Saarland","NUTS_NAME":"Saarland","MOUNT_TYPE":null,"URBN_TYPE":null,"COAST_TYPE":null}},{"type":"Feature","geometry":{"type":"Polygon","coordinates":[[[14.7299,51.5818],[14.9742,51.3639],[14.8234,50.8706],[14.1732,50.8621],[12.9481,50.4043],[12.1009,50.318],[11.9193,50.4247],[12.2835,51.0919],[12.1989,51.5313],[13.051,51.6477],[13.8353,51.3768],[14.7299,51.5818]]]},"properties":{"NUTS_ID":"DED","LEVL_CODE":1,"CNTR_CODE":"DE","NAME_LATN":"Sachsen","NUTS_NAME":"Sachsen","MOUNT_TYPE":null,"URBN_TYPE":null,"COAST_TYPE":null}},{"type":"Feature","geometry":{"type":"Polygon","coordinates":[[[13.051,51.6477],[12.1989,51.5313],[12.2835,51.0919],[10.7014,51.6422],[10.9644,52.0567],[10.7593,52.7958],[11.5978,53.0359],[12.2492,52.7919],[12.3761,52.0451],[13.051,51.6477]]]},"properties":{"NUTS_ID":"DEE","LEVL_CODE":1,"CNTR_CODE":"DE","NAME_LATN":"Sachsen-Anhalt","NUTS_NAME":"Sachsen-Anhalt","MOUNT_TYPE":null,"URBN_TYPE":null,"COAST_TYPE":null}},{"type":"Feature","geometry":{"type":"Polygon","coordinates":[[[9.4229,54.8232],[10.1742,54.3457],[11.002,54.324],[10.9037,53.9568],[10.595,53.3639],[10.2709,53.4219],[9.7344,53.5652],[8.9011,53.9792],[8.636,54.9116],[9.4229,54.8232]]]},"properties":{"NUTS_ID":"DEF","LEVL_CODE":1,"CNTR_CODE":"DE","NAME_LATN":"Schleswig-Holstein","NUTS_NAME":"Schleswig-Holstein","MOUNT_TYPE":null,"URBN_TYPE":null,"COAST_TYPE":null}},{"type":"Feature","geometry":{"type":"Polygon","coordinates":[[[12.2835,51.0919],[11.9193,50.4247],[11.2659,50.4794],[10.6102,50.2279],[10.0413,50.5165],[10.2069,51.1906],[9.9283,51.3753],[10.7014,51.6422],[12.2835,51.0919]]]},"properties":{"NUTS_ID":"DEG","LEVL_CODE":1,"CNTR_CODE":"DE","NAME_LATN":"Thüringen","NUTS_NAME":"Thüringen","MOUNT_TYPE":null,"URBN_TYPE":null,"COAST_TYPE":null}},{"type":"Feature","geometry":{"type":"MultiPolygon","coordinates":[[[[9.4229,54.8232],[8.636,54.9116],[8.1536,55.5659],[8.1542,56.5174],[8.539,57.034],[10.4987,57.3425],[10.1951,56.6846],[10.7954,56.3175],[9.672,55.7121],[9.4229,54.8232]]],[[[12.6676,55.698],[12.2168,55.4278],[12.0203,54.8216],[11.2508,55.2867],[11.2521,55.6798],[11.934,55.9702],[12.6676,55.698]]],[[[10.7848,54.8493],[9.6822,55.3908],[10.6729,55.5336],[10.7848,54.8493]]]]},"properties":{"NUTS_ID":"DK0","LEVL_CODE":1,"CNTR_CODE":"DK","NAME_LATN":"Danmark","NUTS_NAME":"Danmark","MOUNT_TYPE":null,"URBN_TYPE":null,"COAST_TYPE":null}},{"type":"Feature","geometry":{"type":"MultiPolygon","coordinates":[[[[27.3516,57.5183],[26.4561,57.5514],[25.4365,58.0202],[24.3905,57.8732],[24.3928,58.3265],[23.5563,58.6289],[23.5444,59.1052],[24.3951,59.4736],[26.0511,59.6168],[28.12,59.3544],[27.357,58.7873],[27.6968,57.995],[27.3516,57.5183]]],[[[23.0747,58.5277],[22.2096,58.0428],[21.6668,58.316],[22.6928,59.0148],[23.0747,58.5277]]]]},"properties":{"NUTS_ID":"EE0","LEVL_CODE":1,"CNTR_CODE":"EE","NAME_LATN":"Eesti","NUTS_NAME":"Eesti","MOUNT_TYPE":null,"URBN_TYPE":null,"COAST_TYPE":null}},{"type":"Feature","geometry":{"type":"Polygon","coordinates":[[[23.1797,37.9516],[23.1175,38.0606],[23.1262,38.1684],[23.6904,38.3403],[23.1797,37.9516]]]},"properties":{"NUTS_ID":"EL3","LEVL_CODE":1,"CNTR_CODE":"EL","NAME_LATN":"Attiki","NUTS_NAME":"Αττική ","MOUNT_TYPE":null,"URBN_TYPE":null,"COAST_TYPE":null}},{"type":"Feature","geometry":{"type":"Polygon","coordinates":[[[23.8929,35.5248],[24.3174,35.3538],[26.3116,35.3161],[26.2305,35.0341],[24.9361,34.9313],[23.741,35.2633],[23.8929,35.5248]]]},"properties":{"NUTS_ID":"EL4","LEVL_CODE":1,"CNTR_CODE":"EL","NAME_LATN":"Nisia Aigaiou, Kriti","NUTS_NAME":"Νησιά Αιγαίου, Κρήτη","MOUNT_TYPE":null,"URBN_TYPE":null,"COAST_TYPE":null}},{"type":"Feature","geometry":{"type":"Polygon","coordinates":[[[26.0328,40.7303],[25.0725,41.0043],[23.7651,40.7579],[23.6189,40.2606],[22.664,40.4916],[22.6624,39.9755],[22.1157,40.1902],[21.9177,39.852],[21.2956,39.8575],[21.1225,39.0308],[20.7384,39.0572],[20.0088,39.6913],[20.6129,40.0797],[21.0561,40.6167],[20.9802,40.8557],[22.9276,41.3385],[24.4831,41.5451],[25.2247,41.2646],[25.9486,41.3203],[26.5712,41.4747],[26.0328,40.7303]]]},"properties":{"NUTS_ID":"EL5","LEVL_CODE":1,"CNTR_CODE":"EL","NAME_LATN":"Voreia Elláda","NUTS_NAME":"Βόρεια Ελλάδα","MOUNT_TYPE":null,"URBN_TYPE":null,"COAST_TYPE":null}},{"type":"Feature","geometry":{"type":"MultiPolygon","coordinates":[[[[23.1175,38.0606],[23.1797,37.9516],[23.1723,37.612],[23.4244,37.4117],[22.8114,37.4663],[22.9372,36.6605],[22.3754,36.7254],[21.22,37.8146],[21.8365,38.3038],[23.1175,38.0606]]],[[[23.6904,38.3403],[23.1262,38.1684],[22.6008,38.3166],[21.1354,38.3756],[20.8354,38.7965],[21.1225,39.0308],[21.2956,39.8575],[21.9177,39.852],[22.1157,40.1902],[22.6624,39.9755],[23.2842,39.0222],[24.0746,38.6357],[23.6904,38.3403]]]]},"properties":{"NUTS_ID":"EL6","LEVL_CODE":1,"CNTR_CODE":"EL","NAME_LATN":"Kentriki Elláda","NUTS_NAME":"Κεντρική Ελλάδα","MOUNT_TYPE":null,"URBN_TYPE":null,"COAST_TYPE":null}},{"type":"Feature","geometry":{"type":"Polygon","coordinates":[[[-3.1533,43.3532],[-3.4176,43.1333],[-3.9997,42.7689],[-4.841,43.1808],[-6.8242,42.915],[-7.0771,42.508],[-6.9858,41.9714],[-8.1651,41.8183],[-8.8632,41.8721],[-8.6937,42.2985],[-9.2397,43.0579],[-7.6997,43.7351],[-7.0318,43.5445],[-5.8377,43.6106],[-4.5123,43.3932],[-3.5826,43.5119],[-3.1533,43.3532]]]},"properties":{"NUTS_ID":"ES1","LEVL_CODE":1,"CNTR_CODE":"ES","NAME_LATN":"Noroeste","NUTS_NAME":"Noroeste","MOUNT_TYPE":null,"URBN_TYPE":null,"COAST_TYPE":null}},{"type":"Feature","geometry":{"type":"Polygon","coordinates":[[[-3.4176,43.1333],[-3.1533,43.3532],[-1.786,43.3506],[-0.3133,42.8494],[0.6601,42.691],[0.6755,42.1084],[0.1705,40.7329],[-0.2224,40.7088],[-0.7976,39.8811],[-1.4488,40.1454],[-1.8057,40.398],[-1.6174,40.9437],[-2.0517,41.1469],[-1.8565,41.9664],[-2.9136,42.0228],[-3.1418,43.1611],[-3.4176,43.1333]]]},"properties":{"NUTS_ID":"ES2","LEVL_CODE":1,"CNTR_CODE":"ES","NAME_LATN":"Noreste","NUTS_NAME":"Noreste","MOUNT_TYPE":null,"URBN_TYPE":null,"COAST_TYPE":null}},{"type":"Feature","geometry":{"type":"Polygon","coordinates":[[[-3.5396,41.165],[-3.0678,40.158],[-3.5826,40.0135],[-4.0956,40.2603],[-4.3193,40.6476],[-3.5396,41.165]]]},"properties":{"NUTS_ID":"ES3","LEVL_CODE":1,"CNTR_CODE":"ES","NAME_LATN":"Comunidad de Madrid","NUTS_NAME":"Comunidad de Madrid","MOUNT_TYPE":null,"URBN_TYPE":null,"COAST_TYPE":null}},{"type":"Feature","geometry":{"type":"Polygon","coordinates":[[[-6.9858,41.9714],[-7.0771,42.508],[-6.8242,42.915],[-4.841,43.1808],[-3.9997,42.7689],[-3.4176,43.1333],[-3.1418,43.1611],[-2.9136,42.0228],[-1.8565,41.9664],[-2.0517,41.1469],[-1.6174,40.9437],[-1.8057,40.398],[-1.4488,40.1454],[-1.0269,38.6555],[-1.3286,38.64],[-2.3412,38.0259],[-2.7621,38.5328],[-4.2689,38.3472],[-5.047,38.7291],[-5.5848,38.1318],[-6.1803,37.9411],[-6.9317,38.2084],[-7.275,38.4434],[-7.0199,39.0035],[-7.5428,39.6628],[-7.0105,39.7373],[-6.8651,40.2707],[-6.9299,41.0293],[-6.261,41.5521],[-6.9858,41.9714]],[[-3.5396,41.165],[-4.3193,40.6476],[-4.0956,40.2603],[-3.5826,40.0135],[-3.0678,40.158],[-3.5396,41.165]]]},"properties":{"NUTS_ID":"ES4","LEVL_CODE":1,"CNTR_CODE":"ES","NAME_LATN":"Centro (ES)","NUTS_NAME":"Centro (ES)","MOUNT_TYPE":null,"URBN_TYPE":null,"COAST_TYPE":null}},{"type":"Feature","geometry":{"type":"MultiPolygon","coordinates":[[[[-1.4488,40.1454],[-0.7976,39.8811],[-0.2224,40.7088],[0.1705,40.7329],[0.6755,42.1084],[0.6601,42.691],[1.4297,42.6178],[1.7258,42.5044],[3.174,42.4352],[3.1457,41.8967],[2.7785,41.6488],[0.9469,40.995],[-0.1702,39.7483],[-0.2843,39.4346],[0.1372,38.716],[-0.4955,38.3039],[-0.7621,37.847],[-1.0269,38.6555],[-1.4488,40.1454]]],[[[3.339,39.6723],[2.9864,39.3243],[2.3748,39.5351],[2.951,39.8983],[3.339,39.6723]]]]},"properties":{"NUTS_ID":"ES5","LEVL_CODE":1,"CNTR_CODE":"ES","NAME_LATN":"Este","NUTS_NAME":"Este","MOUNT_TYPE":null,"URBN_TYPE":null,"COAST_TYPE":null}},{"type":"Feature","geometry":{"type":"Polygon","coordinates":[[[-6.9317,38.2084],[-6.1803,37.9411],[-5.5848,38.1318],[-5.047,38.7291],[-4.2689,38.3472],[-2.7621,38.5328],[-2.3412,38.0259],[-1.3286,38.64],[-1.0269,38.6555],[-0.7621,37.847],[-0.9283,37.5874],[-1.63,37.3752],[-2.1938,36.7632],[-4.3443,36.707],[-5.6119,36.0443],[-6.0031,36.1912],[-6.3456,36.7988],[-6.9171,37.1495],[-7.4019,37.1748],[-7.5127,37.5263],[-6.9317,38.2084]]]},"properties":{"NUTS_ID":"ES6","LEVL_CODE":1,"CNTR_CODE":"ES","NAME_LATN":"Sur","NUTS_NAME":"Sur","MOUNT_TYPE":null,"URBN_TYPE":null,"COAST_TYPE":null}},{"type":"Feature","geometry":{"type":"Polygon","coordinates":[[[-16.3251,28.4378],[-16.6081,28.0094],[-16.9871,28.3634],[-16.3251,28.4378]]]},"properties":{"NUTS_ID":"ES7","LEVL_CODE":1,"CNTR_CODE":"ES","NAME_LATN":"Canarias","NUTS_NAME":"Canarias","MOUNT_TYPE":null,"URBN_TYPE":null,"COAST_TYPE":null}},{"type":"Feature","geometry":{"type":"Polygon","coordinates":[[[28.9296,69.0519],[28.6936,68.2085],[29.927,67.6843],[29.115,66.9668],[30.0793,65.7743],[29.6879,64.9413],[30.4931,64.1224],[29.9719,63.7572],[31.0889,63.2652],[31.4603,62.8928],[31.1651,62.4884],[29.3063,61.3292],[27.7384,60.4476],[26.4917,60.4476],[26.2474,60.2451],[23.6297,59.8773],[22.5254,59.9516],[21.2403,60.7687],[21.612,61.5448],[21.0729,62.9174],[21.5298,63.2411],[23.6173,64.0488],[24.5197,64.7249],[25.2696,64.9368],[25.0846,65.5889],[24.1551,65.816],[23.701,66.3347],[23.9021,66.765],[23.4772,67.9929],[23.0071,68.3068],[20.5486,69.06],[21.3411,69.2702],[23.1353,68.6752],[25.0244,68.6541],[25.6658,69.0213],[26.1522,69.7626],[27.7823,70.0534],[29.1176,69.6151],[28.9296,69.0519]]]},"properties":{"NUTS_ID":"FI1","LEVL_CODE":1,"CNTR_CODE":"FI","NAME_LATN":"Manner-Suomi","NUTS_NAME":"Manner-Suomi","MOUNT_TYPE":null,"URBN_TYPE":null,"COAST_TYPE":null}},{"type":"Feature","geometry":{"type":"Polygon","coordinates":[[[20.9802,40.8557],[21.0561,40.6167],[20.6129,40.0797],[20.0088,39.6913],[19.4248,40.2981],[19.5573,41.5777],[19.3866,41.8505],[19.3866,42.3065],[20.0763,42.5558],[20.5943,41.8773],[20.5017,41.3172],[20.9802,40.8557]]]},"properties":{"NUTS_ID":"AL0","LEVL_CODE":1,"CNTR_CODE":"AL","NAME_LATN":"Shqipëria","NUTS_NAME":"Shqipëria","MOUNT_TYPE":null,"URBN_TYPE":null,"COAST_TYPE":null}},{"type":"Feature","geometry":{"type":"Polygon","coordinates":[[[17.1608,48.0067],[16.1138,46.8691],[15.9962,46.8354],[16.1711,47.4213],[15.218,47.7941],[14.7385,47.7474],[14.482,48.1055],[14.691,48.5843],[15.0392,48.9659],[16.9403,48.6172],[17.1608,48.0067]]]},"properties":{"NUTS_ID":"AT1","LEVL_CODE":1,"CNTR_CODE":"AT","NAME_LATN":"Ostösterreich","NUTS_NAME":"Ostösterreich","MOUNT_TYPE":null,"URBN_TYPE":null,"COAST_TYPE":null}},{"type":"Feature","geometry":{"type":"Polygon","coordinates":[[[14.7385,47.7474],[15.218,47.7941],[16.1711,47.4213],[15.9962,46.8354],[15.0651,46.6521],[14.5652,46.3725],[13.7142,46.5227],[12.6906,46.657],[12.6561,47.0997],[13.3546,47.0973],[14.0107,47.7005],[14.7385,47.7474]]]},"properties":{"NUTS_ID":"AT2","LEVL_CODE":1,"CNTR_CODE":"AT","NAME_LATN":"Südösterreich","NUTS_NAME":"Südösterreich","MOUNT_TYPE":null,"URBN_TYPE":null,"COAST_TYPE":null}},{"type":"Feature","geometry":{"type":"Polygon","coordinates":[[[14.691,48.5843],[14.482,48.1055],[14.7385,47.7474],[14.0107,47.7005],[13.3546,47.0973],[12.6561,47.0997],[12.6906,46.657],[12.136,47.0807],[10.4697,46.8549],[9.6028,47.0619],[9.5307,47.2706],[9.5587,47.5419],[11.4214,47.4449],[12.338,47.6971],[12.7509,48.1038],[13.8395,48.7716],[14.691,48.5843]]]},"properties":{"NUTS_ID":"AT3","LEVL_CODE":1,"CNTR_CODE":"AT","NAME_LATN":"Westösterreich","NUTS_NAME":"Westösterreich","MOUNT_TYPE":null,"URBN_TYPE":null,"COAST_TYPE":null}},{"type":"Feature","geometry":{"type":"Polygon","coordinates":[[[18.4834,45.0613],[18.7821,44.9652],[19.0221,44.8554],[19.3512,44.8891],[19.1658,44.3702],[19.4971,44.0991],[19.2241,43.5275],[18.7223,43.2079],[18.4381,42.5557],[17.4507,43.1769],[16.5443,43.9742],[15.7367,44.9356],[16.5626,45.1906],[18.4834,45.0613]]]},"properties":{"NUTS_ID":"BA0","LEVL_CODE":1,"CNTR_CODE":"BA","NAME_LATN":"Bosna I Hercegovina","NUTS_NAME":"Bosna I Hercegovina","MOUNT_TYPE":0,"URBN_TYPE":null,"COAST_TYPE":null}},{"type":"Feature","geometry":{"type":"Polygon","coordinates":[[[4.2763,50.793],[4.3558,50.9039],[4.5078,50.8063],[4.3869,50.7488],[4.2763,50.793]]]},"properties":{"NUTS_ID":"BE1","LEVL_CODE":1,"CNTR_CODE":"BE","NAME_LATN":"Région de Bruxelles-Capitale/Brussels Hoofdstedelijk Gewest","NUTS_NAME":"Région de Bruxelles-Capitale/Brussels Hoofdstedelijk Gewest","MOUNT_TYPE":null,"URBN_TYPE":null,"COAST_TYPE":null}},{"type":"Feature","geometry":{"type":"Polygon","coordinates":[[[5.6876,50.8119],[4.1005,50.706],[3.177,50.7562],[2.5461,51.0894],[3.3658,51.3698],[4.2348,51.3483],[4.2437,51.3747],[4.2796,51.376],[4.7597,51.5024],[5.7983,51.0599],[5.6876,50.8119]],[[4.2763,50.793],[4.3869,50.7488],[4.5078,50.8063],[4.3558,50.9039],[4.2763,50.793]]]},"properties":{"NUTS_ID":"BE2","LEVL_CODE":1,"CNTR_CODE":"BE","NAME_LATN":"Vlaams Gewest","NUTS_NAME":"Vlaams Gewest","MOUNT_TYPE":null,"URBN_TYPE":null,"COAST_TYPE":null}},{"type":"Feature","geometry":{"type":"Polygon","coordinates":[[[6.021,50.7543],[6.405,50.3233],[6.1377,50.13],[5.8181,49.5463],[4.2331,49.9578],[4.0278,50.3583],[3.177,50.7562],[4.1005,50.706],[5.6876,50.8119],[6.021,50.7543]]]},"properties":{"NUTS_ID":"BE3","LEVL_CODE":1,"CNTR_CODE":"BE","NAME_LATN":"Région wallonne","NUTS_NAME":"Région wallonne","MOUNT_TYPE":null,"URBN_TYPE":null,"COAST_TYPE":null}},{"type":"Feature","geometry":{"type":"Polygon","coordinates":[[[24.6548,43.7236],[25.5445,43.6428],[26.3582,44.0372],[27.2713,44.1263],[28.5789,43.7387],[28.0602,43.3164],[27.6279,42.4939],[27.9024,41.9601],[27.0597,42.0883],[26.5615,41.9263],[26.4838,42.1279],[25.3481,42.1144],[25.0072,42.7376],[24.3859,42.75],[23.9714,43.0623],[23.0062,43.1929],[22.4068,43.7521],[22.6752,44.2157],[22.9972,43.8079],[24.6548,43.7236]]]},"properties":{"NUTS_ID":"BG3","LEVL_CODE":1,"CNTR_CODE":"BG","NAME_LATN":"Severna i Yugoiztochna Bulgaria","NUTS_NAME":"Северна и Югоизточна България","MOUNT_TYPE":null,"URBN_TYPE":null,"COAST_TYPE":null}},{"type":"Feature","geometry":{"type":"Polygon","coordinates":[[[25.9486,41.3203],[25.2247,41.2646],[24.4831,41.5451],[22.9276,41.3385],[22.8672,42.0222],[22.3602,42.3112],[22.4428,42.8255],[23.0062,43.1929],[23.9714,43.0623],[24.3859,42.75],[25.0072,42.7376],[25.3481,42.1144],[26.4838,42.1279],[26.5615,41.9263],[26.3579,41.7111],[25.9486,41.3203]]]},"properties":{"NUTS_ID":"BG4","LEVL_CODE":1,"CNTR_CODE":"BG","NAME_LATN":"Yugozapadna i Yuzhna tsentralna Bulgaria","NUTS_NAME":"Югозападна и Южна централна България","MOUNT_TYPE":null,"URBN_TYPE":null,"COAST_TYPE":null}},{"type":"Feature","geometry":{"type":"Polygon","coordinates":[[[9.6028,47.0619],[10.4697,46.8549],[10.4528,46.5307],[10.0078,46.3332],[9.3688,46.4775],[8.9121,45.8304],[8.3847,46.4522],[7.8641,45.9168],[7.0449,45.9224],[6.8211,46.4272],[6.064,46.4162],[7.1304,47.503],[7.589,47.5899],[8.6634,47.6859],[9.5587,47.5419],[9.5307,47.2706],[9.5122,47.0854],[9.6028,47.0619]]]},"properties":{"NUTS_ID":"CH0","LEVL_CODE":1,"CNTR_CODE":"CH","NAME_LATN":"Schweiz/Suisse/Svizzera","NUTS_NAME":"Schweiz/Suisse/Svizzera","MOUNT_TYPE":null,"URBN_TYPE":null,"COAST_TYPE":null}},{"type":"Feature","geometry":{"type":"Polygon","coordinates":[[[33.9433,35.4252],[33.9373,35.0247],[33.3567,34.7323],[32.6746,34.659],[32.285,34.9506],[33.0023,35.3791],[33.9433,35.4252]]]},"properties":{"NUTS_ID":"CY0","LEVL_CODE":1,"CNTR_CODE":"CY","NAME_LATN":"Kýpros","NUTS_NAME":"Κύπρος","MOUNT_TYPE":null,"URBN_TYPE":null,"COAST_TYPE":null}},{"type":"Feature","geometry":{"type":"Polygon","coordinates":[[[12.1009,50.318],[12.9481,50.4043],[14.1732,50.8621],[14.8234,50.8706],[16.9079,50.4495],[18.0351,50.0658],[18.5757,49.9104],[18.8516,49.5172],[17.6469,48.8543],[16.9403,48.6172],[15.0392,48.9659],[14.691,48.5843],[13.8395,48.7716],[12.6338,49.4762],[12.1009,50.318]]]},"properties":{"NUTS_ID":"CZ0","LEVL_CODE":1,"CNTR_CODE":"CZ","NAME_LATN":"Česko","NUTS_NAME":"Česko","MOUNT_TYPE":null,"URBN_TYPE":null,"COAST_TYPE":null}},{"type":"Feature","geometry":{"type":"Polygon","coordinates":[[[8.2326,48.9666],[8.4224,49.5834],[9.103,49.5775],[9.6487,49.7915],[10.0837,49.5436],[10.4873,48.6967],[9.9976,48.3501],[10.0773,47.6393],[9.5587,47.5419],[8.6634,47.6859],[7.589,47.5899],[7.577,48.1191],[8.2326,48.9666]]]},"properties":{"NUTS_ID":"DE1","LEVL_CODE":1,"CNTR_CODE":"DE","NAME_LATN":"Baden-Württemberg","NUTS_NAME":"Baden-Württemberg","MOUNT_TYPE":null,"URBN_TYPE":null,"COAST_TYPE":null}},{"type":"Feature","geometry":{"type":"Polygon","coordinates":[[[11.9193,50.4247],[12.1009,50.318],[12.6338,49.4762],[13.8395,48.7716],[12.7509,48.1038],[12.338,47.6971],[11.4214,47.4449],[9.5587,47.5419],[10.0773,47.6393],[9.9976,48.3501],[10.4873,48.6967],[10.0837,49.5436],[9.6487,49.7915],[9.103,49.5775],[9.405,50.0877],[10.0413,50.5165],[10.6102,50.2279],[11.2659,50.4794],[11.9193,50.4247]]]},"properties":{"NUTS_ID":"DE2","LEVL_CODE":1,"CNTR_CODE":"DE","NAME_LATN":"Bayern","NUTS_NAME":"Bayern","MOUNT_TYPE":null,"URBN_TYPE":null,"COAST_TYPE":null}},{"type":"Feature","geometry":{"type":"Polygon","coordinates":[[[13.667,52.4742],[13.1659,52.3943],[13.1643,52.5989],[13.3985,52.6482],[13.667,52.4742]]]},"properties":{"NUTS_ID":"DE3","LEVL_CODE":1,"CNTR_CODE":"DE","NAME_LATN":"Berlin","NUTS_NAME":"Berlin","MOUNT_TYPE":null,"URBN_TYPE":null,"COAST_TYPE":null}},{"type":"Feature","geometry":{"type":"Polygon","coordinates":[[[14.7299,51.5818],[13.8353,51.3768],[13.051,51.6477],[12.3761,52.0451],[12.2492,52.7919],[11.5978,53.0359],[11.2657,53.122],[12.3251,53.3213],[12.9847,53.165],[13.7101,53.4791],[14.4122,53.3296],[14.1567,52.8956],[14.5651,52.6245],[14.7299,51.5818]],[[13.667,52.4742],[13.3985,52.6482],[13.1643,52.5989],[13.1659,52.3943],[13.667,52.4742]]]},"properties":{"NUTS_ID":"DE4","LEVL_CODE":1,"CNTR_CODE":"DE","NAME_LATN":"Brandenburg","NUTS_NAME":"Brandenburg","MOUNT_TYPE":null,"URBN_TYPE":null,"COAST_TYPE":null}},{"type":"Feature","geometry":{"type":"Polygon","coordinates":[[[8.9842,53.1261],[8.7114,53.0446],[8.4853,53.2271],[8.9842,53.1261]]]},"properties":{"NUTS_ID":"DE5","LEVL_CODE":1,"CNTR_CODE":"DE","NAME_LATN":"Bremen","NUTS_NAME":"Bremen","MOUNT_TYPE":null,"URBN_TYPE":null,"COAST_TYPE":null}},{"type":"Feature","geometry":{"type":"Polygon","coordinates":[[[9.7344,53.5652],[10.2709,53.4219],[9.7721,53.5434],[9.7344,53.5652]]]},"properties":{"NUTS_ID":"DE6","LEVL_CODE":1,"CNTR_CODE":"DE","NAME_LATN":"Hamburg","NUTS_NAME":"Hamburg","MOUNT_TYPE":null,"URBN_TYPE":null,"COAST_TYPE":null}},{"type":"Feature","geometry":{"type":"Polygon","coordinates":[[[8.1258,50.6858],[8.9708,51.5067],[9.4405,51.6504],[9.9283,51.3753],[10.2069,51.1906],[10.0413,50.5165],[9.405,50.0877],[9.103,49.5775],[8.4224,49.5834],[8.1258,50.6858]]]},"properties":{"NUTS_ID":"DE7","LEVL_CODE":1,"CNTR_CODE":"DE","NAME_LATN":"Hessen","NUTS_NAME":"Hessen","MOUNT_TYPE":null,"URBN_TYPE":null,"COAST_TYPE":null}},{"type":"Feature","geometry":{"type":"Polygon","coordinates":[[[10.595,53.3639],[10.9037,53.9568],[11.5618,54.0281],[13.3619,54.4999],[13.896,53.8218],[14.2675,53.6979],[14.4122,53.3296],[13.7101,53.4791],[12.9847,53.165],[12.3251,53.3213],[11.2657,53.122],[10.595,53.3639]]]},"properties":{"NUTS_ID":"DE8","LEVL_CODE":1,"CNTR_CODE":"DE","NAME_LATN":"Mecklenburg-Vorpommern","NUTS_NAME":"Mecklenburg-Vorpommern","MOUNT_TYPE":null,"URBN_TYPE":null,"COAST_TYPE":null}},{"type":"Feature","geometry":{"type":"Polygon","coordinates":[[[9.4405,51.6504],[9.1253,52.412],[7.6186,52.4712],[7.0657,52.2414],[6.7097,52.6278],[7.2089,53.2431],[7.6654,53.7628],[8.5527,53.5162],[8.5204,53.6062],[9.0299,53.8256],[9.7721,53.5434],[10.2709,53.4219],[10.595,53.3639],[11.2657,53.122],[11.5978,53.0359],[10.7593,52.7958],[10.9644,52.0567],[10.7014,51.6422],[9.9283,51.3753],[9.4405,51.6504]],[[8.9842,53.1261],[8.4853,53.2271],[8.7114,53.0446],[8.9842,53.1261]]]},"properties":{"NUTS_ID":"DE9","LEVL_CODE":1,"CNTR_CODE":"DE","NAME_LATN":"Niedersachsen","NUTS_NAME":"Niedersachsen","MOUNT_TYPE":null,"URBN_TYPE":null,"COAST_TYPE":null}},{"type":"Feature","geometry":{"type":"Polygon","coordinates":[[[19.0221,44.8554],[18.7821,44.9652],[18.4834,45.0613],[16.5626,45.1906],[15.7367,44.9356],[16.5443,43.9742],[17.4507,43.1769],[18.4381,42.5557],[18.5253,42.4206],[17.4403,42.7565],[17.4259,43.0608],[16.0218,43.5075],[15.1343,44.1105],[15.2892,44.3632],[14.8813,45.0311],[14.444,45.2664],[13.8519,44.8722],[13.5856,45.4785],[14.7872,45.5009],[15.7064,45.9753],[15.6749,46.2271],[16.5968,46.4759],[17.2943,45.9885],[17.9121,45.7908],[18.8213,45.9144],[18.8897,45.9212],[19.1303,45.1138],[19.0221,44.8554]]]},"properties":{"NUTS_ID":"HR0","LEVL_CODE":1,"CNTR_CODE":"HR","NAME_LATN":"Hrvatska","NUTS_NAME":"Hrvatska","MOUNT_TYPE":null,"URBN_TYPE":null,"COAST_TYPE":null}},{"type":"Feature","geometry":{"type":"Polygon","coordinates":[[[18.9659,47.029],[18.8494,47.8172],[18.9284,48.0567],[19.5709,47.7349],[20.0947,47.0074],[18.9659,47.029]]]},"properties":{"NUTS_ID":"HU1","LEVL_CODE":1,"CNTR_CODE":"HU","NAME_LATN":"Közép-Magyarország","NUTS_NAME":"Közép-Magyarország","MOUNT_TYPE":null,"URBN_TYPE":null,"COAST_TYPE":null}},{"type":"Feature","geometry":{"type":"Polygon","coordinates":[[[16.1138,46.8691],[17.1608,48.0067],[17.7054,47.759],[18.8494,47.8172],[18.9659,47.029],[18.8213,45.9144],[17.9121,45.7908],[17.2943,45.9885],[16.5968,46.4759],[16.1138,46.8691]]]},"properties":{"NUTS_ID":"HU2","LEVL_CODE":1,"CNTR_CODE":"HU","NAME_LATN":"Dunántúl","NUTS_NAME":"Dunántúl","MOUNT_TYPE":null,"URBN_TYPE":null,"COAST_TYPE":null}},{"type":"Feature","geometry":{"type":"Polygon","coordinates":[[[18.8897,45.9212],[18.8213,45.9144],[18.9659,47.029],[20.0947,47.0074],[19.5709,47.7349],[18.9284,48.0567],[20.0519,48.1677],[20.4639,48.464],[21.3882,48.5496],[22.1553,48.4034],[22.8736,47.968],[22.1282,47.5981],[21.4414,46.6515],[21.1474,46.3359],[20.2643,46.1264],[19.6981,46.1879],[18.8897,45.9212]]]},"properties":{"NUTS_ID":"HU3","LEVL_CODE":1,"CNTR_CODE":"HU","NAME_LATN":"Alföld és Észak","NUTS_NAME":"Alföld és Észak","MOUNT_TYPE":null,"URBN_TYPE":null,"COAST_TYPE":null}},{"type":"Feature","geometry":{"type":"Polygon","coordinates":[[[-8.0443,54.3635],[-7.4248,54.1433],[-6.8187,54.3635],[-6.2684,54.1018],[-6.039,52.9821],[-6.4719,52.2186],[-9.7055,51.4539],[-10.3498,51.8697],[-10.2279,52.2203],[-9.3744,52.5877],[-9.3751,53.0018],[-10.1543,53.5141],[-8.3021,54.5192],[-8.3494,55.1068],[-7.1164,55.2212],[-8.0443,54.3635]]]},"properties":{"NUTS_ID":"IE0","LEVL_CODE":1,"CNTR_CODE":"IE","NAME_LATN":"Ireland","NUTS_NAME":"Ireland","MOUNT_TYPE":null,"URBN_TYPE":null,"COAST_TYPE":null}},{"type":"Feature","geometry":{"type":"Polygon","coordinates":[[[-15.0444,66.1539],[-13.8667,65.2808],[-14.8403,64.3482],[-18.365,63.4948],[-22.0074,63.836],[-21.7153,64.3203],[-23.0761,64.7782],[-22.6774,65.3604],[-23.6163,65.4854],[-22.6513,66.3664],[-21.6419,66.0422],[-20.9943,65.5296],[-20.1558,65.9443],[-18.6387,66.0526],[-18.0419,65.8869],[-16.0413,66.4282],[-15.0444,66.1539]]]},"properties":{"NUTS_ID":"IS0","LEVL_CODE":1,"CNTR_CODE":"IS","NAME_LATN":"Ísland","NUTS_NAME":"Ísland","MOUNT_TYPE":null,"URBN_TYPE":null,"COAST_TYPE":null}},{"type":"Feature","geometry":{"type":"Polygon","coordinates":[[[7.0449,45.9224],[7.8641,45.9168],[8.3847,46.4522],[8.9121,45.8304],[9.3688,46.4775],[10.0078,46.3332],[10.4528,46.5307],[10.6268,45.3846],[10.5043,44.9224],[9.5487,45.1326],[9.2001,44.6861],[9.6867,44.3659],[10.0188,44.0445],[8.633,44.3798],[8.1354,43.9389],[7.5299,43.784],[7.7142,44.0615],[6.8874,44.3613],[7.0658,44.7135],[6.6301,45.1099],[7.1419,45.351],[7.0449,45.9224]]]},"properties":{"NUTS_ID":"ITC","LEVL_CODE":1,"CNTR_CODE":"IT","NAME_LATN":"Nord-Ovest","NUTS_NAME":"Nord-Ovest","MOUNT_TYPE":null,"URBN_TYPE":null,"COAST_TYPE":null}},{"type":"Feature","geometry":{"type":"Polygon","coordinates":[[[13.7621,41.2225],[13.941,41.6879],[13.0306,42.1154],[13.3578,42.6941],[13.9157,42.8945],[14.0626,42.6178],[15.1382,41.927],[16.0778,41.8928],[16.0247,41.4256],[17.389,40.8919],[18.4603,40.1936],[16.8673,40.3978],[16.4958,39.7462],[17.0251,39.4836],[17.1096,39.0494],[16.5821,38.4698],[15.829,37.9314],[15.6537,38.1442],[16.2138,38.8104],[15.645,40.0428],[15.1455,40.1308],[14.7804,40.6156],[14.0321,40.8989],[13.7621,41.2225]]]},"properties":{"NUTS_ID":"ITF","LEVL_CODE":1,"CNTR_CODE":"IT","NAME_LATN":"Sud","NUTS_NAME":"Sud","MOUNT_TYPE":null,"URBN_TYPE":null,"COAST_TYPE":null}},{"type":"Feature","geometry":{"type":"MultiPolygon","coordinates":[[[[15.4887,38.2297],[15.0915,37.3577],[15.0004,36.7028],[12.6059,37.6394],[12.6603,38.0776],[13.2629,38.1968],[14.1835,38.0194],[15.4887,38.2297]]],[[[9.5817,39.2303],[8.9107,38.9155],[8.4035,39.1224],[8.5161,39.7462],[8.2552,40.8137],[9.2932,41.2579],[9.7494,40.6581],[9.5817,39.2303]]]]},"properties":{"NUTS_ID":"ITG","LEVL_CODE":1,"CNTR_CODE":"IT","NAME_LATN":"Isole","NUTS_NAME":"Isole","MOUNT_TYPE":null,"URBN_TYPE":null,"COAST_TYPE":null}},{"type":"Feature","geometry":{"type":"Polygon","coordinates":[[[12.6906,46.657],[13.7142,46.5227],[13.7232,45.5948],[13.5798,45.787],[12.4435,45.3593],[12.2699,44.63],[12.7507,43.9706],[12.2838,43.7649],[11.7159,44.1225],[10.6241,44.1204],[9.6867,44.3659],[9.2001,44.6861],[9.5487,45.1326],[10.5043,44.9224],[10.6268,45.3846],[10.4528,46.5307],[10.4697,46.8549],[12.136,47.0807],[12.6906,46.657]]]},"properties":{"NUTS_ID":"ITH","LEVL_CODE":1,"CNTR_CODE":"IT","NAME_LATN":"Nord-Est","NUTS_NAME":"Nord-Est","MOUNT_TYPE":null,"URBN_TYPE":null,"COAST_TYPE":null}},{"type":"Feature","geometry":{"type":"Polygon","coordinates":[[[10.0188,44.0445],[9.6867,44.3659],[10.6241,44.1204],[11.7159,44.1225],[12.2838,43.7649],[12.7507,43.9706],[13.6421,43.4741],[13.9157,42.8945],[13.3578,42.6941],[13.0306,42.1154],[13.941,41.6879],[13.7621,41.2225],[12.7733,41.4163],[10.7057,42.9419],[10.0188,44.0445]]]},"properties":{"NUTS_ID":"ITI","LEVL_CODE":1,"CNTR_CODE":"IT","NAME_LATN":"Centro (IT)","NUTS_NAME":"Centro (IT)","MOUNT_TYPE":null,"URBN_TYPE":null,"COAST_TYPE":null}},{"type":"Feature","geometry":{"type":"Polygon","coordinates":[[[9.5307,47.2706],[9.6028,47.0619],[9.5122,47.0854],[9.5307,47.2706]]]},"properties":{"NUTS_ID":"LI0","LEVL_CODE":1,"CNTR_CODE":"LI","NAME_LATN":"Liechtenstein","NUTS_NAME":"Liechtenstein","MOUNT_TYPE":null,"URBN_TYPE":null,"COAST_TYPE":null}},{"type":"Feature","geometry":{"type":"Polygon","coordinates":[[[20.5943,41.8773],[20.0763,42.5558],[20.3529,42.8334],[20.9236,43.1461],[21.7534,42.7009],[21.5869,42.2628],[20.5943,41.8773]]]},"properties":{"NUTS_ID":"XK0","LEVL_CODE":1,"CNTR_CODE":"XK","NAME_LATN":"Kosovo","NUTS_NAME":"Kosovo","MOUNT_TYPE":null,"URBN_TYPE":null,"COAST_TYPE":null}},{"type":"Feature","geometry":{"type":"Polygon","coordinates":[[[26.6304,55.6806],[26.7404,55.2628],[25.7519,54.8228],[25.6599,54.1908],[24.8359,54.149],[24.3905,53.9032],[23.5146,53.9566],[22.792,54.3634],[22.589,55.0703],[21.2721,55.2454],[21.0646,56.0692],[21.9782,56.3851],[24.5412,56.2841],[25.8214,56.0522],[26.6304,55.6806]]]},"properties":{"NUTS_ID":"LT0","LEVL_CODE":1,"CNTR_CODE":"LT","NAME_LATN":"Lietuva","NUTS_NAME":"Lietuva","MOUNT_TYPE":null,"URBN_TYPE":null,"COAST_TYPE":null}},{"type":"Feature","geometry":{"type":"Polygon","coordinates":[[[6.1377,50.13],[6.3801,49.5511],[6.3671,49.4695],[5.8181,49.5463],[6.1377,50.13]]]},"properties":{"NUTS_ID":"LU0","LEVL_CODE":1,"CNTR_CODE":"LU","NAME_LATN":"Luxembourg","NUTS_NAME":"Luxembourg","MOUNT_TYPE":null,"URBN_TYPE":null,"COAST_TYPE":null}},{"type":"Feature","geometry":{"type":"Polygon","coordinates":[[[24.3905,57.8732],[25.4365,58.0202],[26.4561,57.5514],[27.3516,57.5183],[28.237,56.2841],[27.5474,55.8184],[26.6304,55.6806],[25.8214,56.0522],[24.5412,56.2841],[21.9782,56.3851],[21.0646,56.0692],[21.1041,56.7904],[21.8112,57.5728],[22.5467,57.7201],[23.5529,56.9799],[24.3905,57.1836],[24.3905,57.8732]]]},"properties":{"NUTS_ID":"LV0","LEVL_CODE":1,"CNTR_CODE":"LV","NAME_LATN":"Latvija","NUTS_NAME":"Latvija","MOUNT_TYPE":null,"URBN_TYPE":null,"COAST_TYPE":null}},{"type":"Feature","geometry":{"type":"Polygon","coordinates":[[[20.0763,42.5558],[19.3866,42.3065],[19.3866,41.8505],[18.5253,42.4206],[18.4381,42.5557],[18.7223,43.2079],[19.2241,43.5275],[20.3529,42.8334],[20.0763,42.5558]]]},"properties":{"NUTS_ID":"ME0","LEVL_CODE":1,"CNTR_CODE":"ME","NAME_LATN":"Crna Gora","NUTS_NAME":"Црна Гора ","MOUNT_TYPE":null,"URBN_TYPE":null,"COAST_TYPE":null}},{"type":"Feature","geometry":{"type":"Polygon","coordinates":[[[22.9276,41.3385],[20.9802,40.8557],[20.5017,41.3172],[20.5943,41.8773],[21.5869,42.2628],[22.3602,42.3112],[22.8672,42.0222],[22.9276,41.3385]]]},"properties":{"NUTS_ID":"MK0","LEVL_CODE":1,"CNTR_CODE":"MK","NAME_LATN":"Severna Makedonija ","NUTS_NAME":"Северна Македонија","MOUNT_TYPE":null,"URBN_TYPE":null,"COAST_TYPE":null}},{"type":"Feature","geometry":{"type":"Polygon","coordinates":[[[14.4897,35.9304],[14.431,35.8271],[14.3656,35.8661],[14.3774,35.9375],[14.4897,35.9304]]]},"properties":{"NUTS_ID":"MT0","LEVL_CODE":1,"CNTR_CODE":"MT","NAME_LATN":"Malta","NUTS_NAME":"Malta","MOUNT_TYPE":null,"URBN_TYPE":null,"COAST_TYPE":null}},{"type":"Feature","geometry":{"type":"Polygon","coordinates":[[[7.2089,53.2431],[6.7097,52.6278],[6.1198,52.8543],[5.3773,52.7648],[5.1644,53.0009],[6.5592,53.5106],[7.2089,53.2431]]]},"properties":{"NUTS_ID":"NL1","LEVL_CODE":1,"CNTR_CODE":"NL","NAME_LATN":"Noord-Nederland","NUTS_NAME":"Noord-Nederland","MOUNT_TYPE":null,"URBN_TYPE":null,"COAST_TYPE":null}},{"type":"Feature","geometry":{"type":"Polygon","coordinates":[[[7.0657,52.2414],[5.9532,51.7478],[5.0005,51.8209],[5.4046,52.2496],[5.3773,52.7648],[6.1198,52.8543],[6.7097,52.6278],[7.0657,52.2414]]]},"properties":{"NUTS_ID":"NL2","LEVL_CODE":1,"CNTR_CODE":"NL","NAME_LATN":"Oost-Nederland","NUTS_NAME":"Oost-Nederland","MOUNT_TYPE":null,"URBN_TYPE":null,"COAST_TYPE":null}},{"type":"Feature","geometry":{"type":"Polygon","coordinates":[[[4.2796,51.376],[4.2437,51.3747],[3.5209,51.5172],[4.3742,52.1871],[4.7639,53.0088],[5.1644,53.0009],[5.3773,52.7648],[5.4046,52.2496],[5.0005,51.8209],[4.2796,51.376]]]},"properties":{"NUTS_ID":"NL3","LEVL_CODE":1,"CNTR_CODE":"NL","NAME_LATN":"West-Nederland","NUTS_NAME":"West-Nederland","MOUNT_TYPE":null,"URBN_TYPE":null,"COAST_TYPE":null}},{"type":"Feature","geometry":{"type":"Polygon","coordinates":[[[5.9532,51.7478],[6.2244,51.365],[6.021,50.7543],[5.6876,50.8119],[5.7983,51.0599],[4.7597,51.5024],[4.2796,51.376],[5.0005,51.8209],[5.9532,51.7478]]]},"properties":{"NUTS_ID":"NL4","LEVL_CODE":1,"CNTR_CODE":"NL","NAME_LATN":"Zuid-Nederland","NUTS_NAME":"Zuid-Nederland","MOUNT_TYPE":null,"URBN_TYPE":null,"COAST_TYPE":null}},{"type":"Feature","geometry":{"type":"MultiPolygon","coordinates":[[[[28.9296,69.0519],[29.1176,69.6151],[27.7823,70.0534],[26.1522,69.7626],[25.6658,69.0213],[25.0244,68.6541],[23.1353,68.6752],[21.3411,69.2702],[20.5486,69.06],[19.9361,68.3903],[18.1259,68.5365],[17.9245,68.0728],[16.8794,67.9382],[16.2699,67.0454],[15.454,66.3452],[14.6167,66.1227],[14.326,65.1189],[13.7344,64.6109],[14.0231,64.1665],[12.3354,63.7253],[12.0396,63.1979],[12.2994,62.2675],[12.1524,61.7726],[12.7909,61.3923],[12.3502,60.9441],[12.4187,60.1131],[11.8398,59.8407],[11.8262,59.2379],[11.2448,59.0919],[10.3409,59.0634],[9.3071,58.7729],[8.5455,58.2997],[7.689,58.04],[6.8326,58.0665],[5.7184,58.5835],[4.6595,61.0977],[5.0862,62.1516],[7.7283,63.1303],[7.8939,63.4358],[10.1081,63.9744],[10.8565,64.6269],[10.8014,64.9074],[12.2237,64.9702],[12.0665,66.0613],[12.9459,66.1674],[13.1934,66.7867],[14.7181,67.4161],[14.4459,68.2862],[14.6443,68.7753],[17.5716,68.7477],[17.1551,69.3493],[17.9928,69.5136],[19.154,70.117],[20.7564,69.8039],[22.2135,70.3673],[23.6586,70.528],[25.5049,71.0359],[26.8268,70.6229],[27.9567,70.9823],[30.4628,70.4809],[30.1638,69.9844],[30.8406,69.7765],[28.9296,69.0519]]],[[[19.941,80.3975],[21.8396,80.2234],[24.2949,80.3603],[26.498,79.7931],[25.8478,79.3927],[23.2538,79.1564],[20.7645,79.3389],[18.4721,79.9865],[19.941,80.3975]]],[[[17.2943,79.8625],[20.154,79.2904],[23.7893,77.7328],[21.7104,77.5261],[20.718,78.5597],[19.663,78.5491],[16.9787,76.7467],[14.3397,77.3822],[13.8293,78.2881],[11.9024,78.6604],[10.7414,79.6461],[13.7058,79.5118],[17.2943,79.8625]]]]},"properties":{"NUTS_ID":"NO0","LEVL_CODE":1,"CNTR_CODE":"NO","NAME_LATN":"Norge","NUTS_NAME":"Norge","MOUNT_TYPE":null,"URBN_TYPE":null,"COAST_TYPE":null}},{"type":"Feature","geometry":{"type":"Polygon","coordinates":[[[18.8516,49.5172],[18.5757,49.9104],[18.0351,50.0658],[18.4259,50.249],[18.673,51.0569],[19.7471,50.866],[19.95,50.5048],[20.6815,50.2059],[21.2088,50.3549],[21.3977,49.4338],[19.8839,49.2042],[19.4674,49.6138],[18.8516,49.5172]]]},"properties":{"NUTS_ID":"PL2","LEVL_CODE":1,"CNTR_CODE":"PL","NAME_LATN":"Makroregion południowy","NUTS_NAME":"Makroregion południowy","MOUNT_TYPE":null,"URBN_TYPE":null,"COAST_TYPE":null}},{"type":"Feature","geometry":{"type":"Polygon","coordinates":[[[14.9742,51.3639],[14.7299,51.5818],[14.5651,52.6245],[14.1567,52.8956],[14.4122,53.3296],[14.2675,53.6979],[14.6009,53.9675],[16.6991,54.5692],[16.8922,53.6559],[17.3907,53.491],[17.4585,52.7389],[19.0471,52.3328],[18.472,51.851],[18.1637,51.1725],[17.2574,51.6428],[16.4162,51.7849],[14.9742,51.3639]]]},"properties":{"NUTS_ID":"PL4","LEVL_CODE":1,"CNTR_CODE":"PL","NAME_LATN":"Makroregion północno-zachodni","NUTS_NAME":"Makroregion północno-zachodni","MOUNT_TYPE":null,"URBN_TYPE":null,"COAST_TYPE":null}},{"type":"Feature","geometry":{"type":"Polygon","coordinates":[[[14.8234,50.8706],[14.9742,51.3639],[16.4162,51.7849],[17.2574,51.6428],[18.1637,51.1725],[18.673,51.0569],[18.4259,50.249],[18.0351,50.0658],[16.9079,50.4495],[14.8234,50.8706]]]},"properties":{"NUTS_ID":"PL5","LEVL_CODE":1,"CNTR_CODE":"PL","NAME_LATN":"Makroregion południowo-zachodni","NUTS_NAME":"Makroregion południowo-zachodni","MOUNT_TYPE":null,"URBN_TYPE":null,"COAST_TYPE":null}},{"type":"Feature","geometry":{"type":"Polygon","coordinates":[[[19.0471,52.3328],[17.4585,52.7389],[17.3907,53.491],[16.8922,53.6559],[16.6991,54.5692],[18.2684,54.8106],[18.7821,54.3701],[19.8039,54.4423],[21.5593,54.3225],[22.792,54.3634],[22.6928,53.8021],[21.613,53.4808],[19.7616,53.1518],[19.2892,52.3927],[19.0471,52.3328]]]},"properties":{"NUTS_ID":"PL6","LEVL_CODE":1,"CNTR_CODE":"PL","NAME_LATN":"Makroregion północny","NUTS_NAME":"Makroregion północny","MOUNT_TYPE":null,"URBN_TYPE":null,"COAST_TYPE":null}},{"type":"Feature","geometry":{"type":"Polygon","coordinates":[[[21.2088,50.3549],[20.6815,50.2059],[19.95,50.5048],[19.7471,50.866],[18.673,51.0569],[18.1637,51.1725],[18.472,51.851],[19.0471,52.3328],[19.2892,52.3927],[19.9361,52.2997],[20.5339,51.8354],[20.4328,51.3394],[21.803,51.0721],[21.8643,50.8027],[21.2088,50.3549]]]},"properties":{"NUTS_ID":"PL7","LEVL_CODE":1,"CNTR_CODE":"PL","NAME_LATN":"Makroregion centralny","NUTS_NAME":"Makroregion centralny","MOUNT_TYPE":null,"URBN_TYPE":null,"COAST_TYPE":null}},{"type":"Feature","geometry":{"type":"Polygon","coordinates":[[[22.792,54.3634],[23.5146,53.9566],[23.939,52.778],[23.1784,52.2832],[23.6179,52.0333],[23.6174,51.5095],[24.0982,50.6374],[22.6861,49.5732],[22.5668,49.0884],[21.3977,49.4338],[21.2088,50.3549],[21.8643,50.8027],[21.803,51.0721],[21.6155,51.6176],[21.9858,51.9913],[23.1284,52.2878],[22.4086,52.6097],[21.613,53.4808],[22.6928,53.8021],[22.792,54.3634]]]},"properties":{"NUTS_ID":"PL8","LEVL_CODE":1,"CNTR_CODE":"PL","NAME_LATN":"Makroregion wschodni","NUTS_NAME":"Makroregion wschodni","MOUNT_TYPE":null,"URBN_TYPE":null,"COAST_TYPE":null}},{"type":"Feature","geometry":{"type":"Polygon","coordinates":[[[19.2892,52.3927],[19.7616,53.1518],[21.613,53.4808],[22.4086,52.6097],[23.1284,52.2878],[21.9858,51.9913],[21.6155,51.6176],[21.803,51.0721],[20.4328,51.3394],[20.5339,51.8354],[19.9361,52.2997],[19.2892,52.3927]]]},"properties":{"NUTS_ID":"PL9","LEVL_CODE":1,"CNTR_CODE":"PL","NAME_LATN":"Makroregion województwo mazowieckie","NUTS_NAME":"Makroregion województwo mazowieckie","MOUNT_TYPE":null,"URBN_TYPE":null,"COAST_TYPE":null}},{"type":"Feature","geometry":{"type":"Polygon","coordinates":[[[-8.8632,41.8721],[-8.1651,41.8183],[-6.9858,41.9714],[-6.261,41.5521],[-6.9299,41.0293],[-6.8651,40.2707],[-7.0105,39.7373],[-7.5428,39.6628],[-7.0199,39.0035],[-7.275,38.4434],[-6.9317,38.2084],[-7.5127,37.5263],[-7.4019,37.1748],[-7.8209,37.0331],[-8.8264,37.0891],[-8.735,38.5157],[-9.4066,38.7293],[-9.4164,39.0548],[-8.8949,40.0455],[-8.6531,40.9648],[-8.8632,41.8721]]]},"properties":{"NUTS_ID":"PT1","LEVL_CODE":1,"CNTR_CODE":"PT","NAME_LATN":"Continente","NUTS_NAME":"Continente","MOUNT_TYPE":null,"URBN_TYPE":null,"COAST_TYPE":null}},{"type":"Feature","geometry":{"type":"Polygon","coordinates":[[[-26.8349,38.7556],[-27.0764,38.5875],[-27.3868,38.6964],[-27.0627,38.8522],[-26.8349,38.7556]]]},"properties":{"NUTS_ID":"PT2","LEVL_CODE":1,"CNTR_CODE":"PT","NAME_LATN":"Região Autónoma dos Açores","NUTS_NAME":"Região Autónoma dos Açores","MOUNT_TYPE":null,"URBN_TYPE":null,"COAST_TYPE":null}},{"type":"Feature","geometry":{"type":"Polygon","coordinates":[[[-15.8197,30.0254],[-16.0138,29.859],[-16.2458,30.0598],[-16.0214,30.2005],[-15.8197,30.0254]]]},"properties":{"NUTS_ID":"PT3","LEVL_CODE":1,"CNTR_CODE":"PT","NAME_LATN":"Região Autónoma da Madeira","NUTS_NAME":"Região Autónoma da Madeira","MOUNT_TYPE":null,"URBN_TYPE":null,"COAST_TYPE":null}},{"type":"Feature","geometry":{"type":"Polygon","coordinates":[[[21.4414,46.6515],[22.1282,47.5981],[22.8736,47.968],[24.5623,47.968],[24.9471,47.7291],[25.0635,47.1364],[25.6616,47.0918],[26.44,46.0389],[26.0727,45.5058],[25.3216,45.381],[24.5231,45.5806],[23.5973,45.4735],[23.1454,46.1197],[22.6766,46.4058],[21.4414,46.6515]]]},"properties":{"NUTS_ID":"RO1","LEVL_CODE":1,"CNTR_CODE":"RO","NAME_LATN":"Macroregiunea Unu","NUTS_NAME":"Macroregiunea Unu","MOUNT_TYPE":null,"URBN_TYPE":null,"COAST_TYPE":null}},{"type":"Feature","geometry":{"type":"Polygon","coordinates":[[[28.5789,43.7387],[27.2713,44.1263],[28.0174,44.3402],[27.881,44.7631],[26.6056,44.857],[26.0727,45.5058],[26.44,46.0389],[25.6616,47.0918],[25.0635,47.1364],[24.9471,47.7291],[27.0283,48.1374],[28.2445,46.6366],[28.2114,45.4673],[28.5557,45.2869],[29.3212,45.4097],[29.5092,44.8252],[28.6768,44.3277],[28.5789,43.7387]]]},"properties":{"NUTS_ID":"RO2","LEVL_CODE":1,"CNTR_CODE":"RO","NAME_LATN":"Macroregiunea Doi","NUTS_NAME":"Macroregiunea Doi","MOUNT_TYPE":null,"URBN_TYPE":null,"COAST_TYPE":null}},{"type":"Feature","geometry":{"type":"Polygon","coordinates":[[[27.2713,44.1263],[26.3582,44.0372],[25.5445,43.6428],[24.6548,43.7236],[24.884,44.3826],[24.4938,44.8335],[24.5231,45.5806],[25.3216,45.381],[26.0727,45.5058],[26.6056,44.857],[27.881,44.7631],[28.0174,44.3402],[27.2713,44.1263]]]},"properties":{"NUTS_ID":"RO3","LEVL_CODE":1,"CNTR_CODE":"RO","NAME_LATN":"Macroregiunea Trei","NUTS_NAME":"Macroregiunea Trei","MOUNT_TYPE":null,"URBN_TYPE":null,"COAST_TYPE":null}},{"type":"Feature","geometry":{"type":"Polygon","coordinates":[[[24.6548,43.7236],[22.9972,43.8079],[22.6752,44.2157],[22.5078,44.6414],[21.3585,44.8216],[20.2643,46.1264],[21.1474,46.3359],[21.4414,46.6515],[22.6766,46.4058],[23.1454,46.1197],[23.5973,45.4735],[24.5231,45.5806],[24.4938,44.8335],[24.884,44.3826],[24.6548,43.7236]]]},"properties":{"NUTS_ID":"RO4","LEVL_CODE":1,"CNTR_CODE":"RO","NAME_LATN":"Macroregiunea Patru","NUTS_NAME":"Macroregiunea Patru","MOUNT_TYPE":null,"URBN_TYPE":null,"COAST_TYPE":null}},{"type":"Feature","geometry":{"type":"Polygon","coordinates":[[[19.3512,44.8891],[19.0221,44.8554],[19.1303,45.1138],[18.8897,45.9212],[19.6981,46.1879],[20.2643,46.1264],[21.3585,44.8216],[20.4003,44.3131],[19.6788,44.8817],[19.3512,44.8891]]]},"properties":{"NUTS_ID":"RS1","LEVL_CODE":1,"CNTR_CODE":"RS","NAME_LATN":"Serbia - sever","NUTS_NAME":"Србија - север ","MOUNT_TYPE":null,"URBN_TYPE":null,"COAST_TYPE":null}},{"type":"Feature","geometry":{"type":"Polygon","coordinates":[[[19.2241,43.5275],[19.4971,44.0991],[19.1658,44.3702],[19.3512,44.8891],[19.6788,44.8817],[20.4003,44.3131],[21.3585,44.8216],[22.5078,44.6414],[22.6752,44.2157],[22.4068,43.7521],[23.0062,43.1929],[22.4428,42.8255],[22.3602,42.3112],[21.5869,42.2628],[21.7534,42.7009],[20.9236,43.1461],[20.3529,42.8334],[19.2241,43.5275]]]},"properties":{"NUTS_ID":"RS2","LEVL_CODE":1,"CNTR_CODE":"RS","NAME_LATN":"Serbia - jug ","NUTS_NAME":"Србија - југ ","MOUNT_TYPE":null,"URBN_TYPE":null,"COAST_TYPE":null}},{"type":"Feature","geometry":{"type":"Polygon","coordinates":[[[16.6667,57.996],[16.1038,58.0444],[15.4211,57.7049],[14.9106,58.1166],[14.7789,58.646],[14.296,59.0128],[14.4372,60.0262],[15.4221,59.8547],[17.1189,60.2766],[17.3727,60.6536],[18.5311,60.3247],[19.1576,59.6],[18.4817,59.0127],[16.7539,58.6263],[16.6667,57.996]]]},"properties":{"NUTS_ID":"SE1","LEVL_CODE":1,"CNTR_CODE":"SE","NAME_LATN":"Östra Sverige","NUTS_NAME":"Östra Sverige","MOUNT_TYPE":null,"URBN_TYPE":null,"COAST_TYPE":null}},{"type":"Feature","geometry":{"type":"Polygon","coordinates":[[[11.2448,59.0919],[11.8262,59.2379],[12.5516,59.1439],[13.1994,58.7662],[14.296,59.0128],[14.7789,58.646],[14.9106,58.1166],[15.4211,57.7049],[16.1038,58.0444],[16.6667,57.996],[16.5035,56.3245],[14.5464,56.0613],[14.2132,55.4339],[13.3122,55.3411],[12.5557,56.1789],[12.8993,56.449],[11.2218,58.506],[11.2448,59.0919]]]},"properties":{"NUTS_ID":"SE2","LEVL_CODE":1,"CNTR_CODE":"SE","NAME_LATN":"Södra Sverige","NUTS_NAME":"Södra Sverige","MOUNT_TYPE":null,"URBN_TYPE":null,"COAST_TYPE":null}},{"type":"Feature","geometry":{"type":"Polygon","coordinates":[[[20.5486,69.06],[23.0071,68.3068],[23.4772,67.9929],[23.9021,66.765],[23.701,66.3347],[24.1551,65.816],[21.9126,65.3122],[21.2905,64.8172],[21.442,64.3957],[20.4927,63.7266],[19.2865,63.4697],[17.5733,62.4347],[17.2493,61.0023],[17.3727,60.6536],[17.1189,60.2766],[15.4221,59.8547],[14.4372,60.0262],[14.296,59.0128],[13.1994,58.7662],[12.5516,59.1439],[11.8262,59.2379],[11.8398,59.8407],[12.4187,60.1131],[12.3502,60.9441],[12.7909,61.3923],[12.1524,61.7726],[12.2994,62.2675],[12.0396,63.1979],[12.3354,63.7253],[14.0231,64.1665],[13.7344,64.6109],[14.326,65.1189],[14.6167,66.1227],[15.454,66.3452],[16.2699,67.0454],[16.8794,67.9382],[17.9245,68.0728],[18.1259,68.5365],[19.9361,68.3903],[20.5486,69.06]]]},"properties":{"NUTS_ID":"SE3","LEVL_CODE":1,"CNTR_CODE":"SE","NAME_LATN":"Norra Sverige","NUTS_NAME":"Norra Sverige","MOUNT_TYPE":null,"URBN_TYPE":null,"COAST_TYPE":null}},{"type":"Feature","geometry":{"type":"Polygon","coordinates":[[[15.9962,46.8354],[16.1138,46.8691],[16.5968,46.4759],[15.6749,46.2271],[15.7064,45.9753],[14.7872,45.5009],[13.5856,45.4785],[13.7232,45.5948],[13.7142,46.5227],[14.5652,46.3725],[15.0651,46.6521],[15.9962,46.8354]]]},"properties":{"NUTS_ID":"SI0","LEVL_CODE":1,"CNTR_CODE":"SI","NAME_LATN":"Slovenija","NUTS_NAME":"Slovenija","MOUNT_TYPE":null,"URBN_TYPE":null,"COAST_TYPE":null}},{"type":"Feature","geometry":{"type":"Polygon","coordinates":[[[17.1608,48.0067],[16.9403,48.6172],[17.6469,48.8543],[18.8516,49.5172],[19.4674,49.6138],[19.8839,49.2042],[21.3977,49.4338],[22.5668,49.0884],[22.1553,48.4034],[21.3882,48.5496],[20.4639,48.464],[20.0519,48.1677],[18.9284,48.0567],[18.8494,47.8172],[17.7054,47.759],[17.1608,48.0067]]]},"properties":{"NUTS_ID":"SK0","LEVL_CODE":1,"CNTR_CODE":"SK","NAME_LATN":"Slovensko","NUTS_NAME":"Slovensko","MOUNT_TYPE":null,"URBN_TYPE":null,"COAST_TYPE":null}},{"type":"Feature","geometry":{"type":"Polygon","coordinates":[[[28.0134,41.0343],[28.1555,41.5799],[29.1202,41.2251],[28.8703,40.9716],[28.0134,41.0343]]]},"properties":{"NUTS_ID":"TR1","LEVL_CODE":1,"CNTR_CODE":"TR","NAME_LATN":"İstanbul","NUTS_NAME":"İstanbul","MOUNT_TYPE":null,"URBN_TYPE":null,"COAST_TYPE":null}},{"type":"Feature","geometry":{"type":"MultiPolygon","coordinates":[[[[26.0328,40.7303],[26.5712,41.4747],[26.3579,41.7111],[26.5615,41.9263],[27.0597,42.0883],[27.9024,41.9601],[28.1555,41.5799],[28.0134,41.0343],[27.2573,40.7054],[26.0328,40.7303]]],[[[28.9976,39.5987],[28.6325,39.1682],[27.4,39.371],[26.7686,39.1667],[26.6587,39.5523],[26.0403,39.8541],[26.4937,40.4253],[27.5169,40.3034],[28.179,40.3973],[28.2141,40.0115],[28.9976,39.5987]]]]},"properties":{"NUTS_ID":"TR2","LEVL_CODE":1,"CNTR_CODE":"TR","NAME_LATN":"Batı Marmara","NUTS_NAME":"Batı Marmara","MOUNT_TYPE":null,"URBN_TYPE":null,"COAST_TYPE":null}},{"type":"Feature","geometry":{"type":"Polygon","coordinates":[[[26.7686,39.1667],[27.4,39.371],[28.6325,39.1682],[28.9976,39.5987],[29.5134,39.8628],[30.2394,39.6119],[30.4642,39.2137],[31.5925,39.0433],[31.2377,38.3834],[30.8005,38.3664],[30.0926,37.7992],[29.5166,37.5082],[29.2686,36.3041],[29.0375,36.597],[28.1431,36.7505],[27.3699,37.0163],[27.2474,37.8593],[26.4282,38.3114],[26.7095,38.5945],[26.7686,39.1667]]]},"properties":{"NUTS_ID":"TR3","LEVL_CODE":1,"CNTR_CODE":"TR","NAME_LATN":"Ege","NUTS_NAME":"Ege","MOUNT_TYPE":null,"URBN_TYPE":null,"COAST_TYPE":null}},{"type":"Feature","geometry":{"type":"Polygon","coordinates":[[[29.34,40.8107],[29.9182,41.1415],[31.293,41.1158],[31.9809,41.0463],[32.5653,40.7428],[31.8964,40.3674],[31.7233,39.9656],[31.9706,39.4533],[31.5925,39.0433],[30.4642,39.2137],[30.2394,39.6119],[29.5134,39.8628],[28.9976,39.5987],[28.2141,40.0115],[28.179,40.3973],[28.8881,40.3831],[29.34,40.8107]]]},"properties":{"NUTS_ID":"TR4","LEVL_CODE":1,"CNTR_CODE":"TR","NAME_LATN":"Doğu Marmara","NUTS_NAME":"Doğu Marmara","MOUNT_TYPE":null,"URBN_TYPE":null,"COAST_TYPE":null}},{"type":"Feature","geometry":{"type":"Polygon","coordinates":[[[31.2377,38.3834],[31.5925,39.0433],[31.9706,39.4533],[31.7233,39.9656],[31.8964,40.3674],[32.5653,40.7428],[33.6482,40.2947],[33.2636,39.7215],[33.8852,39.0279],[33.3237,38.6619],[33.2937,38.092],[34.0607,38.0614],[34.4365,37.3314],[33.169,36.9002],[32.9638,36.5652],[31.8028,37.2994],[31.3194,37.4107],[31.4644,37.9907],[31.2377,38.3834]]]},"properties":{"NUTS_ID":"TR5","LEVL_CODE":1,"CNTR_CODE":"TR","NAME_LATN":"Batı Anadolu","NUTS_NAME":"Batı Anadolu","MOUNT_TYPE":null,"URBN_TYPE":null,"COAST_TYPE":null}},{"type":"Feature","geometry":{"type":"Polygon","coordinates":[[[29.2686,36.3041],[29.5166,37.5082],[30.0926,37.7992],[30.8005,38.3664],[31.2377,38.3834],[31.4644,37.9907],[31.3194,37.4107],[31.8028,37.2994],[32.9638,36.5652],[33.169,36.9002],[34.4365,37.3314],[35.3111,37.7176],[36.0932,38.2557],[37.3169,38.578],[37.6158,37.9442],[37.6038,37.4835],[36.6652,36.8268],[36.6576,36.3148],[36.1641,35.8193],[35.8386,36.3013],[34.8716,36.7668],[33.5399,36.1568],[32.5624,36.1007],[31.3851,36.7668],[30.8005,36.8471],[30.1763,36.2665],[29.2686,36.3041]]]},"properties":{"NUTS_ID":"TR6","LEVL_CODE":1,"CNTR_CODE":"TR","NAME_LATN":"Akdeniz","NUTS_NAME":"Akdeniz","MOUNT_TYPE":null,"URBN_TYPE":null,"COAST_TYPE":null}},{"type":"Feature","geometry":{"type":"Polygon","coordinates":[[[34.4365,37.3314],[34.0607,38.0614],[33.2937,38.092],[33.3237,38.6619],[33.8852,39.0279],[33.2636,39.7215],[33.6482,40.2947],[34.2078,39.972],[34.9805,40.0354],[35.4451,40.2508],[35.988,39.9233],[37.5781,40.3904],[38.7722,40.0671],[38.2979,39.6332],[38.3153,39.1463],[37.5426,38.9723],[37.3169,38.578],[36.0932,38.2557],[35.3111,37.7176],[34.4365,37.3314]]]},"properties":{"NUTS_ID":"TR7","LEVL_CODE":1,"CNTR_CODE":"TR","NAME_LATN":"Orta Anadolu","NUTS_NAME":"Orta Anadolu","MOUNT_TYPE":null,"URBN_TYPE":null,"COAST_TYPE":null}},{"type":"Feature","geometry":{"type":"Polygon","coordinates":[[[32.5653,40.7428],[31.9809,41.0463],[31.293,41.1158],[31.3927,41.3056],[32.7578,41.8486],[33.399,42.0005],[34.9564,42.0359],[35.5137,41.636],[37.1699,41.1476],[36.6824,40.8869],[37.5781,40.3904],[35.988,39.9233],[35.4451,40.2508],[34.9805,40.0354],[34.2078,39.972],[33.6482,40.2947],[32.5653,40.7428]]]},"properties":{"NUTS_ID":"TR8","LEVL_CODE":1,"CNTR_CODE":"TR","NAME_LATN":"Batı Karadeniz","NUTS_NAME":"Batı Karadeniz","MOUNT_TYPE":null,"URBN_TYPE":null,"COAST_TYPE":null}},{"type":"Feature","geometry":{"type":"Polygon","coordinates":[[[38.7722,40.0671],[37.5781,40.3904],[36.6824,40.8869],[37.1699,41.1476],[38.116,40.958],[39.1806,41.0737],[40.3297,40.9884],[41.5471,41.5204],[42.5202,41.4367],[42.3686,40.9728],[41.4733,40.6588],[41.1293,40.8257],[39.8255,40.3423],[39.7978,39.9272],[38.7722,40.0671]]]},"properties":{"NUTS_ID":"TR9","LEVL_CODE":1,"CNTR_CODE":"TR","NAME_LATN":"Doğu Karadeniz","NUTS_NAME":"Doğu Karadeniz","MOUNT_TYPE":null,"URBN_TYPE":null,"COAST_TYPE":null}},{"type":"Feature","geometry":{"type":"Polygon","coordinates":[[[38.3153,39.1463],[38.2979,39.6332],[38.7722,40.0671],[39.7978,39.9272],[39.8255,40.3423],[41.1293,40.8257],[41.4733,40.6588],[42.3686,40.9728],[42.5202,41.4367],[42.8368,41.541],[43.4683,41.0333],[43.6487,40.1312],[44.3997,39.9888],[44.3794,39.4425],[44.0377,39.3613],[43.2648,39.3066],[42.7046,38.9464],[42.4196,39.5347],[41.741,39.1947],[40.4038,39.565],[39.2036,39.4404],[38.7656,39.0124],[38.3153,39.1463]]]},"properties":{"NUTS_ID":"TRA","LEVL_CODE":1,"CNTR_CODE":"TR","NAME_LATN":"Kuzeydoğu Anadolu","NUTS_NAME":"Kuzeydoğu Anadolu","MOUNT_TYPE":null,"URBN_TYPE":null,"COAST_TYPE":null}},{"type":"Feature","geometry":{"type":"Polygon","coordinates":[[[37.6158,37.9442],[37.3169,38.578],[37.5426,38.9723],[38.3153,39.1463],[38.7656,39.0124],[39.2036,39.4404],[40.4038,39.565],[41.741,39.1947],[42.4196,39.5347],[42.7046,38.9464],[43.2648,39.3066],[44.0377,39.3613],[44.4629,37.8096],[44.7837,37.1541],[43.2363,37.3475],[42.684,38.0304],[41.647,38.2607],[41.1392,38.7146],[40.2936,38.4767],[39.1514,38.2993],[38.7623,38.0292],[38.3201,38.171],[37.6158,37.9442]]]},"properties":{"NUTS_ID":"TRB","LEVL_CODE":1,"CNTR_CODE":"TR","NAME_LATN":"Ortadoğu Anadolu","NUTS_NAME":"Ortadoğu Anadolu","MOUNT_TYPE":null,"URBN_TYPE":null,"COAST_TYPE":null}},{"type":"Feature","geometry":{"type":"Polygon","coordinates":[[[36.6652,36.8268],[37.6038,37.4835],[37.6158,37.9442],[38.3201,38.171],[38.7623,38.0292],[39.1514,38.2993],[40.2936,38.4767],[41.1392,38.7146],[41.647,38.2607],[42.684,38.0304],[43.2363,37.3475],[40.2763,36.9176],[39.4389,36.6975],[38.025,36.8303],[37.1412,36.6595],[36.6652,36.8268]]]},"properties":{"NUTS_ID":"TRC","LEVL_CODE":1,"CNTR_CODE":"TR","NAME_LATN":"Güneydoğu Anadolu","NUTS_NAME":"Güneydoğu Anadolu","MOUNT_TYPE":null,"URBN_TYPE":null,"COAST_TYPE":null}},{"type":"Feature","geometry":{"type":"Polygon","coordinates":[[[21.015,60.1736],[20.2558,59.8787],[19.5233,60.2356],[20.4976,60.502],[21.015,60.1736]]]},"properties":{"NUTS_ID":"FI2","LEVL_CODE":1,"CNTR_CODE":"FI","NAME_LATN":"Åland","NUTS_NAME":"Åland","MOUNT_TYPE":null,"URBN_TYPE":null,"COAST_TYPE":null}},{"type":"Feature","geometry":{"type":"Polygon","coordinates":[[[3.4852,48.8519],[3.4148,48.3903],[2.9363,48.1634],[1.9941,48.2866],[1.5015,48.9411],[1.7044,49.2322],[3.0719,49.1176],[3.4852,48.8519]]]},"properties":{"NUTS_ID":"FR1","LEVL_CODE":1,"CNTR_CODE":"FR","NAME_LATN":"Ile-de-France","NUTS_NAME":"Ile-de-France","MOUNT_TYPE":null,"URBN_TYPE":null,"COAST_TYPE":null}},{"type":"Feature","geometry":{"type":"Polygon","coordinates":[[[1.5015,48.9411],[1.9941,48.2866],[2.9363,48.1634],[2.8746,47.5204],[3.0321,46.7949],[2.281,46.4204],[1.1773,46.3839],[0.8675,46.7482],[0.0538,47.1637],[0.6144,47.6942],[0.7977,48.1945],[0.8148,48.6702],[1.5015,48.9411]]]},"properties":{"NUTS_ID":"FRB","LEVL_CODE":1,"CNTR_CODE":"FR","NAME_LATN":"Centre — Val de Loire","NUTS_NAME":"Centre — Val de Loire","MOUNT_TYPE":null,"URBN_TYPE":null,"COAST_TYPE":null}},{"type":"Feature","geometry":{"type":"Polygon","coordinates":[[[7.1304,47.503],[6.064,46.4162],[4.7802,46.1767],[3.8995,46.2759],[3.6294,46.7495],[3.0321,46.7949],[2.8746,47.5204],[2.9363,48.1634],[3.4148,48.3903],[4.2934,47.9257],[4.7042,48.0202],[5.3741,47.6045],[6.1291,47.9895],[6.8235,47.8131],[7.1304,47.503]]]},"properties":{"NUTS_ID":"FRC","LEVL_CODE":1,"CNTR_CODE":"FR","NAME_LATN":"Bourgogne-Franche-Comté","NUTS_NAME":"Bourgogne-Franche-Comté","MOUNT_TYPE":null,"URBN_TYPE":null,"COAST_TYPE":null}},{"type":"Feature","geometry":{"type":"Polygon","coordinates":[[[1.7044,49.2322],[1.5015,48.9411],[0.8148,48.6702],[0.7977,48.1945],[-1.0554,48.508],[-1.5711,48.6265],[-1.7654,49.5764],[-1.1196,49.3223],[0.2972,49.4299],[0.3352,49.7267],[1.3796,50.0651],[1.7838,49.7583],[1.7044,49.2322]]]},"properties":{"NUTS_ID":"FRD","LEVL_CODE":1,"CNTR_CODE":"FR","NAME_LATN":"Normandie","NUTS_NAME":"Normandie","MOUNT_TYPE":null,"URBN_TYPE":null,"COAST_TYPE":null}},{"type":"Feature","geometry":{"type":"Polygon","coordinates":[[[2.5461,51.0894],[3.177,50.7562],[4.0278,50.3583],[4.2331,49.9578],[4.048,49.4056],[3.4852,48.8519],[3.0719,49.1176],[1.7044,49.2322],[1.7838,49.7583],[1.3796,50.0651],[1.6552,50.83],[2.5461,51.0894]]]},"properties":{"NUTS_ID":"FRE","LEVL_CODE":1,"CNTR_CODE":"FR","NAME_LATN":"Hauts-de-France","NUTS_NAME":"Hauts-de-France","MOUNT_TYPE":null,"URBN_TYPE":null,"COAST_TYPE":null}},{"type":"Feature","geometry":{"type":"Polygon","coordinates":[[[7.3688,49.1615],[8.2326,48.9666],[7.577,48.1191],[7.589,47.5899],[7.1304,47.503],[6.8235,47.8131],[6.1291,47.9895],[5.3741,47.6045],[4.7042,48.0202],[4.2934,47.9257],[3.4148,48.3903],[3.4852,48.8519],[4.048,49.4056],[4.2331,49.9578],[5.8181,49.5463],[6.3671,49.4695],[7.3688,49.1615]]]},"properties":{"NUTS_ID":"FRF","LEVL_CODE":1,"CNTR_CODE":"FR","NAME_LATN":"Grand Est","NUTS_NAME":"Grand Est","MOUNT_TYPE":null,"URBN_TYPE":null,"COAST_TYPE":null}},{"type":"Feature","geometry":{"type":"Polygon","coordinates":[[[0.7977,48.1945],[0.6144,47.6942],[0.0538,47.1637],[-0.892,46.9758],[-0.6688,46.6167],[-1.0757,46.32],[-1.6623,46.4409],[-2.4263,47.4761],[-1.2459,47.7767],[-1.0554,48.508],[0.7977,48.1945]]]},"properties":{"NUTS_ID":"FRG","LEVL_CODE":1,"CNTR_CODE":"FR","NAME_LATN":"Pays de la Loire","NUTS_NAME":"Pays de la Loire","MOUNT_TYPE":null,"URBN_TYPE":null,"COAST_TYPE":null}},{"type":"Feature","geometry":{"type":"Polygon","coordinates":[[[-1.5711,48.6265],[-1.0554,48.508],[-1.2459,47.7767],[-2.4263,47.4761],[-3.523,47.8491],[-4.3104,47.9087],[-4.6589,48.4244],[-4.1157,48.6744],[-3.162,48.7944],[-2.6202,48.5821],[-1.5711,48.6265]]]},"properties":{"NUTS_ID":"FRH","LEVL_CODE":1,"CNTR_CODE":"FR","NAME_LATN":"Bretagne","NUTS_NAME":"Bretagne","MOUNT_TYPE":null,"URBN_TYPE":null,"COAST_TYPE":null}},{"type":"Feature","geometry":{"type":"Polygon","coordinates":[[[-0.3133,42.8494],[-1.786,43.3506],[-1.5248,43.5296],[-1.2541,44.4676],[-1.0757,46.32],[-0.6688,46.6167],[-0.892,46.9758],[0.0538,47.1637],[0.8675,46.7482],[1.1773,46.3839],[2.281,46.4204],[2.5654,46.143],[2.5084,45.4785],[2.1104,44.9836],[1.4483,45.0193],[0.7419,44.0652],[0.076,43.9831],[-0.3133,42.8494]]]},"properties":{"NUTS_ID":"FRI","LEVL_CODE":1,"CNTR_CODE":"FR","NAME_LATN":"Nouvelle-Aquitaine","NUTS_NAME":"Nouvelle-Aquitaine","MOUNT_TYPE":null,"URBN_TYPE":null,"COAST_TYPE":null}},{"type":"Feature","geometry":{"type":"Polygon","coordinates":[[[0.6601,42.691],[-0.3133,42.8494],[0.076,43.9831],[0.7419,44.0652],[1.4483,45.0193],[2.1104,44.9836],[2.9817,44.6447],[3.3613,44.9714],[3.9982,44.4598],[4.6492,44.2704],[4.7391,43.9241],[4.2303,43.4602],[3.2405,43.2129],[3.174,42.4352],[1.7258,42.5044],[1.4297,42.6178],[0.6601,42.691]]]},"properties":{"NUTS_ID":"FRJ","LEVL_CODE":1,"CNTR_CODE":"FR","NAME_LATN":"Occitanie","NUTS_NAME":"Occitanie","MOUNT_TYPE":null,"URBN_TYPE":null,"COAST_TYPE":null}},{"type":"Feature","geometry":{"type":"Polygon","coordinates":[[[6.064,46.4162],[6.8211,46.4272],[7.0449,45.9224],[7.1419,45.351],[6.6301,45.1099],[5.8015,44.7068],[5.4988,44.1157],[4.6492,44.2704],[3.9982,44.4598],[3.3613,44.9714],[2.9817,44.6447],[2.1104,44.9836],[2.5084,45.4785],[2.5654,46.143],[2.281,46.4204],[3.0321,46.7949],[3.6294,46.7495],[3.8995,46.2759],[4.7802,46.1767],[6.064,46.4162]]]},"properties":{"NUTS_ID":"FRK","LEVL_CODE":1,"CNTR_CODE":"FR","NAME_LATN":"Auvergne-Rhône-Alpes","NUTS_NAME":"Auvergne-Rhône-Alpes","MOUNT_TYPE":null,"URBN_TYPE":null,"COAST_TYPE":null}},{"type":"Feature","geometry":{"type":"Polygon","coordinates":[[[6.6301,45.1099],[7.0658,44.7135],[6.8874,44.3613],[7.7142,44.0615],[7.5299,43.784],[6.4503,43.147],[5.6719,43.1793],[4.2303,43.4602],[4.7391,43.9241],[4.6492,44.2704],[5.4988,44.1157],[5.8015,44.7068],[6.6301,45.1099]]]},"properties":{"NUTS_ID":"FRL","LEVL_CODE":1,"CNTR_CODE":"FR","NAME_LATN":"Provence-Alpes-Côte d’Azur","NUTS_NAME":"Provence-Alpes-Côte d’Azur","MOUNT_TYPE":null,"URBN_TYPE":null,"COAST_TYPE":null}},{"type":"Feature","geometry":{"type":"Polygon","coordinates":[[[9.4022,41.8587],[8.9228,41.5518],[8.5735,42.3813],[9.4818,42.6178],[9.4022,41.8587]]]},"properties":{"NUTS_ID":"FRM","LEVL_CODE":1,"CNTR_CODE":"FR","NAME_LATN":"Corse","NUTS_NAME":"Corse","MOUNT_TYPE":null,"URBN_TYPE":null,"COAST_TYPE":null}},{"type":"Feature","geometry":{"type":"MultiPolygon","coordinates":[[[[55.8643,-21.247],[55.4902,-21.4001],[55.1208,-21.012],[55.6105,-20.8521],[55.8643,-21.247]]],[[[-52.5022,2.7137],[-52.8923,2.2342],[-54.1715,2.1462],[-54.6003,2.3375],[-54.2661,2.7137],[-54.0163,3.5539],[-54.3776,4.2092],[-54.4562,4.8468],[-53.9677,5.7451],[-52.9187,5.4087],[-51.8322,4.6079],[-51.6243,4.201],[-52.5022,2.7137]]]]},"properties":{"NUTS_ID":"FRY","LEVL_CODE":1,"CNTR_CODE":"FR","NAME_LATN":"RUP FR — Régions Ultrapériphériques Françaises","NUTS_NAME":"RUP FR — Régions Ultrapériphériques Françaises","MOUNT_TYPE":null,"URBN_TYPE":null,"COAST_TYPE":null}}]}