{"type":"FeatureCollection","features":[{"type":"Feature","geometry":{"type":"Polygon","coordinates":[[[3.4852,48.8519],[3.4322,48.8123],[3.4302,48.7569],[3.5175,48.6434],[3.4349,48.4975],[3.3884,48.4804],[3.4148,48.3903],[3.2544,48.365],[3.0495,48.3601],[3.0159,48.3079],[3.0436,48.272],[3.0052,48.2077],[2.9363,48.1634],[2.7989,48.1683],[2.7065,48.1248],[2.5375,48.1403],[2.4691,48.2553],[2.3633,48.3096],[2.1807,48.3117],[2.0438,48.2864],[1.9592,48.3087],[1.9766,48.3994],[1.8449,48.4494],[1.7768,48.5093],[1.7872,48.5537],[1.7093,48.578],[1.5795,48.7018],[1.6264,48.7481],[1.5757,48.7905],[1.5816,48.855],[1.5015,48.9411],[1.4474,49.0452],[1.6017,49.0845],[1.6558,49.1302],[1.7044,49.2322],[1.7421,49.1802],[1.8852,49.1626],[2.0006,49.1757],[2.0749,49.2087],[2.2525,49.1529],[2.3463,49.1618],[2.4716,49.1354],[2.5905,49.0797],[2.6333,49.1084],[2.7067,49.0657],[2.7919,49.0902],[2.9746,49.0748],[3.0719,49.1176],[3.1652,49.0997],[3.1683,49.0167],[3.3663,48.9228],[3.4046,48.8639],[3.4852,48.8519]]]},"properties":{"code":"11","nom":"Île-de-France"}},{"type":"Feature","geometry":{"type":"Polygon","coordinates":[[[1.5015,48.9411],[1.5816,48.855],[1.5757,48.7905],[1.6264,48.7481],[1.5795,48.7018],[1.7093,48.578],[1.7872,48.5537],[1.7768,48.5093],[1.8449,48.4494],[1.9766,48.3994],[1.9592,48.3087],[2.0438,48.2864],[2.1807,48.3117],[2.3633,48.3096],[2.4691,48.2553],[2.5375,48.1403],[2.7065,48.1248],[2.7989,48.1683],[2.9363,48.1634],[3.0295,48.1332],[3.1285,47.971],[3.0072,47.8953],[3.0281,47.8006],[2.9497,47.7659],[2.8567,47.7609],[2.9117,47.6915],[2.9623,47.5768],[2.8489,47.5375],[2.9312,47.4417],[2.8735,47.3484],[2.9834,47.2598],[3.0627,47.0453],[3.0793,46.9551],[3.0321,46.7949],[2.9599,46.8039],[2.8276,46.7353],[2.7373,46.7432],[2.6479,46.6889],[2.578,46.6038],[2.6099,46.5501],[2.5367,46.5197],[2.4829,46.5327],[2.352,46.5122],[2.281,46.4204],[2.1976,46.4283],[2.0889,46.4089],[1.9931,46.4309],[1.8195,46.43],[1.7277,46.3894],[1.6448,46.3868],[1.5223,46.4265],[1.409,46.3613],[1.356,46.4001],[1.3031,46.371],[1.2048,46.3877],[1.1516,46.4492],[1.1491,46.5022],[1.0876,46.5382],[1.0206,46.5371],[0.8943,46.6257],[0.901,46.7361],[0.8119,46.7945],[0.8093,46.8279],[0.7043,46.9033],[0.6926,46.9743],[0.5027,46.9579],[0.4387,46.9296],[0.3248,46.9307],[0.2987,47.0196],[0.1815,47.1144],[0.0764,47.1239],[0.0538,47.1637],[0.0786,47.2839],[0.1494,47.3623],[0.2201,47.502],[0.2015,47.5443],[0.23,47.6084],[0.3785,47.5685],[0.4566,47.6388],[0.5848,47.6686],[0.5805,47.7123],[0.7746,47.8397],[0.7573,47.8912],[0.8455,47.9413],[0.7976,48.0372],[0.843,48.0726],[0.8526,48.1336],[0.7977,48.1945],[0.7854,48.3404],[0.8837,48.3567],[0.9486,48.4025],[0.9667,48.5241],[0.8496,48.5843],[0.8148,48.6702],[0.9024,48.7106],[1.1595,48.7697],[1.3195,48.761],[1.3622,48.8342],[1.455,48.8703],[1.5015,48.9411]]]},"properties":{"code":"24","nom":"Centre-Val de Loire"}},{"type":"Feature","geometry":{"type":"Polygon","coordinates":[[[2.9363,48.1634],[3.0052,48.2077],[3.0436,48.272],[3.0159,48.3079],[3.0495,48.3601],[3.2544,48.365],[3.4148,48.3903],[3.4987,48.3686],[3.6168,48.2713],[3.6679,48.1392],[3.7403,48.1697],[3.805,48.1025],[3.8243,48.0429],[3.9147,47.9757],[3.9016,47.9386],[4.1118,47.927],[4.1663,47.9598],[4.2934,47.9257],[4.309,47.9612],[4.449,47.9572],[4.56,47.9714],[4.5827,48.0295],[4.7493,48.0043],[4.9018,47.9213],[4.9872,47.8033],[4.9496,47.765],[4.9923,47.6883],[5.1282,47.6477],[5.2114,47.6419],[5.2529,47.5769],[5.3732,47.6184],[5.4826,47.6846],[5.5967,47.6717],[5.6901,47.6848],[5.6999,47.8239],[5.8056,47.8473],[5.9367,47.9789],[5.9946,47.9578],[6.0412,48.0044],[6.1314,48.0241],[6.168,47.9524],[6.238,47.9328],[6.3662,47.9619],[6.4317,47.9438],[6.4763,47.8914],[6.6073,47.9431],[6.6437,47.905],[6.8624,47.7864],[7.0118,47.7417],[7.0463,47.6715],[7.005,47.6194],[7.0863,47.5926],[7.1303,47.503],[6.9859,47.4915],[6.9405,47.4334],[6.9195,47.3554],[7.0497,47.3607],[7.0462,47.327],[6.9429,47.2878],[6.9552,47.2441],[6.8583,47.1644],[6.7399,47.1081],[6.6337,46.9984],[6.4967,46.9742],[6.4327,46.9286],[6.4646,46.8902],[6.4259,46.7548],[6.2853,46.6912],[6.1107,46.5763],[6.1564,46.5455],[6.0739,46.4639],[6.064,46.4162],[5.9836,46.3624],[5.9089,46.284],[5.8498,46.2621],[5.7252,46.2607],[5.7147,46.3088],[5.6494,46.3395],[5.542,46.2702],[5.3735,46.3522],[5.2988,46.4127],[5.3106,46.4468],[5.2151,46.4684],[5.2011,46.5082],[5.0564,46.4839],[4.9356,46.5142],[4.811,46.2599],[4.7358,46.2342],[4.6547,46.3035],[4.5865,46.2687],[4.504,46.2671],[4.4058,46.2961],[4.3881,46.2198],[4.2818,46.1566],[4.2574,46.1847],[4.0305,46.1698],[3.8901,46.2145],[3.9136,46.2967],[3.9866,46.3192],[3.9772,46.3992],[3.998,46.4655],[3.8905,46.4813],[3.834,46.5311],[3.7431,46.5655],[3.697,46.6606],[3.598,46.724],[3.4886,46.6602],[3.4341,46.7119],[3.2155,46.6829],[3.0491,46.7581],[3.0321,46.7949],[3.0793,46.9551],[3.0627,47.0453],[2.9834,47.2598],[2.8735,47.3484],[2.9312,47.4417],[2.8489,47.5375],[2.9623,47.5768],[2.9117,47.6915],[2.8567,47.7609],[2.9497,47.7659],[3.0281,47.8006],[3.0072,47.8953],[3.1285,47.971],[3.0295,48.1332],[2.9363,48.1634]]]},"properties":{"code":"27","nom":"Bourgogne-Franche-Comté"}},{"type":"Feature","geometry":{"type":"Polygon","coordinates":[[[1.7044,49.2322],[1.6558,49.1302],[1.6017,49.0845],[1.4474,49.0452],[1.5015,48.9411],[1.455,48.8703],[1.3622,48.8342],[1.3195,48.761],[1.1595,48.7697],[0.9024,48.7106],[0.8148,48.6702],[0.8496,48.5843],[0.9667,48.5241],[0.9486,48.4025],[0.8837,48.3567],[0.7854,48.3404],[0.7977,48.1945],[0.7236,48.1981],[0.6532,48.2637],[0.536,48.2498],[0.4876,48.3078],[0.3826,48.3338],[0.3558,48.4582],[0.3002,48.4806],[0.1722,48.4648],[0.0625,48.383],[-0.0545,48.382],[-0.0519,48.4533],[-0.1436,48.4547],[-0.1694,48.537],[-0.3676,48.4929],[-0.4438,48.5137],[-0.6511,48.4439],[-0.7573,48.4366],[-0.8604,48.5015],[-0.9564,48.5166],[-1.0702,48.5085],[-1.2066,48.5422],[-1.2722,48.5339],[-1.3826,48.4568],[-1.4899,48.4894],[-1.5189,48.5666],[-1.5711,48.6264],[-1.4436,48.6275],[-1.5744,48.7518],[-1.5872,48.8465],[-1.5607,49.0015],[-1.6094,49.0793],[-1.5947,49.1319],[-1.6317,49.2142],[-1.7112,49.3251],[-1.807,49.3719],[-1.8526,49.5104],[-1.8603,49.6502],[-1.9462,49.6743],[-1.9422,49.7256],[-1.8229,49.6903],[-1.7178,49.6798],[-1.6247,49.6465],[-1.5202,49.6574],[-1.4212,49.7037],[-1.2998,49.6935],[-1.2291,49.6087],[-1.2962,49.5832],[-1.3064,49.5389],[-1.1196,49.3556],[-1.0782,49.3885],[-0.9394,49.395],[-0.8252,49.3575],[-0.5987,49.3398],[-0.4148,49.3356],[-0.2257,49.2818],[-0.0005,49.3256],[0.1104,49.3943],[0.2568,49.4463],[0.1212,49.4632],[0.0749,49.5363],[0.1916,49.7063],[0.3204,49.7415],[0.5729,49.8497],[0.791,49.8758],[0.9632,49.9199],[1.02,49.9161],[1.2059,49.9735],[1.3816,50.0658],[1.4522,50.0402],[1.6785,49.9181],[1.7102,49.8893],[1.7416,49.7516],[1.7155,49.7086],[1.7192,49.5082],[1.7759,49.4713],[1.723,49.4339],[1.7758,49.2995],[1.7044,49.2322]]]},"properties":{"code":"28","nom":"Normandie"}},{"type":"Feature","geometry":{"type":"Polygon","coordinates":[[[3.4852,48.8519],[3.4046,48.8639],[3.3663,48.9228],[3.1683,49.0167],[3.1652,49.0997],[3.0719,49.1176],[2.9746,49.0748],[2.7919,49.0902],[2.7067,49.0657],[2.6333,49.1084],[2.5905,49.0797],[2.4716,49.1354],[2.3463,49.1618],[2.2525,49.1529],[2.0749,49.2087],[2.0006,49.1757],[1.8852,49.1626],[1.7421,49.1802],[1.7044,49.2322],[1.7758,49.2995],[1.723,49.4339],[1.7759,49.4713],[1.7192,49.5082],[1.7155,49.7086],[1.7416,49.7516],[1.7102,49.8893],[1.6785,49.9181],[1.4522,50.0402],[1.3816,50.0658],[1.4539,50.1103],[1.4828,50.1724],[1.5922,50.2565],[1.5379,50.2827],[1.5854,50.5374],[1.5607,50.6997],[1.6055,50.793],[1.5779,50.8533],[1.7289,50.9379],[1.9158,50.9841],[2.1902,51.018],[2.3422,51.0573],[2.3952,51.0503],[2.5463,51.0884],[2.574,51.0035],[2.6327,50.946],[2.6075,50.9124],[2.635,50.8128],[2.7182,50.8132],[2.8133,50.7169],[2.8984,50.6942],[2.9374,50.7421],[3.022,50.7721],[3.152,50.7823],[3.2703,50.6108],[3.2865,50.5276],[3.3762,50.4911],[3.6071,50.4973],[3.6642,50.4532],[3.6737,50.3349],[3.8528,50.3516],[3.909,50.3285],[4.0376,50.3429],[4.2219,50.257],[4.1601,50.2025],[4.2178,50.0608],[4.1364,50.0205],[4.2332,49.9578],[4.2557,49.9032],[4.2076,49.7811],[4.2247,49.7272],[4.0314,49.6143],[4.0766,49.5711],[4.0407,49.5085],[4.0355,49.3599],[3.9252,49.4076],[3.8481,49.3639],[3.6439,49.3127],[3.6625,49.209],[3.6222,49.1511],[3.6477,49.0414],[3.6207,48.9659],[3.5286,48.9121],[3.4852,48.8519]]]},"properties":{"code":"32","nom":"Hauts-de-France"}},{"type":"Feature","geometry":{"type":"Polygon","coordinates":[[[3.4148,48.3903],[3.3884,48.4804],[3.4349,48.4975],[3.5175,48.6434],[3.4302,48.7569],[3.4322,48.8123],[3.4852,48.8519],[3.5286,48.9121],[3.6207,48.9659],[3.6477,49.0414],[3.6222,49.1511],[3.6625,49.209],[3.6439,49.3127],[3.8481,49.3639],[3.9252,49.4076],[4.0355,49.3599],[4.0407,49.5085],[4.0766,49.5711],[4.0314,49.6143],[4.2247,49.7272],[4.2076,49.7811],[4.2557,49.9032],[4.2332,49.9578],[4.3081,49.9695],[4.4469,49.9375],[4.6747,49.9966],[4.7021,50.0955],[4.8243,50.1607],[4.8512,50.1014],[4.7909,49.9584],[4.8892,49.9097],[4.8518,49.861],[4.8554,49.7924],[4.9561,49.8012],[5.0632,49.7619],[5.1257,49.7145],[5.2673,49.6965],[5.431,49.5928],[5.4709,49.4972],[5.6632,49.5527],[5.7744,49.563],[5.8691,49.4988],[5.9718,49.4913],[5.9825,49.4511],[6.1235,49.4734],[6.1552,49.5038],[6.2564,49.51],[6.3644,49.4595],[6.4191,49.4749],[6.5544,49.4184],[6.5685,49.3449],[6.6386,49.2955],[6.7385,49.1637],[6.8345,49.1515],[6.8515,49.2005],[6.9354,49.2222],[7.0343,49.1897],[7.1567,49.1213],[7.2987,49.1175],[7.3661,49.1725],[7.4451,49.1843],[7.529,49.0972],[7.6353,49.0542],[7.9801,49.0261],[8.1958,48.9562],[8.0963,48.8104],[7.9697,48.7554],[7.9631,48.7214],[7.8398,48.6414],[7.8002,48.5787],[7.736,48.4042],[7.745,48.3357],[7.7032,48.3088],[7.6678,48.2239],[7.5773,48.1204],[7.5716,48.0304],[7.6221,47.9723],[7.5567,47.8799],[7.5138,47.7028],[7.5847,47.5773],[7.5252,47.5199],[7.3809,47.4319],[7.2463,47.4222],[7.1708,47.4444],[7.1303,47.503],[7.0863,47.5926],[7.005,47.6194],[7.0463,47.6715],[7.0118,47.7417],[6.8624,47.7864],[6.6437,47.905],[6.6073,47.9431],[6.4763,47.8914],[6.4317,47.9438],[6.3662,47.9619],[6.238,47.9328],[6.168,47.9524],[6.1314,48.0241],[6.0412,48.0044],[5.9946,47.9578],[5.9367,47.9789],[5.8056,47.8473],[5.6999,47.8239],[5.6901,47.6848],[5.5967,47.6717],[5.4826,47.6846],[5.3732,47.6184],[5.2529,47.5769],[5.2114,47.6419],[5.1282,47.6477],[4.9923,47.6883],[4.9496,47.765],[4.9872,47.8033],[4.9018,47.9213],[4.7493,48.0043],[4.5827,48.0295],[4.56,47.9714],[4.449,47.9572],[4.309,47.9612],[4.2934,47.9257],[4.1663,47.9598],[4.1118,47.927],[3.9016,47.9386],[3.9147,47.9757],[3.8243,48.0429],[3.805,48.1025],[3.7403,48.1697],[3.6679,48.1392],[3.6168,48.2713],[3.4987,48.3686],[3.4148,48.3903]]]},"properties":{"code":"44","nom":"Grand Est"}},{"type":"Feature","geometry":{"type":"Polygon","coordinates":[[[0.7977,48.1945],[0.8526,48.1336],[0.843,48.0726],[0.7976,48.0372],[0.8455,47.9413],[0.7573,47.8912],[0.7746,47.8397],[0.5805,47.7123],[0.5848,47.6686],[0.4566,47.6388],[0.3785,47.5685],[0.23,47.6084],[0.2015,47.5443],[0.2201,47.502],[0.1494,47.3623],[0.0786,47.2839],[0.0538,47.1637],[0.019,47.1758],[-0.0859,47.101],[-0.2415,47.1057],[-0.4008,47.0708],[-0.4953,47.0824],[-0.5595,47.0619],[-0.6157,46.9929],[-0.7156,46.9855],[-0.7876,47.0051],[-0.8559,46.9791],[-0.8153,46.8794],[-0.7088,46.8211],[-0.7273,46.7676],[-0.6562,46.7008],[-0.6141,46.6204],[-0.6021,46.5333],[-0.625,46.4975],[-0.6032,46.3615],[-0.6483,46.3171],[-0.7505,46.3043],[-0.8399,46.3404],[-0.9349,46.3129],[-1.0138,46.3556],[-1.1294,46.3103],[-1.2074,46.2666],[-1.3667,46.3486],[-1.4659,46.3424],[-1.5021,46.3973],[-1.6113,46.4134],[-1.8137,46.4953],[-1.856,46.6086],[-1.9408,46.6911],[-2.141,46.8177],[-2.155,46.8897],[-2.0582,46.9509],[-1.9804,47.0289],[-2.0535,47.0941],[-2.2268,47.1309],[-2.1671,47.1662],[-2.1874,47.2806],[-2.3016,47.2364],[-2.3697,47.2774],[-2.442,47.2606],[-2.5139,47.2846],[-2.5341,47.383],[-2.4585,47.4481],[-2.3129,47.4645],[-2.0986,47.534],[-2.097,47.6314],[-1.9691,47.6884],[-1.864,47.707],[-1.6556,47.7105],[-1.5934,47.7761],[-1.3904,47.8283],[-1.3606,47.7984],[-1.2459,47.7767],[-1.1892,47.8675],[-1.154,47.9658],[-1.0213,47.9949],[-1.1015,48.2618],[-1.045,48.3277],[-1.083,48.4336],[-1.0702,48.5085],[-0.9564,48.5166],[-0.8604,48.5015],[-0.7573,48.4366],[-0.6511,48.4439],[-0.4438,48.5137],[-0.3676,48.4929],[-0.1694,48.537],[-0.1436,48.4547],[-0.0519,48.4533],[-0.0545,48.382],[0.0625,48.383],[0.1722,48.4648],[0.3002,48.4806],[0.3558,48.4582],[0.3826,48.3338],[0.4876,48.3078],[0.536,48.2498],[0.6532,48.2637],[0.7236,48.1981],[0.7977,48.1945]]]},"properties":{"code":"52","nom":"Pays de la Loire"}},{"type":"Feature","geometry":{"type":"MultiPolygon","coordinates":[[[[-1.5711,48.6264],[-1.5189,48.5666],[-1.4899,48.4894],[-1.3826,48.4568],[-1.2722,48.5339],[-1.2066,48.5422],[-1.0702,48.5085],[-1.083,48.4336],[-1.045,48.3277],[-1.1015,48.2618],[-1.0213,47.9949],[-1.154,47.9658],[-1.1892,47.8675],[-1.2459,47.7767],[-1.3606,47.7984],[-1.3904,47.8283],[-1.5934,47.7761],[-1.6556,47.7105],[-1.864,47.707],[-1.9691,47.6884],[-2.097,47.6314],[-2.0986,47.534],[-2.3129,47.4645],[-2.4585,47.4481],[-2.5528,47.5126],[-2.6519,47.5292],[-2.7954,47.4861],[-2.7144,47.593],[-2.8512,47.619],[-3.0047,47.5665],[-3.1397,47.5796],[-3.2175,47.6673],[-3.3409,47.7087],[-3.4528,47.6953],[-3.521,47.7577],[-3.8511,47.796],[-3.9352,47.8827],[-3.9779,47.8537],[-4.0716,47.8639],[-4.1636,47.8492],[-4.183,47.8005],[-4.3624,47.7957],[-4.3503,47.8572],[-4.388,47.9267],[-4.4536,47.9818],[-4.6995,48.0276],[-4.7163,48.0625],[-4.4877,48.0865],[-4.3744,48.1102],[-4.307,48.0892],[-4.2731,48.1542],[-4.3031,48.1948],[-4.4629,48.2382],[-4.5524,48.208],[-4.5836,48.2519],[-4.5527,48.2943],[-4.308,48.2972],[-4.3161,48.3358],[-4.4423,48.3268],[-4.4581,48.3859],[-4.6087,48.3379],[-4.7609,48.3727],[-4.7949,48.4131],[-4.759,48.4704],[-4.7624,48.5309],[-4.6811,48.5673],[-4.4318,48.6352],[-4.35,48.6765],[-4.2238,48.6484],[-4.1869,48.6865],[-3.9736,48.7039],[-3.9495,48.6529],[-3.8208,48.7014],[-3.7333,48.7074],[-3.5812,48.67],[-3.5839,48.771],[-3.5231,48.8298],[-3.3975,48.8007],[-3.2197,48.8665],[-3.0944,48.8676],[-3.0109,48.7666],[-2.8269,48.6506],[-2.8196,48.5935],[-2.6313,48.5381],[-2.5597,48.5864],[-2.3145,48.6741],[-2.2054,48.5789],[-2.1414,48.6315],[-2.026,48.6344],[-1.9698,48.6863],[-1.8486,48.6947],[-1.8717,48.6474],[-1.774,48.6035],[-1.5711,48.6264]]],[[[-3.1941,47.3659],[-3.0952,47.2832],[-3.221,47.2948],[-3.2605,47.3527],[-3.1941,47.3659]]]]},"properties":{"code":"53","nom":"Bretagne"}},{"type":"Feature","geometry":{"type":"MultiPolygon","coordinates":[[[[0.0538,47.1637],[0.0764,47.1239],[0.1815,47.1144],[0.2987,47.0196],[0.3248,46.9307],[0.4387,46.9296],[0.5027,46.9579],[0.6926,46.9743],[0.7043,46.9033],[0.8093,46.8279],[0.8119,46.7945],[0.901,46.7361],[0.8943,46.6257],[1.0206,46.5371],[1.0876,46.5382],[1.1491,46.5022],[1.1516,46.4492],[1.2048,46.3877],[1.3031,46.371],[1.356,46.4001],[1.409,46.3613],[1.5223,46.4265],[1.6448,46.3868],[1.7277,46.3894],[1.8195,46.43],[1.9931,46.4309],[2.0889,46.4089],[2.1976,46.4283],[2.281,46.4204],[2.323,46.3293],[2.3919,46.33],[2.4808,46.281],[2.528,46.1863],[2.5598,46.1734],[2.5522,46.0825],[2.6025,46.0335],[2.5944,45.9894],[2.5279,45.8992],[2.4265,45.8348],[2.4355,45.767],[2.521,45.7068],[2.5175,45.6396],[2.4639,45.5947],[2.5163,45.5534],[2.4858,45.3789],[2.3782,45.4143],[2.3505,45.3276],[2.2388,45.2604],[2.1901,45.2051],[2.2076,45.1435],[2.1718,45.0815],[2.0952,45.056],[2.133,44.9855],[2.0629,44.9765],[1.9082,44.9784],[1.7871,44.9322],[1.711,44.9673],[1.651,45.025],[1.5406,45.046],[1.4093,45.006],[1.4398,44.8749],[1.2996,44.7969],[1.3161,44.7404],[1.1537,44.6388],[1.0717,44.5678],[0.9824,44.5455],[1.0641,44.3785],[0.9501,44.3598],[0.8696,44.3094],[0.9505,44.275],[0.9052,44.1973],[0.7951,44.1456],[0.6771,44.027],[0.6022,44.0737],[0.2996,43.9928],[0.1896,44.0146],[0.076,43.9831],[0.0725,43.9138],[-0.1247,43.9443],[-0.1946,43.8816],[-0.1941,43.737],[-0.2559,43.6798],[-0.2428,43.585],[-0.0968,43.5824],[-0.0401,43.5126],[-0.0696,43.433],[0.0295,43.3462],[-0.0461,43.3009],[-0.017,43.2705],[-0.191,43.1112],[-0.2004,43.0427],[-0.2599,43.0383],[-0.2923,42.9911],[-0.2816,42.9336],[-0.3272,42.9165],[-0.3134,42.8494],[-0.3926,42.7996],[-0.5096,42.8254],[-0.5438,42.7932],[-0.6787,42.8844],[-0.7253,42.8913],[-0.7516,42.9669],[-0.81,42.9514],[-0.9465,42.9541],[-1.0064,42.989],[-1.1334,43.0104],[-1.2287,43.0552],[-1.3085,43.0687],[-1.3547,43.0285],[-1.4412,43.0463],[-1.4709,43.0917],[-1.4155,43.1275],[-1.3827,43.253],[-1.5053,43.2928],[-1.6087,43.2519],[-1.6671,43.3145],[-1.7297,43.2957],[-1.762,43.3759],[-1.6391,43.4084],[-1.5481,43.496],[-1.46,43.6203],[-1.316,44.13],[-1.2539,44.4676],[-1.2586,44.5471],[-1.1915,44.6607],[-1.0808,44.6406],[-1.056,44.708],[-1.1738,44.7454],[-1.2517,44.712],[-1.2246,44.8538],[-1.1623,45.2979],[-1.157,45.4704],[-1.1364,45.511],[-1.0394,45.5119],[-0.8039,45.3484],[-0.7511,45.2481],[-0.7416,45.1895],[-0.6827,45.0787],[-0.6359,45.0743],[-0.7343,45.3688],[-0.8475,45.4988],[-0.993,45.5772],[-1.0096,45.6114],[-1.2372,45.7059],[-1.2426,45.7816],[-1.1321,45.8049],[-1.0527,46.0112],[-1.1291,46.127],[-1.2069,46.1458],[-1.199,46.2132],[-1.1112,46.2613],[-1.1294,46.3103],[-1.0138,46.3556],[-0.9349,46.3129],[-0.8399,46.3404],[-0.7505,46.3043],[-0.6483,46.3171],[-0.6032,46.3615],[-0.625,46.4975],[-0.6021,46.5333],[-0.6141,46.6204],[-0.6562,46.7008],[-0.7273,46.7676],[-0.7088,46.8211],[-0.8153,46.8794],[-0.8559,46.9791],[-0.7876,47.0051],[-0.7156,46.9855],[-0.6157,46.9929],[-0.5595,47.0619],[-0.4953,47.0824],[-0.4008,47.0708],[-0.2415,47.1057],[-0.0859,47.101],[0.019,47.1758],[0.0538,47.1637]]],[[[-1.2503,45.846],[-1.2933,45.8999],[-1.3888,45.9573],[-1.2479,45.9904],[-1.2236,45.9131],[-1.2503,45.846]]]]},"properties":{"code":"75","nom":"Nouvelle-Aquitaine"}},{"type":"Feature","geometry":{"type":"Polygon","coordinates":[[[-0.3134,42.8494],[-0.3272,42.9165],[-0.2816,42.9336],[-0.2923,42.9911],[-0.2599,43.0383],[-0.2004,43.0427],[-0.191,43.1112],[-0.017,43.2705],[-0.0461,43.3009],[0.0295,43.3462],[-0.0696,43.433],[-0.0401,43.5126],[-0.0968,43.5824],[-0.2428,43.585],[-0.2559,43.6798],[-0.1941,43.737],[-0.1946,43.8816],[-0.1247,43.9443],[0.0725,43.9138],[0.076,43.9831],[0.1896,44.0146],[0.2996,43.9928],[0.6022,44.0737],[0.6771,44.027],[0.7951,44.1456],[0.9052,44.1973],[0.9505,44.275],[0.8696,44.3094],[0.9501,44.3598],[1.0641,44.3785],[0.9824,44.5455],[1.0717,44.5678],[1.1537,44.6388],[1.3161,44.7404],[1.2996,44.7969],[1.4398,44.8749],[1.4093,45.006],[1.5406,45.046],[1.651,45.025],[1.711,44.9673],[1.7871,44.9322],[1.9082,44.9784],[2.0629,44.9765],[2.0934,44.8729],[2.1668,44.8117],[2.1527,44.6998],[2.1694,44.6381],[2.291,44.6666],[2.435,44.6389],[2.5582,44.7235],[2.6027,44.8432],[2.7165,44.9291],[2.8553,44.8512],[2.9348,44.744],[2.943,44.677],[2.9817,44.6447],[3.0481,44.8043],[3.1411,44.9033],[3.1823,44.8637],[3.3613,44.9714],[3.4046,44.9564],[3.4418,44.8542],[3.5057,44.8238],[3.7527,44.821],[3.8625,44.7439],[3.8699,44.6789],[3.9877,44.4728],[4.0684,44.4051],[4.0515,44.3173],[4.1429,44.3134],[4.2588,44.2648],[4.3361,44.3395],[4.5033,44.3392],[4.6492,44.2704],[4.7221,44.1874],[4.7075,44.1037],[4.788,44.0651],[4.8421,43.9865],[4.6933,43.885],[4.6419,43.8675],[4.6548,43.8023],[4.593,43.6875],[4.4872,43.6992],[4.427,43.6207],[4.4093,43.5611],[4.2397,43.4992],[4.2303,43.4602],[4.1656,43.4719],[4.101,43.5544],[4.0112,43.5524],[3.9071,43.5168],[3.7967,43.441],[3.6622,43.3923],[3.5098,43.2719],[3.4303,43.2902],[3.2634,43.2289],[3.1408,43.1288],[3.074,43.0381],[3.0428,42.9602],[3.0606,42.9171],[3.0393,42.7998],[3.0371,42.6261],[3.0496,42.5501],[3.1056,42.5256],[3.1742,42.4356],[3.0854,42.4255],[3.0408,42.4731],[2.8414,42.4585],[2.7992,42.4186],[2.7163,42.4209],[2.5778,42.3579],[2.483,42.3396],[2.4355,42.3889],[2.2567,42.4384],[2.1563,42.4234],[2.0836,42.3627],[1.9859,42.362],[1.9583,42.424],[1.8031,42.4896],[1.7312,42.4927],[1.738,42.6113],[1.6064,42.6275],[1.5492,42.6558],[1.4402,42.6035],[1.3896,42.6851],[1.325,42.7239],[1.1618,42.711],[1.0706,42.7825],[0.9236,42.7904],[0.8583,42.8257],[0.7084,42.8614],[0.659,42.8385],[0.6445,42.7831],[0.6706,42.6899],[0.5296,42.7027],[0.4356,42.6904],[0.3596,42.7234],[0.2928,42.6749],[0.2601,42.7155],[0.1757,42.7368],[-0.0106,42.6844],[-0.1024,42.7216],[-0.1785,42.7854],[-0.3134,42.8494]]]},"properties":{"code":"76","nom":"Occitanie"}},{"type":"Feature","geometry":{"type":"Polygon","coordinates":[[[2.281,46.4204],[2.352,46.5122],[2.4829,46.5327],[2.5367,46.5197],[2.6099,46.5501],[2.578,46.6038],[2.6479,46.6889],[2.7373,46.7432],[2.8276,46.7353],[2.9599,46.8039],[3.0321,46.7949],[3.0491,46.7581],[3.2155,46.6829],[3.4341,46.7119],[3.4886,46.6602],[3.598,46.724],[3.697,46.6606],[3.7431,46.5655],[3.834,46.5311],[3.8905,46.4813],[3.998,46.4655],[3.9772,46.3992],[3.9866,46.3192],[3.9136,46.2967],[3.8901,46.2145],[4.0305,46.1698],[4.2574,46.1847],[4.2818,46.1566],[4.3881,46.2198],[4.4058,46.2961],[4.504,46.2671],[4.5865,46.2687],[4.6547,46.3035],[4.7358,46.2342],[4.811,46.2599],[4.9356,46.5142],[5.0564,46.4839],[5.2011,46.5082],[5.2151,46.4684],[5.3106,46.4468],[5.2988,46.4127],[5.3735,46.3522],[5.542,46.2702],[5.6494,46.3395],[5.7147,46.3088],[5.7252,46.2607],[5.8498,46.2621],[5.9089,46.284],[5.9836,46.3624],[6.064,46.4162],[6.1697,46.3679],[6.1026,46.2851],[6.1242,46.251],[5.9784,46.217],[5.9853,46.1433],[6.1266,46.1405],[6.236,46.2065],[6.2378,46.2773],[6.277,46.3489],[6.3447,46.37],[6.39,46.3402],[6.5452,46.3947],[6.7229,46.4076],[6.7898,46.3929],[6.7845,46.3327],[6.8645,46.283],[6.8037,46.2043],[6.8147,46.1297],[7.0058,46.0005],[7.0439,45.9236],[6.9396,45.8467],[6.8189,45.8362],[6.8084,45.7252],[6.9346,45.6471],[7.0007,45.6399],[7.0003,45.5044],[7.0998,45.4694],[7.1843,45.4075],[7.1136,45.3287],[7.1378,45.2569],[6.9658,45.208],[6.8479,45.1272],[6.7679,45.1597],[6.63,45.1093],[6.5765,45.1231],[6.3939,45.0618],[6.3629,45.1045],[6.2294,45.1088],[6.2039,45.0125],[6.3002,45.004],[6.3588,44.9413],[6.3547,44.856],[6.1284,44.8619],[5.9495,44.8045],[5.9222,44.7541],[5.8468,44.7516],[5.7906,44.6533],[5.6439,44.6097],[5.5972,44.5433],[5.6037,44.4655],[5.4799,44.4912],[5.4185,44.4249],[5.4931,44.3372],[5.6171,44.3325],[5.6762,44.2755],[5.676,44.1914],[5.5762,44.188],[5.5404,44.1322],[5.4547,44.1192],[5.3832,44.1553],[5.3845,44.201],[5.2565,44.2301],[5.175,44.2208],[5.1497,44.2821],[5.0606,44.3081],[4.8141,44.2323],[4.8046,44.3039],[4.679,44.3205],[4.6492,44.2704],[4.5033,44.3392],[4.3361,44.3395],[4.2588,44.2648],[4.1429,44.3134],[4.0515,44.3173],[4.0684,44.4051],[3.9877,44.4728],[3.8699,44.6789],[3.8625,44.7439],[3.7527,44.821],[3.5057,44.8238],[3.4418,44.8542],[3.4046,44.9564],[3.3613,44.9714],[3.1823,44.8637],[3.1411,44.9033],[3.0481,44.8043],[2.9817,44.6447],[2.943,44.677],[2.9348,44.744],[2.8553,44.8512],[2.7165,44.9291],[2.6027,44.8432],[2.5582,44.7235],[2.435,44.6389],[2.291,44.6666],[2.1694,44.6381],[2.1527,44.6998],[2.1668,44.8117],[2.0934,44.8729],[2.0629,44.9765],[2.133,44.9855],[2.0952,45.056],[2.1718,45.0815],[2.2076,45.1435],[2.1901,45.2051],[2.2388,45.2604],[2.3505,45.3276],[2.3782,45.4143],[2.4858,45.3789],[2.5163,45.5534],[2.4639,45.5947],[2.5175,45.6396],[2.521,45.7068],[2.4355,45.767],[2.4265,45.8348],[2.5279,45.8992],[2.5944,45.9894],[2.6025,46.0335],[2.5522,46.0825],[2.5598,46.1734],[2.528,46.1863],[2.4808,46.281],[2.3919,46.33],[2.323,46.3293],[2.281,46.4204]],[[4.8929,44.3648],[4.8895,44.304],[4.9786,44.2975],[5.0488,44.3812],[4.9886,44.4232],[4.9185,44.4078],[4.8929,44.3648]]]},"properties":{"code":"84","nom":"Auvergne-Rhône-Alpes"}},{"type":"Feature","geometry":{"type":"MultiPolygon","coordinates":[[[[4.2303,43.4602],[4.2397,43.4992],[4.4093,43.5611],[4.427,43.6207],[4.4872,43.6992],[4.593,43.6875],[4.6548,43.8023],[4.6419,43.8675],[4.6933,43.885],[4.8421,43.9865],[4.788,44.0651],[4.7075,44.1037],[4.7221,44.1874],[4.6492,44.2704],[4.679,44.3205],[4.8046,44.3039],[4.8141,44.2323],[5.0606,44.3081],[5.1497,44.2821],[5.175,44.2208],[5.2565,44.2301],[5.3845,44.201],[5.3832,44.1553],[5.4547,44.1192],[5.5404,44.1322],[5.5762,44.188],[5.676,44.1914],[5.6762,44.2755],[5.6171,44.3325],[5.4931,44.3372],[5.4185,44.4249],[5.4799,44.4912],[5.6037,44.4655],[5.5972,44.5433],[5.6439,44.6097],[5.7906,44.6533],[5.8468,44.7516],[5.9222,44.7541],[5.9495,44.8045],[6.1284,44.8619],[6.3547,44.856],[6.3588,44.9413],[6.3002,45.004],[6.2039,45.0125],[6.2294,45.1088],[6.3629,45.1045],[6.3939,45.0618],[6.5765,45.1231],[6.63,45.1093],[6.6724,45.0214],[6.7434,45.0159],[6.7507,44.9057],[6.8632,44.8506],[6.9337,44.862],[7.0068,44.8393],[6.9996,44.7894],[7.0771,44.6809],[6.9862,44.6881],[6.9132,44.5588],[6.854,44.5291],[6.9371,44.4297],[6.8965,44.3743],[6.9934,44.2809],[7.0081,44.2364],[7.1597,44.2062],[7.2803,44.1412],[7.4268,44.1176],[7.5057,44.1437],[7.6709,44.1537],[7.7157,44.0828],[7.665,44.0307],[7.6527,43.9748],[7.5729,43.9378],[7.4952,43.8623],[7.5302,43.788],[7.4132,43.7248],[7.2438,43.6894],[7.1579,43.6539],[7.123,43.5883],[7.0559,43.548],[6.9743,43.5461],[6.9229,43.4517],[6.7337,43.4056],[6.71,43.3446],[6.5839,43.2773],[6.6621,43.2649],[6.6698,43.2059],[6.6202,43.1607],[6.5564,43.1881],[6.4956,43.1511],[6.2081,43.1164],[6.1259,43.0775],[6.0314,43.0775],[6.0063,43.104],[5.8288,43.0494],[5.781,43.1309],[5.6009,43.1625],[5.5313,43.212],[5.3725,43.2451],[5.3644,43.3121],[5.2965,43.3596],[5.2213,43.3284],[5.0379,43.329],[4.9314,43.4332],[4.8643,43.4062],[4.833,43.3299],[4.7834,43.3472],[4.5858,43.3601],[4.582,43.4306],[4.5164,43.4547],[4.2303,43.4602]],[[5.0145,43.5555],[5.0046,43.4701],[5.0519,43.4636],[5.0704,43.4002],[5.1373,43.4002],[5.1453,43.4586],[5.1027,43.526],[5.0145,43.5555]]],[[[4.8929,44.3648],[4.9185,44.4078],[4.9886,44.4232],[5.0488,44.3812],[4.9786,44.2975],[4.8895,44.304],[4.8929,44.3648]]]]},"properties":{"code":"93","nom":"Provence-Alpes-Côte d'Azur"}},{"type":"Feature","geometry":{"type":"Polygon","coordinates":[[[9.4023,41.8587],[9.408,41.766],[9.3868,41.6601],[9.3184,41.6047],[9.2856,41.4815],[9.224,41.4425],[9.218,41.3682],[9.0923,41.3987],[9.0397,41.4686],[8.922,41.4933],[8.8207,41.5457],[8.7759,41.5917],[8.7936,41.6296],[8.8695,41.6461],[8.9145,41.6897],[8.7215,41.7242],[8.686,41.748],[8.7844,41.8304],[8.7803,41.9245],[8.6415,41.9099],[8.5977,41.9532],[8.6564,42.0093],[8.7413,42.0409],[8.7103,42.0958],[8.5775,42.1566],[8.561,42.2369],[8.6891,42.2635],[8.6281,42.3387],[8.6655,42.5136],[8.7205,42.5556],[8.7871,42.558],[8.8089,42.5991],[8.8815,42.6293],[9.0104,42.6404],[9.1246,42.7316],[9.2207,42.7356],[9.2933,42.6743],[9.3451,42.7367],[9.3116,42.8297],[9.3589,42.9449],[9.3409,42.9945],[9.4636,42.9864],[9.4911,42.795],[9.4462,42.6736],[9.5273,42.5661],[9.5434,42.4285],[9.5324,42.3838],[9.5597,42.2814],[9.55,42.1042],[9.4138,41.9557],[9.4023,41.8587]]]},"properties":{"code":"94","nom":"Corse"}}]}