{"type":"FeatureCollection","features":[{"type":"Feature","geometry":{"type":"MultiPolygon","coordinates":[[[[23.6228,41.3738],[23.6722,41.408],[23.7664,41.394],[23.7969,41.4323],[23.9305,41.4683],[23.9695,41.4353],[24.0724,41.4665],[24.058,41.5192],[24.0756,41.5385],[24.1497,41.5366],[24.2529,41.5688],[24.3013,41.5366],[24.3676,41.5179],[24.4459,41.5211],[24.5235,41.5666],[24.5505,41.5499],[24.5713,41.4724],[24.5994,41.4321],[24.6556,41.4319],[24.7285,41.4129],[24.7432,41.3794],[24.8148,41.352],[24.8189,41.3988],[24.8638,41.3887],[24.8979,41.4048],[24.9751,41.3735],[25.0619,41.3572],[25.0819,41.3355],[25.1796,41.305],[25.2364,41.2424],[25.3334,41.2387],[25.4718,41.2857],[25.53,41.276],[25.5731,41.3165],[25.656,41.312],[25.7793,41.3188],[25.8448,41.3344],[25.8801,41.3023],[25.9737,41.3157],[26.0096,41.3418],[26.1305,41.3527],[26.1723,41.4315],[26.1533,41.4716],[26.1837,41.5175],[26.145,41.5525],[26.1509,41.6026],[26.0676,41.6481],[26.0612,41.6968],[26.1677,41.7456],[26.2824,41.7095],[26.3285,41.7148],[26.4458,41.6818],[26.5298,41.6179],[26.5915,41.6067],[26.5896,41.5237],[26.612,41.4208],[26.6333,41.3819],[26.6263,41.345],[26.5872,41.3204],[26.5506,41.3384],[26.4931,41.3215],[26.4068,41.2539],[26.3158,41.2422],[26.3285,41.2187],[26.3114,41.1576],[26.3125,41.0662],[26.3591,41.0219],[26.3259,40.9738],[26.356,40.9492],[26.3061,40.9264],[26.2998,40.9025],[26.2455,40.8787],[26.2156,40.8406],[26.1541,40.8048],[26.1226,40.741],[26.0318,40.727],[26.0309,40.7802],[25.9478,40.839],[25.8146,40.8477],[25.7292,40.8425],[25.5861,40.8656],[25.5604,40.8547],[25.4531,40.8951],[25.3778,40.907],[25.3601,40.9319],[25.1718,40.937],[25.1269,40.9525],[25.1632,40.9963],[25.0668,41.0021],[24.9936,40.9412],[24.8759,40.9064],[24.7962,40.8432],[24.7121,40.8487],[24.6626,40.8701],[24.6327,40.8578],[24.55,40.9502],[24.5075,40.956],[24.3956,40.932],[24.3778,40.9078],[24.3149,40.8753],[24.2792,40.8071],[24.1458,40.7382],[24.0435,40.7158],[23.9107,40.7537],[23.866,40.7762],[23.8596,40.7961],[23.9346,40.818],[23.9812,40.8475],[24.1125,40.9549],[24.1162,41.0035],[24.0351,41.0468],[24.0314,41.0866],[23.9796,41.1104],[23.923,41.0847],[23.8586,41.1273],[23.7992,41.1402],[23.7262,41.2115],[23.6979,41.2638],[23.7115,41.3067],[23.6295,41.3227],[23.6228,41.3738]]],[[[24.5092,40.6573],[24.5326,40.7125],[24.5924,40.7712],[24.6482,40.7987],[24.7101,40.7779],[24.7503,40.744],[24.7755,40.6173],[24.6939,40.5937],[24.641,40.5663],[24.6052,40.6061],[24.5323,40.6199],[24.5092,40.6573]]],[[[25.4416,40.4729],[25.5611,40.5078],[25.6547,40.4909],[25.6952,40.4632],[25.6951,40.4196],[25.5866,40.3896],[25.5064,40.4225],[25.4416,40.4729]]]]},"properties":{"name":"East Macedonia and Thrace","created_at":"2015-06-21T13:29:48Z","updated_at":"2015-06-22T10:14:39Z","cartodb_id":1,"name_greek":"Ανατολική Μακεδονία και Θράκη"}},{"type":"Feature","geometry":{"type":"MultiPolygon","coordinates":[[[[23.6228,41.3738],[23.6295,41.3227],[23.7115,41.3067],[23.6979,41.2638],[23.7262,41.2115],[23.7992,41.1402],[23.8586,41.1273],[23.923,41.0847],[23.9796,41.1104],[24.0314,41.0866],[24.0351,41.0468],[24.1162,41.0035],[24.1125,40.9549],[23.9812,40.8475],[23.9346,40.818],[23.8596,40.7961],[23.866,40.7762],[23.8332,40.7815],[23.7411,40.7555],[23.71,40.719],[23.6943,40.6646],[23.7406,40.6535],[23.8177,40.5773],[23.8663,40.5551],[23.897,40.5177],[23.8268,40.5134],[23.8361,40.4384],[23.8735,40.4024],[23.9262,40.3794],[24.0103,40.3904],[24.0653,40.3652],[24.1523,40.3547],[24.1859,40.3261],[24.2457,40.3069],[24.2847,40.2441],[24.3739,40.1897],[24.3963,40.1396],[24.3006,40.1123],[24.2791,40.1587],[24.2267,40.1866],[24.2217,40.2133],[24.1605,40.2776],[24.0384,40.2908],[23.9167,40.3625],[23.8265,40.3616],[23.7811,40.3344],[23.7374,40.3512],[23.6972,40.3179],[23.6925,40.2856],[23.773,40.1901],[23.9133,40.1556],[23.9754,40.1233],[23.9802,40.0758],[24.0193,40.0062],[23.9846,39.9807],[23.9822,39.9446],[23.9405,39.9352],[23.8895,39.9918],[23.7835,40.0645],[23.7893,40.0876],[23.7227,40.1647],[23.6517,40.2216],[23.5827,40.2226],[23.4253,40.2744],[23.3877,40.2723],[23.3087,40.2221],[23.146,40.2709],[23.0997,40.2968],[23.0177,40.3224],[22.9766,40.3668],[22.9156,40.3781],[22.8588,40.4572],[22.8146,40.4991],[22.9363,40.5115],[22.9799,40.5474],[22.9344,40.581],[22.9502,40.6186],[22.8929,40.6413],[22.8533,40.5885],[22.7924,40.5611],[22.7396,40.556],[22.7461,40.5189],[22.6593,40.5231],[22.6647,40.4873],[22.6054,40.438],[22.618,40.3849],[22.6591,40.3526],[22.6186,40.3039],[22.547,40.1383],[22.5663,40.0651],[22.5969,40.0062],[22.6607,39.9729],[22.5316,39.9442],[22.4963,39.9662],[22.494,40.0049],[22.3772,40.0365],[22.3442,40.0675],[22.3694,40.1369],[22.323,40.1723],[22.2849,40.1708],[22.2403,40.1093],[22.2087,40.1452],[22.2203,40.1738],[22.1814,40.194],[22.1135,40.1873],[22.1679,40.2332],[22.1936,40.2897],[22.1322,40.3157],[22.1227,40.3556],[22.0905,40.3904],[22.1042,40.4274],[22.0216,40.4482],[21.982,40.476],[21.931,40.4822],[21.8937,40.5412],[21.8832,40.6385],[21.9047,40.6787],[21.812,40.7011],[21.7476,40.7714],[21.728,40.8564],[21.8288,40.8961],[21.7869,40.9287],[21.7993,40.9722],[21.9123,41.0478],[21.9088,41.0898],[21.9707,41.1262],[22.0284,41.1309],[22.0653,41.1542],[22.1267,41.1209],[22.1682,41.1535],[22.2591,41.1634],[22.4175,41.1167],[22.6094,41.1262],[22.6654,41.1833],[22.7095,41.1372],[22.7445,41.1598],[22.7632,41.3209],[22.8082,41.3377],[22.93,41.3383],[23.0739,41.3183],[23.198,41.3207],[23.224,41.3649],[23.2813,41.3977],[23.3201,41.3983],[23.3377,41.3624],[23.4373,41.4041],[23.5248,41.4025],[23.5489,41.3839],[23.6228,41.3738]]],[[[23.3024,40.0972],[23.361,40.144],[23.395,40.1367],[23.4384,40.0982],[23.4635,40.0536],[23.502,40.0258],[23.678,39.9694],[23.6822,39.9149],[23.5912,39.9186],[23.4992,39.9563],[23.441,39.9678],[23.3562,39.9568],[23.3772,40.0063],[23.3024,40.0972]]]]},"properties":{"name":"Central Macedonia","created_at":"2015-06-21T13:29:48Z","updated_at":"2015-06-22T10:14:46Z","cartodb_id":2,"name_greek":"Κεντρική Μακεδονία"}},{"type":"Feature","geometry":{"type":"MultiPolygon","coordinates":[[[[22.1135,40.1873],[22.1814,40.194],[22.2203,40.1738],[22.2087,40.1452],[22.2403,40.1093],[22.2849,40.1708],[22.323,40.1723],[22.3694,40.1369],[22.3442,40.0675],[22.3772,40.0365],[22.494,40.0049],[22.4963,39.9662],[22.5316,39.9442],[22.6607,39.9729],[22.703,39.953],[22.7344,39.8661],[22.8507,39.7982],[22.866,39.7237],[22.9018,39.6236],[22.9338,39.5712],[22.9974,39.5491],[23.0942,39.4976],[23.1208,39.4511],[23.1791,39.4045],[23.2307,39.3392],[23.2734,39.3118],[23.2942,39.2589],[23.3497,39.1852],[23.3228,39.1481],[23.2088,39.1016],[23.0723,39.082],[23.0651,39.1327],[23.1007,39.1515],[23.1289,39.1082],[23.2047,39.1437],[23.2204,39.1777],[23.1877,39.2055],[23.1621,39.2698],[23.1111,39.3055],[23.0171,39.3142],[22.99,39.3485],[22.9402,39.3376],[22.9372,39.2935],[22.8748,39.2902],[22.8175,39.2715],[22.8221,39.2023],[22.8464,39.1667],[22.9093,39.1574],[22.9112,39.1292],[22.9642,39.1132],[23.0164,39.0001],[22.9291,38.9672],[22.854,38.9967],[22.7531,38.9989],[22.7065,39.0157],[22.6624,39.0523],[22.5725,39.0336],[22.507,39.046],[22.4911,39.1287],[22.4055,39.2143],[22.2853,39.2348],[22.2562,39.2676],[22.183,39.1734],[22.1471,39.1513],[22.1649,39.1223],[22.1204,39.0982],[22.0412,39.0784],[22.0496,39.0478],[22.0067,39.0269],[21.9461,39.0266],[21.9296,39.099],[21.8719,39.1214],[21.7286,39.1115],[21.6972,39.1801],[21.6847,39.2489],[21.577,39.237],[21.5374,39.2137],[21.5059,39.2331],[21.3953,39.1619],[21.3719,39.1721],[21.3492,39.1956],[21.3663,39.2323],[21.4274,39.2894],[21.3755,39.3558],[21.3045,39.3551],[21.2714,39.3744],[21.2625,39.4164],[21.2266,39.4344],[21.1795,39.4982],[21.2016,39.5291],[21.18,39.6133],[21.121,39.6811],[21.2261,39.7402],[21.2248,39.8022],[21.2615,39.8493],[21.2948,39.8552],[21.3381,39.8278],[21.4193,39.8485],[21.4306,39.8931],[21.5821,39.8907],[21.6535,39.8704],[21.7912,39.8436],[21.8308,39.8592],[21.9165,39.85],[21.8756,39.9514],[21.9312,39.9794],[21.992,40.0565],[22.0749,40.1136],[22.0861,40.1609],[22.1135,40.1873]]],[[[23.5879,39.1996],[23.7197,39.1397],[23.7821,39.1276],[23.7647,39.0864],[23.7241,39.0682],[23.6575,39.0876],[23.643,39.1333],[23.5879,39.1996]]],[[[23.8265,39.1472],[23.9507,39.2859],[23.9778,39.2597],[23.9157,39.1717],[23.848,39.132],[23.8265,39.1472]]],[[[24.0383,39.321],[24.0702,39.3665],[24.0971,39.3456],[24.0916,39.3051],[24.0383,39.321]]],[[[23.3857,39.1544],[23.4805,39.2035],[23.5138,39.1761],[23.4572,39.1364],[23.3857,39.1544]]]]},"properties":{"name":"Thessaly","created_at":"2015-06-21T13:29:48Z","updated_at":"2015-06-22T10:15:05Z","cartodb_id":5,"name_greek":"Θεσσαλία"}},{"type":"Feature","geometry":{"type":"MultiPolygon","coordinates":[[[[24.9689,39.5007],[25.0011,39.5603],[25.0556,39.5279],[25.0228,39.4921],[24.9689,39.5007]]],[[[25.0326,39.9829],[25.1514,39.9871],[25.2257,40.0023],[25.2626,39.9849],[25.2796,39.9387],[25.3695,39.9987],[25.431,40.0163],[25.4434,39.9828],[25.3861,39.9402],[25.3413,39.8779],[25.3536,39.8008],[25.3066,39.7908],[25.2596,39.8582],[25.2787,39.8911],[25.231,39.9077],[25.2011,39.8889],[25.1893,39.8439],[25.2221,39.8051],[25.1567,39.7991],[25.1196,39.8489],[25.0566,39.8409],[25.0715,39.9128],[25.0326,39.9829]]],[[[25.8291,38.5382],[25.8558,38.578],[26.0058,38.6021],[26.0637,38.5832],[26.0843,38.5539],[26.1578,38.5507],[26.133,38.4195],[26.1513,38.3006],[26.1015,38.2701],[26.0977,38.2078],[26.0354,38.1958],[25.9954,38.1525],[25.9216,38.1931],[25.9119,38.2195],[25.8628,38.2483],[25.8741,38.2705],[25.9657,38.3171],[25.9912,38.37],[25.9522,38.4169],[25.9402,38.4578],[25.8611,38.49],[25.8291,38.5382]]],[[[25.5282,38.5928],[25.5803,38.6004],[25.6197,38.587],[25.6081,38.5321],[25.5282,38.5928]]],[[[25.9721,37.5198],[26.0032,37.5685],[26.0815,37.6343],[26.1939,37.6237],[26.3037,37.6801],[26.333,37.6463],[26.2907,37.6073],[26.1947,37.5604],[26.1074,37.5519],[26.0565,37.5124],[25.9721,37.5198]]],[[[25.8295,39.1865],[25.8638,39.256],[25.9176,39.287],[25.9512,39.2725],[26.1254,39.3055],[26.1797,39.3346],[26.1815,39.3763],[26.3137,39.371],[26.3697,39.3376],[26.421,39.3338],[26.3759,39.2762],[26.4503,39.2354],[26.4974,39.1788],[26.5341,39.1679],[26.5537,39.0965],[26.5922,39.067],[26.6055,39.0064],[26.5235,39.0281],[26.5273,39.0796],[26.501,39.107],[26.44,39.0991],[26.5277,39.0205],[26.5387,38.9849],[26.4154,38.9593],[26.3233,38.975],[26.2346,39.0128],[26.1653,39.0105],[26.0953,39.0792],[26.1666,39.0979],[26.2842,39.1575],[26.2813,39.1929],[26.2393,39.2042],[26.163,39.191],[26.1524,39.1544],[26.1125,39.1142],[26.0606,39.0864],[25.959,39.1043],[25.9262,39.133],[25.8733,39.1478],[25.8295,39.1865]]],[[[26.5647,37.7287],[26.5959,37.7602],[26.7302,37.8089],[26.8455,37.8036],[26.8803,37.7764],[26.956,37.755],[26.9853,37.7817],[27.0283,37.7713],[27.0398,37.726],[27.0107,37.7006],[26.8967,37.6751],[26.8662,37.6348],[26.7832,37.6477],[26.7501,37.6938],[26.7194,37.7071],[26.6401,37.6998],[26.5823,37.6803],[26.5647,37.7287]]]]},"properties":{"name":"North Aegean","created_at":"2015-06-21T13:29:48Z","updated_at":"2015-06-22T10:15:14Z","cartodb_id":6,"name_greek":"Βόρειο Αιγαίο"}},{"type":"Feature","geometry":{"type":"MultiPolygon","coordinates":[[[[26.8426,35.358],[26.9026,35.4202],[26.9303,35.4146],[26.9997,35.4329],[26.9894,35.3979],[26.8834,35.3414],[26.8426,35.358]]],[[[25.3519,36.3553],[25.4112,36.3591],[25.4326,36.3916],[25.4205,36.4707],[25.4857,36.4008],[25.4851,36.3597],[25.4393,36.3291],[25.3519,36.3553]]],[[[25.7257,36.364],[25.7642,36.3973],[25.8215,36.3701],[25.7896,36.3422],[25.7257,36.364]]],[[[27.6817,36.1505],[27.7699,36.1908],[27.81,36.2698],[27.8764,36.3195],[27.9582,36.3504],[28.052,36.3965],[28.1161,36.4175],[28.1941,36.424],[28.239,36.3817],[28.2102,36.3534],[28.138,36.1873],[28.0975,36.174],[28.0673,36.1033],[27.9442,36.0377],[27.8611,35.9293],[27.7964,35.8879],[27.7676,35.8838],[27.7317,35.9146],[27.7252,35.9471],[27.7533,36.0108],[27.7586,36.0849],[27.6817,36.1505]]],[[[27.5143,36.2214],[27.601,36.2455],[27.6152,36.2135],[27.5143,36.2214]]],[[[27.2898,36.4242],[27.2976,36.4513],[27.3582,36.4761],[27.3923,36.4259],[27.3799,36.3819],[27.3326,36.4193],[27.2898,36.4242]]],[[[26.2582,36.59],[26.2911,36.5962],[26.3553,36.5682],[26.3968,36.5903],[26.388,36.6423],[26.4548,36.601],[26.4162,36.5698],[26.3563,36.5565],[26.3554,36.5254],[26.3198,36.5049],[26.2882,36.5213],[26.2582,36.59]]],[[[24.3158,36.6578],[24.3382,36.7398],[24.3915,36.7277],[24.3941,36.7026],[24.4472,36.6875],[24.4756,36.7402],[24.524,36.7623],[24.5444,36.7066],[24.5334,36.6754],[24.4731,36.6586],[24.4406,36.667],[24.3812,36.651],[24.3158,36.6578]]],[[[25.0578,36.6342],[25.092,36.6896],[25.1375,36.7128],[25.1777,36.699],[25.1292,36.6573],[25.0578,36.6342]]],[[[24.8534,37.3949],[24.8977,37.4547],[24.8967,37.4937],[24.9448,37.4825],[24.9342,37.4294],[24.9468,37.3833],[24.8814,37.3745],[24.8534,37.3949]]],[[[27.7635,36.6011],[27.8583,36.6243],[27.8763,36.6151],[27.8753,36.5505],[27.7827,36.5829],[27.7635,36.6011]]],[[[25.2453,36.7193],[25.2705,36.784],[25.3052,36.7902],[25.3627,36.7344],[25.3948,36.7203],[25.3816,36.6693],[25.3526,36.6439],[25.2892,36.7032],[25.2453,36.7193]]],[[[25.0959,37.0252],[25.1058,37.0612],[25.1652,37.1243],[25.263,37.1219],[25.2612,37.0394],[25.1812,36.9725],[25.1216,36.9908],[25.0959,37.0252]]],[[[24.9706,37.6563],[25.0464,37.6746],[25.0486,37.6504],[25.1768,37.6379],[25.2514,37.6072],[25.232,37.5368],[25.1935,37.523],[25.1129,37.5469],[24.9706,37.6563]]],[[[27.0596,35.5941],[27.1195,35.6425],[27.1158,35.6661],[27.1605,35.7224],[27.1642,35.795],[27.2112,35.7799],[27.215,35.7235],[27.1598,35.6533],[27.1497,35.607],[27.176,35.5958],[27.2364,35.5013],[27.1553,35.4394],[27.1108,35.4214],[27.0858,35.4468],[27.1183,35.4841],[27.1115,35.5425],[27.0596,35.5941]]],[[[27.1206,36.5706],[27.1316,36.6106],[27.1859,36.6176],[27.2123,36.5821],[27.1906,36.5548],[27.1206,36.5706]]],[[[25.0138,36.9813],[25.0196,37.0091],[25.0774,37.0297],[25.0713,36.9797],[25.0138,36.9813]]],[[[25.3314,37.0737],[25.4114,37.1331],[25.4496,37.1394],[25.4925,37.186],[25.5315,37.2005],[25.5907,37.134],[25.5759,37.0192],[25.548,36.9553],[25.4993,36.9486],[25.4467,36.9137],[25.4252,36.9594],[25.3849,36.9769],[25.3763,37.037],[25.3314,37.0737]]],[[[24.6782,37.9224],[24.6884,37.9607],[24.7357,37.9862],[24.7909,37.9955],[24.8241,37.962],[24.8409,37.9087],[24.9558,37.8946],[24.9337,37.8386],[24.9785,37.8126],[24.95,37.7729],[24.9886,37.7477],[24.9458,37.686],[24.9085,37.7163],[24.8873,37.758],[24.7858,37.8412],[24.7647,37.8729],[24.7105,37.8761],[24.6782,37.9224]]],[[[24.5181,36.7972],[24.5477,36.8383],[24.5935,36.8199],[24.5711,36.7742],[24.5181,36.7972]]],[[[24.4095,37.123],[24.4437,37.1893],[24.4757,37.205],[24.5312,37.1904],[24.5327,37.1287],[24.506,37.1144],[24.4095,37.123]]],[[[24.3602,37.3086],[24.3962,37.3905],[24.3717,37.434],[24.4001,37.461],[24.4702,37.4215],[24.448,37.3574],[24.4072,37.3157],[24.3602,37.3086]]],[[[24.2639,37.5825],[24.2942,37.6571],[24.349,37.6851],[24.4066,37.6557],[24.3942,37.6173],[24.3557,37.5721],[24.2924,37.522],[24.2708,37.5268],[24.2639,37.5825]]],[[[26.9155,36.7161],[26.9208,36.7575],[26.9947,36.7701],[27.0741,36.8477],[27.1641,36.8859],[27.2311,36.8915],[27.2751,36.9131],[27.3537,36.8566],[27.1626,36.801],[27.1111,36.7552],[27.0274,36.7639],[26.9793,36.7481],[26.9823,36.7138],[26.9539,36.6735],[26.9155,36.7161]]],[[[26.8785,37.071],[26.9544,37.0608],[27.0344,37.0112],[27.0411,36.9551],[26.9587,36.9229],[26.9122,36.9458],[26.9529,37.0308],[26.8785,37.071]]],[[[25.7385,36.7923],[25.7802,36.8112],[25.8516,36.815],[25.8448,36.8497],[25.9704,36.8754],[25.869,36.7878],[25.8018,36.7652],[25.7385,36.7923]]],[[[26.7628,37.1711],[26.8074,37.2005],[26.8538,37.1856],[26.8605,37.1382],[26.8201,37.113],[26.7934,37.1614],[26.7628,37.1711]]],[[[24.6335,37.0262],[24.7066,37.0178],[24.7639,36.9463],[24.7014,36.8985],[24.6335,37.0262]]],[[[24.6481,37.6033],[24.7384,37.6263],[24.7402,37.5903],[24.6481,37.6033]]],[[[25.2985,37.4296],[25.3259,37.4379],[25.3114,37.4899],[25.3413,37.4977],[25.451,37.4708],[25.3623,37.4044],[25.2985,37.4296]]]]},"properties":{"name":"South Aegean","created_at":"2015-06-21T13:29:48Z","updated_at":"2015-06-22T10:15:19Z","cartodb_id":7,"name_greek":"Νότιο Αιγαίο"}},{"type":"Feature","geometry":{"type":"MultiPolygon","coordinates":[[[[21.3953,39.1619],[21.5059,39.2331],[21.5374,39.2137],[21.577,39.237],[21.6847,39.2489],[21.6972,39.1801],[21.7286,39.1115],[21.8719,39.1214],[21.9296,39.099],[21.9461,39.0266],[22.0067,39.0269],[22.0496,39.0478],[22.0412,39.0784],[22.1204,39.0982],[22.1649,39.1223],[22.1471,39.1513],[22.183,39.1734],[22.2562,39.2676],[22.2853,39.2348],[22.4055,39.2143],[22.4911,39.1287],[22.507,39.046],[22.5725,39.0336],[22.6624,39.0523],[22.7065,39.0157],[22.7531,38.9989],[22.854,38.9967],[22.9291,38.9672],[23.0164,39.0001],[23.0083,38.9728],[22.8971,38.9174],[22.8547,38.9242],[22.8365,38.8901],[22.7568,38.8656],[22.6692,38.8785],[22.6085,38.9085],[22.5738,38.8868],[22.551,38.8398],[22.6081,38.8192],[22.6974,38.8401],[22.7581,38.7822],[22.8712,38.7541],[22.898,38.7746],[22.9612,38.7435],[23.0313,38.7536],[23.0655,38.7132],[23.0643,38.6761],[23.102,38.6452],[23.187,38.6464],[23.3194,38.6356],[23.3382,38.6018],[23.2951,38.5653],[23.3351,38.5296],[23.4085,38.4947],[23.4617,38.4972],[23.5114,38.4769],[23.5412,38.5056],[23.6293,38.3746],[23.6887,38.3377],[23.6335,38.2706],[23.6377,38.2007],[23.6256,38.1688],[23.5548,38.1357],[23.5146,38.1328],[23.4604,38.1614],[23.4557,38.2062],[23.4031,38.2042],[23.3917,38.2609],[23.3252,38.2603],[23.287,38.2316],[23.2843,38.1816],[23.1791,38.178],[23.1245,38.1658],[23.0704,38.1681],[23.0144,38.2087],[22.9223,38.214],[22.8645,38.2303],[22.7776,38.2306],[22.7522,38.2835],[22.6957,38.3109],[22.6454,38.3563],[22.5926,38.3504],[22.6007,38.3129],[22.559,38.2779],[22.52,38.3316],[22.5031,38.3787],[22.4542,38.4244],[22.4045,38.4266],[22.3767,38.3299],[22.3478,38.3473],[22.2756,38.3387],[22.2504,38.36],[22.1724,38.3264],[22.1235,38.3645],[22.0494,38.3923],[21.933,38.4034],[21.8956,38.3694],[21.8501,38.3719],[21.8811,38.4126],[21.8787,38.4628],[21.9996,38.5114],[21.9942,38.5546],[22.0132,38.5836],[21.9932,38.6226],[21.9893,38.7071],[22.0222,38.7366],[21.9928,38.7718],[21.9446,38.7808],[21.9433,38.7405],[21.8965,38.7212],[21.8365,38.7352],[21.8088,38.6833],[21.7662,38.6733],[21.7608,38.7123],[21.684,38.7001],[21.5696,38.7342],[21.5512,38.7907],[21.5726,38.8461],[21.609,38.8799],[21.5059,38.8865],[21.4923,38.9296],[21.5036,38.9675],[21.4247,38.9914],[21.3759,39.03],[21.4341,39.1042],[21.3942,39.135],[21.3953,39.1619]]],[[[22.8271,38.8225],[22.8486,38.8686],[23.0801,38.9385],[23.0894,38.9783],[23.1297,39.0055],[23.2025,39.0016],[23.2783,39.0359],[23.3163,39.0359],[23.3752,39.0046],[23.3857,38.9577],[23.4301,38.9347],[23.4251,38.9014],[23.4693,38.8325],[23.5151,38.8193],[23.627,38.7524],[23.7003,38.7659],[23.7708,38.6961],[23.8579,38.6684],[23.8935,38.6753],[23.9523,38.6575],[24.0436,38.6844],[24.1214,38.6645],[24.1296,38.5834],[24.2284,38.5227],[24.1877,38.4865],[24.1831,38.4019],[24.2106,38.3771],[24.2032,38.3357],[24.2546,38.2802],[24.247,38.2242],[24.2727,38.1957],[24.3313,38.1767],[24.3479,38.1529],[24.395,38.1645],[24.4234,38.1426],[24.5593,38.1403],[24.5864,38.0653],[24.5554,37.9762],[24.4922,37.9466],[24.4607,37.9933],[24.391,38.0031],[24.3465,37.9765],[24.3048,38.0672],[24.2569,38.092],[24.2077,38.0884],[24.2052,38.1778],[24.1825,38.2141],[24.1373,38.2381],[24.1523,38.2695],[24.1103,38.3104],[24.0564,38.3373],[24.0474,38.3923],[23.9931,38.4015],[23.96,38.3839],[23.892,38.3811],[23.8231,38.4026],[23.799,38.3844],[23.6902,38.4107],[23.647,38.3961],[23.6179,38.4405],[23.6237,38.5408],[23.594,38.5708],[23.5066,38.5877],[23.4886,38.6323],[23.349,38.7227],[23.3184,38.7614],[23.233,38.7974],[23.1949,38.8321],[23.1403,38.8488],[23.0807,38.836],[22.9891,38.8786],[22.9579,38.8334],[22.8835,38.8366],[22.8271,38.8225]]],[[[24.4295,38.8789],[24.4674,38.914],[24.4478,38.9468],[24.4835,38.9768],[24.5779,38.9228],[24.5786,38.8697],[24.6639,38.8221],[24.6839,38.7906],[24.6149,38.7624],[24.5402,38.8328],[24.4766,38.8718],[24.4295,38.8789]]]]},"properties":{"name":"Central Greece","created_at":"2015-06-21T13:29:48Z","updated_at":"2015-06-22T10:15:25Z","cartodb_id":8,"name_greek":"Κεντρική Ελλάδα"}},{"type":"Feature","geometry":{"type":"MultiPolygon","coordinates":[[[[21.3719,39.1721],[21.3953,39.1619],[21.3942,39.135],[21.4341,39.1042],[21.3759,39.03],[21.4247,38.9914],[21.5036,38.9675],[21.4923,38.9296],[21.5059,38.8865],[21.609,38.8799],[21.5726,38.8461],[21.5512,38.7907],[21.5696,38.7342],[21.684,38.7001],[21.7608,38.7123],[21.7662,38.6733],[21.8088,38.6833],[21.8365,38.7352],[21.8965,38.7212],[21.9433,38.7405],[21.9446,38.7808],[21.9928,38.7718],[22.0222,38.7366],[21.9893,38.7071],[21.9932,38.6226],[22.0132,38.5836],[21.9942,38.5546],[21.9996,38.5114],[21.8787,38.4628],[21.8811,38.4126],[21.8501,38.3719],[21.7852,38.3708],[21.7569,38.3285],[21.6379,38.3544],[21.6172,38.3394],[21.4902,38.2987],[21.4614,38.3596],[21.4205,38.3671],[21.3609,38.4069],[21.2662,38.3596],[21.26,38.3341],[21.1773,38.2964],[21.1365,38.3127],[21.1043,38.3499],[21.1256,38.3821],[21.1098,38.447],[21.0758,38.48],[21.0271,38.4991],[21.0097,38.5428],[21.0216,38.6016],[20.9872,38.6657],[20.9206,38.6673],[20.8931,38.7041],[20.8699,38.7925],[20.7632,38.7544],[20.7254,38.8111],[20.7401,38.8512],[20.7905,38.8671],[20.7454,38.9224],[20.8312,38.9174],[20.849,38.936],[20.9061,38.9192],[20.9682,38.9417],[21.0468,38.8797],[21.0897,38.8752],[21.1379,38.9199],[21.1585,38.9856],[21.107,39.0435],[21.0856,39.0778],[21.1243,39.1212],[21.2703,39.115],[21.3719,39.1721]]],[[[22.3755,38.127],[22.3761,38.0949],[22.3585,38.0375],[22.3257,37.989],[22.317,37.9844],[22.3017,37.9764],[22.302,37.9739],[22.265,37.9508],[22.2405,37.9486],[22.2438,37.905],[22.2244,37.888],[22.252,37.8372],[22.1474,37.8009],[22.123,37.8218],[22.0732,37.8003],[22.0564,37.7812],[21.9749,37.8018],[21.9301,37.8148],[21.901,37.8299],[21.871,37.8539],[21.8026,37.8033],[21.7993,37.7278],[21.8019,37.7202],[21.8076,37.6964],[21.8015,37.6574],[21.7956,37.5948],[21.8522,37.6023],[21.8643,37.6001],[21.8896,37.5876],[21.899,37.5661],[21.9956,37.5012],[21.9974,37.4971],[21.9216,37.4673],[21.882,37.4399],[21.898,37.4082],[21.8093,37.3889],[21.7911,37.3926],[21.7083,37.3931],[21.6833,37.3768],[21.6149,37.483],[21.532,37.5645],[21.3634,37.6582],[21.3005,37.6676],[21.3184,37.7028],[21.296,37.7634],[21.2529,37.7955],[21.1042,37.8453],[21.1242,37.9353],[21.1799,37.9267],[21.2544,37.9714],[21.3001,38.0212],[21.3672,38.1384],[21.3618,38.1773],[21.4507,38.1968],[21.5118,38.1604],[21.5953,38.141],[21.6679,38.164],[21.7165,38.2133],[21.7367,38.2675],[21.7775,38.3054],[21.8772,38.322],[21.9585,38.3234],[22.02,38.3046],[22.0243,38.285],[22.1084,38.2631],[22.1535,38.211],[22.2122,38.179],[22.2742,38.1684],[22.3335,38.174],[22.3755,38.127]]]]},"properties":{"name":"Western Greece","created_at":"2015-06-21T13:29:48Z","updated_at":"2015-06-22T10:15:35Z","cartodb_id":9,"name_greek":"Δυτική Ελλάδα"}},{"type":"Feature","geometry":{"type":"MultiPolygon","coordinates":[[[[21.6833,37.3768],[21.7083,37.3931],[21.7911,37.3926],[21.8093,37.3889],[21.898,37.4082],[21.882,37.4399],[21.9216,37.4673],[21.9974,37.4971],[21.9956,37.5012],[21.899,37.5661],[21.8896,37.5876],[21.8643,37.6001],[21.8522,37.6023],[21.7956,37.5948],[21.8015,37.6574],[21.8076,37.6964],[21.8019,37.7202],[21.7993,37.7278],[21.8026,37.8033],[21.871,37.8539],[21.901,37.8299],[21.9301,37.8148],[21.9749,37.8018],[22.0564,37.7812],[22.0732,37.8003],[22.123,37.8218],[22.1474,37.8009],[22.252,37.8372],[22.2244,37.888],[22.2438,37.905],[22.2405,37.9486],[22.265,37.9508],[22.302,37.9739],[22.3017,37.9764],[22.317,37.9844],[22.3257,37.989],[22.3585,38.0375],[22.3761,38.0949],[22.3755,38.127],[22.4885,38.1335],[22.5458,38.1021],[22.6374,38.0758],[22.7224,38.0342],[22.7971,37.963],[22.8949,37.9292],[22.9584,37.9482],[23.0077,37.913],[22.9902,37.8784],[23.003,37.8462],[23.1143,37.8443],[23.1778,37.8005],[23.1779,37.776],[23.1164,37.7436],[23.1713,37.7002],[23.1495,37.6716],[23.1546,37.6219],[23.1987,37.5941],[23.1836,37.5862],[23.1836,37.5861],[23.1837,37.5855],[23.1846,37.5836],[23.1854,37.5809],[23.1887,37.5767],[23.1835,37.5648],[23.1629,37.5425],[23.1733,37.5251],[23.1849,37.5201],[23.222,37.5159],[23.2638,37.5],[23.2949,37.492],[23.3143,37.4659],[23.4028,37.4542],[23.4204,37.4659],[23.4487,37.4424],[23.4064,37.4015],[23.3454,37.4118],[23.2444,37.3809],[23.2646,37.3533],[23.1912,37.3383],[23.1417,37.296],[23.0709,37.348],[23.0838,37.3845],[23.1333,37.4065],[23.1207,37.4468],[23.0598,37.4468],[23.0401,37.4779],[22.9906,37.4808],[22.9737,37.5148],[22.8968,37.5303],[22.8538,37.5101],[22.8149,37.53],[22.7791,37.5866],[22.7163,37.5619],[22.7368,37.5075],[22.7254,37.4883],[22.7724,37.3845],[22.8148,37.3353],[22.8374,37.276],[22.8915,37.2164],[22.891,37.1258],[22.9561,37.1135],[22.9765,37.0804],[23.0049,36.9841],[22.9888,36.9709],[23.0314,36.9043],[23.0986,36.7745],[23.085,36.7267],[23.03,36.73],[23.0303,36.6251],[23.0647,36.5838],[23.1257,36.5565],[23.1467,36.5318],[23.1281,36.4935],[23.1934,36.4559],[23.1278,36.4251],[23.0756,36.4517],[23.0645,36.5011],[23.032,36.5245],[22.9661,36.5179],[22.9429,36.5703],[22.8743,36.6188],[22.8785,36.6508],[22.8265,36.684],[22.7825,36.7957],[22.6214,36.8036],[22.5631,36.7721],[22.5746,36.7316],[22.5228,36.7074],[22.476,36.6134],[22.4704,36.529],[22.5025,36.4839],[22.4903,36.4067],[22.4565,36.4493],[22.3983,36.4786],[22.3671,36.4748],[22.345,36.5217],[22.3894,36.5389],[22.3626,36.5989],[22.3676,36.6475],[22.2948,36.8113],[22.206,36.9],[22.1598,36.8905],[22.1442,36.9346],[22.1508,37.0131],[22.0795,37.0255],[22.0189,37.0192],[21.9286,36.9785],[21.9332,36.9296],[21.92,36.8624],[21.9366,36.806],[21.9327,36.7585],[21.8729,36.7214],[21.8085,36.8046],[21.7261,36.7973],[21.7018,36.8115],[21.6779,36.8856],[21.7084,36.9403],[21.6571,36.9702],[21.6365,37.0043],[21.5749,37.059],[21.5641,37.1607],[21.5977,37.2135],[21.6688,37.2561],[21.6966,37.3092],[21.6833,37.3768]]],[[[23.1197,38.0238],[23.1051,37.9926],[23.1366,37.9731],[23.1706,37.9657],[23.1645,37.9463],[23.1373,37.9191],[23.0073,37.9144],[22.959,37.9494],[22.9729,37.969],[22.9172,38.0102],[22.848,38.0262],[22.951,38.0771],[23.0542,38.0501],[23.1189,38.0532],[23.1197,38.0238]]]]},"properties":{"name":"Peloponnese","created_at":"2015-06-21T13:29:48Z","updated_at":"2015-06-22T10:15:40Z","cartodb_id":10,"name_greek":"Πελοπόννησος"}},{"type":"Feature","geometry":{"type":"MultiPolygon","coordinates":[[[[23.1245,38.1658],[23.1791,38.178],[23.2843,38.1816],[23.287,38.2316],[23.3252,38.2603],[23.3917,38.2609],[23.4031,38.2042],[23.4557,38.2062],[23.4604,38.1614],[23.5146,38.1328],[23.5548,38.1357],[23.6256,38.1688],[23.6377,38.2007],[23.6335,38.2706],[23.6887,38.3377],[23.7661,38.3365],[23.8303,38.31],[23.9552,38.2808],[24.0463,38.2052],[24.0685,38.1604],[23.9792,38.1038],[23.9984,38.0314],[24.0271,37.9921],[24.0061,37.9578],[24.0559,37.8541],[24.0475,37.8161],[24.0827,37.7935],[24.0513,37.7238],[24.0685,37.677],[24.0199,37.6547],[23.9366,37.6693],[23.9338,37.7061],[23.9019,37.7309],[23.8988,37.7719],[23.8666,37.7978],[23.7669,37.817],[23.672,37.9397],[23.6306,37.9238],[23.6017,37.9586],[23.5559,37.9598],[23.5963,38.0175],[23.5724,38.043],[23.4452,38.018],[23.3808,37.9699],[23.2415,37.9733],[23.196,37.9517],[23.1706,37.9657],[23.1366,37.9731],[23.1051,37.9926],[23.1197,38.0238],[23.1189,38.0532],[23.2133,38.0965],[23.1737,38.1376],[23.1245,38.1658]]],[[[23.4487,37.4424],[23.4204,37.4659],[23.4028,37.4542],[23.3143,37.4659],[23.2949,37.492],[23.2638,37.5],[23.222,37.5159],[23.1849,37.5201],[23.1733,37.5251],[23.1629,37.5425],[23.1835,37.5648],[23.1887,37.5767],[23.1854,37.5809],[23.1846,37.5836],[23.1837,37.5855],[23.1836,37.5861],[23.1836,37.5862],[23.1898,37.5872],[23.1987,37.5941],[23.262,37.5701],[23.3175,37.5295],[23.366,37.5496],[23.3231,37.6292],[23.3824,37.6379],[23.4128,37.6096],[23.3712,37.549],[23.4334,37.5016],[23.5168,37.4532],[23.5172,37.4318],[23.4595,37.4129],[23.4487,37.4424]]],[[[22.8888,36.3178],[22.9223,36.3753],[22.9531,36.3778],[22.9774,36.3278],[23.1022,36.2331],[23.0527,36.2161],[23.045,36.128],[22.9393,36.1548],[22.9003,36.2343],[22.92,36.2886],[22.8888,36.3178]]],[[[23.3606,37.2973],[23.4607,37.3499],[23.5018,37.316],[23.3606,37.2973]]],[[[23.4157,37.7591],[23.455,37.7692],[23.5635,37.7623],[23.4994,37.6765],[23.4673,37.674],[23.4562,37.7172],[23.4157,37.7591]]],[[[23.3994,37.8927],[23.4314,37.9552],[23.4943,37.9999],[23.5363,37.9808],[23.533,37.9115],[23.447,37.8707],[23.3994,37.8927]]]]},"properties":{"name":"Attica","created_at":"2015-06-21T13:29:48Z","updated_at":"2015-06-22T10:20:42Z","cartodb_id":13,"name_greek":"Αττική"}},{"type":"Feature","geometry":{"type":"Polygon","coordinates":[[[21.7869,40.9287],[21.8288,40.8961],[21.728,40.8564],[21.7476,40.7714],[21.812,40.7011],[21.9047,40.6787],[21.8832,40.6385],[21.8937,40.5412],[21.931,40.4822],[21.982,40.476],[22.0216,40.4482],[22.1042,40.4274],[22.0905,40.3904],[22.1227,40.3556],[22.1322,40.3157],[22.1936,40.2897],[22.1679,40.2332],[22.1135,40.1873],[22.0861,40.1609],[22.0749,40.1136],[21.992,40.0565],[21.9312,39.9794],[21.8756,39.9514],[21.9165,39.85],[21.8308,39.8592],[21.7912,39.8436],[21.6535,39.8704],[21.5821,39.8907],[21.4306,39.8931],[21.4193,39.8485],[21.3381,39.8278],[21.2948,39.8552],[21.2303,39.8865],[21.162,39.856],[21.0968,39.8801],[21.0749,39.9471],[21.0488,39.9626],[21.0837,40.052],[21.008,40.0536],[20.9561,40.1291],[21.0026,40.1517],[20.9903,40.2042],[20.9184,40.2944],[20.874,40.3315],[20.7751,40.3465],[20.7897,40.3608],[20.7857,40.4251],[20.8444,40.4769],[20.9294,40.4599],[20.9665,40.4851],[20.968,40.5179],[21.0408,40.5552],[21.0561,40.6636],[20.9814,40.7352],[20.9818,40.8523],[21.1547,40.855],[21.2098,40.8808],[21.2499,40.86],[21.3594,40.8763],[21.4158,40.9154],[21.5239,40.9074],[21.5656,40.8653],[21.6474,40.8988],[21.6821,40.9374],[21.7869,40.9287]]]},"properties":{"name":"West Macedonia","created_at":"2015-06-21T13:29:48Z","updated_at":"2015-06-22T10:14:55Z","cartodb_id":3,"name_greek":"Δυτική Μακεδονία"}},{"type":"Feature","geometry":{"type":"Polygon","coordinates":[[[21.2948,39.8552],[21.2615,39.8493],[21.2248,39.8022],[21.2261,39.7402],[21.121,39.6811],[21.18,39.6133],[21.2016,39.5291],[21.1795,39.4982],[21.2266,39.4344],[21.2625,39.4164],[21.2714,39.3744],[21.3045,39.3551],[21.3755,39.3558],[21.4274,39.2894],[21.3663,39.2323],[21.3492,39.1956],[21.3719,39.1721],[21.2703,39.115],[21.1243,39.1212],[21.0856,39.0778],[21.107,39.0435],[21.081,39.0512],[21.0206,39.0038],[20.9858,39.0125],[20.9259,39.0569],[20.8607,39.0545],[20.8279,39.0756],[20.7849,39.0515],[20.7441,39.0032],[20.7761,38.9931],[20.7556,38.9477],[20.7252,38.9469],[20.6984,38.9948],[20.7084,39.0376],[20.656,39.0874],[20.586,39.128],[20.5175,39.1953],[20.4733,39.215],[20.4688,39.261],[20.3914,39.2827],[20.3399,39.281],[20.2859,39.3246],[20.2675,39.3895],[20.2266,39.4162],[20.2574,39.4568],[20.2599,39.5083],[20.1836,39.5164],[20.1663,39.5866],[20.1887,39.6424],[20.2325,39.6821],[20.3209,39.7315],[20.2908,39.7641],[20.3033,39.8141],[20.3788,39.7829],[20.4143,39.8398],[20.3823,39.8871],[20.3363,39.922],[20.3117,39.9877],[20.392,39.9929],[20.4174,40.0587],[20.5102,40.0804],[20.5487,40.0613],[20.6009,40.0698],[20.6772,40.1048],[20.6897,40.1519],[20.6779,40.1877],[20.7229,40.2214],[20.7064,40.2641],[20.7751,40.3465],[20.874,40.3315],[20.9184,40.2944],[20.9903,40.2042],[21.0026,40.1517],[20.9561,40.1291],[21.008,40.0536],[21.0837,40.052],[21.0488,39.9626],[21.0749,39.9471],[21.0968,39.8801],[21.162,39.856],[21.2303,39.8865],[21.2948,39.8552]]]},"properties":{"name":"Epirus","created_at":"2015-06-21T13:29:48Z","updated_at":"2015-06-22T10:15:00Z","cartodb_id":4,"name_greek":"Ήπειρος"}},{"type":"Feature","geometry":{"type":"MultiPolygon","coordinates":[[[[19.6278,39.7502],[19.677,39.7926],[19.7878,39.7881],[19.8486,39.8191],[19.955,39.7732],[19.9257,39.7294],[19.8433,39.704],[19.8419,39.6515],[19.9187,39.6251],[19.9107,39.5455],[19.937,39.4688],[19.9997,39.4543],[20.0291,39.4316],[20.0859,39.4306],[20.1138,39.361],[20.082,39.3634],[19.9812,39.4121],[19.8776,39.4473],[19.8502,39.4919],[19.8299,39.5706],[19.7406,39.6211],[19.7265,39.6717],[19.6715,39.6781],[19.6789,39.7136],[19.6278,39.7502]]],[[[20.3356,38.1974],[20.3524,38.2481],[20.3845,38.2698],[20.4076,38.3405],[20.473,38.308],[20.5463,38.3591],[20.5356,38.4674],[20.5764,38.4653],[20.6157,38.3753],[20.627,38.3226],[20.6088,38.2904],[20.6246,38.2564],[20.6948,38.2607],[20.7089,38.2239],[20.8137,38.1109],[20.7949,38.0628],[20.7007,38.0666],[20.6291,38.1117],[20.5537,38.0892],[20.5106,38.1004],[20.4779,38.1591],[20.4692,38.2279],[20.4378,38.2229],[20.4389,38.1594],[20.3772,38.1501],[20.3356,38.1974]]],[[[20.6169,37.8593],[20.6437,37.897],[20.6902,37.9248],[20.7609,37.8424],[20.8222,37.8352],[20.903,37.802],[20.8996,37.7333],[20.8726,37.7254],[20.8032,37.6518],[20.744,37.7123],[20.7098,37.7231],[20.6714,37.765],[20.6758,37.7878],[20.6258,37.8156],[20.6169,37.8593]]],[[[20.6132,38.4682],[20.6958,38.4521],[20.7042,38.4265],[20.6733,38.3632],[20.7425,38.3776],[20.7423,38.3266],[20.7118,38.3005],[20.6646,38.3603],[20.6132,38.4682]]],[[[20.5404,38.5589],[20.5566,38.6257],[20.5549,38.6782],[20.6064,38.7879],[20.653,38.8328],[20.7081,38.8335],[20.7251,38.8036],[20.7085,38.704],[20.7227,38.6293],[20.6829,38.602],[20.6126,38.598],[20.5404,38.5589]]]]},"properties":{"name":"Ionian Islands","created_at":"2015-06-21T13:29:48Z","updated_at":"2015-06-22T10:15:50Z","cartodb_id":11,"name_greek":"Ιόνια Νησιά"}},{"type":"Feature","geometry":{"type":"Polygon","coordinates":[[[23.5113,35.3034],[23.5463,35.3197],[23.5282,35.3606],[23.5684,35.4392],[23.5773,35.484],[23.5679,35.5329],[23.6451,35.4984],[23.7157,35.5053],[23.7273,35.5443],[23.7064,35.6043],[23.707,35.6568],[23.7613,35.6525],[23.7765,35.5452],[23.8409,35.5251],[23.991,35.5091],[24.0461,35.5205],[24.0858,35.5529],[24.0816,35.5915],[24.1214,35.5991],[24.175,35.5826],[24.1999,35.5357],[24.1647,35.4922],[24.117,35.4685],[24.2004,35.4472],[24.2567,35.4524],[24.2638,35.3586],[24.3515,35.3491],[24.3739,35.3599],[24.5506,35.3733],[24.6056,35.3882],[24.6454,35.4161],[24.6972,35.4238],[24.8342,35.4037],[24.9581,35.4021],[24.9719,35.4211],[25.0471,35.3896],[25.0463,35.3413],[25.1834,35.3429],[25.2352,35.3286],[25.3736,35.3372],[25.4419,35.2895],[25.6583,35.3458],[25.7268,35.3022],[25.7098,35.1635],[25.725,35.1282],[25.8109,35.107],[25.8423,35.1482],[25.8984,35.1801],[25.9459,35.1789],[25.9945,35.1961],[26.0239,35.2271],[26.1572,35.1953],[26.2241,35.2495],[26.2625,35.2649],[26.2805,35.1666],[26.2793,35.1089],[26.2293,35.0342],[26.1922,35.0123],[26.1078,34.9935],[26.0841,35.016],[26.0261,35.0112],[25.9864,35.0338],[25.9326,35.0319],[25.8044,34.9976],[25.7071,35.0097],[25.5916,35.0036],[25.5012,34.9791],[25.4152,34.9835],[25.3755,34.9956],[25.1929,34.943],[25.1312,34.9497],[25.1011,34.9322],[24.9147,34.9257],[24.8391,34.9385],[24.7607,34.9246],[24.7447,35.0011],[24.7405,35.076],[24.6895,35.0956],[24.5808,35.0962],[24.519,35.1409],[24.4543,35.1475],[24.3789,35.1925],[24.2828,35.1724],[24.1986,35.1983],[24.0248,35.1944],[23.9784,35.2288],[23.9209,35.2189],[23.826,35.2455],[23.7596,35.2345],[23.6622,35.2362],[23.5882,35.2287],[23.5774,35.2586],[23.5341,35.2731],[23.5113,35.3034]]]},"properties":{"name":"Crete","created_at":"2015-06-21T13:29:48Z","updated_at":"2015-06-22T10:15:54Z","cartodb_id":12,"name_greek":"Κρήτη"}}]}