{"type":"FeatureCollection","features":[{"type":"Feature","geometry":{"type":"MultiPolygon","coordinates":[[[[3.2136,39.9575],[3.1313,39.9269],[3.0838,39.8755],[3.1056,39.8577],[3.1904,39.8924],[3.1785,39.8406],[3.1208,39.8321],[3.1351,39.7827],[3.2526,39.7294],[3.3289,39.7598],[3.3481,39.7894],[3.4527,39.7225],[3.4559,39.6563],[3.3969,39.6283],[3.4041,39.5794],[3.3319,39.5404],[3.2918,39.4943],[3.2322,39.3616],[3.1464,39.33],[3.0501,39.2656],[2.9578,39.3625],[2.7873,39.3631],[2.742,39.4062],[2.722,39.4757],[2.7484,39.5107],[2.6695,39.5625],[2.6327,39.5684],[2.5883,39.5335],[2.541,39.5248],[2.5217,39.4566],[2.4761,39.4663],[2.4796,39.5176],[2.3465,39.5646],[2.356,39.6056],[2.4622,39.652],[2.5279,39.7016],[2.5855,39.7163],[2.6198,39.756],[2.6995,39.8108],[2.845,39.8617],[2.9504,39.9201],[3.0281,39.9351],[3.1205,39.9314],[3.1657,39.9599],[3.2136,39.9575]]],[[[4.0942,40.088],[4.1727,40.0602],[4.1941,40.0098],[4.2549,39.9929],[4.2548,39.9639],[4.3074,39.8654],[4.2875,39.8152],[4.2082,39.8248],[4.0586,39.906],[3.9595,39.9384],[3.9002,39.9225],[3.821,39.9256],[3.836,40.0024],[3.8224,40.0512],[3.9339,40.0629],[3.9787,40.0511],[4.0942,40.088]]],[[[1.5325,39.1184],[1.6215,39.0277],[1.5813,38.9893],[1.5274,38.9824],[1.4768,38.913],[1.4395,38.9167],[1.3712,38.8304],[1.3433,38.8711],[1.2242,38.8708],[1.2292,38.9745],[1.2845,38.9939],[1.2939,39.0315],[1.4627,39.1035],[1.5325,39.1184]]],[[[1.4359,38.7618],[1.5241,38.653],[1.4472,38.685],[1.3855,38.6413],[1.3803,38.7193],[1.4192,38.7225],[1.4359,38.7618]]]]},"properties":{"cod_prov":"07","name":"Illes Balears","cod_ccaa":"03","cartodb_id":7,"created_at":"2014-09-30T00:00:00Z","updated_at":"2014-12-25T01:56:10Z"}},{"type":"Feature","geometry":{"type":"Polygon","coordinates":[[[-4.5223,43.3358],[-4.5478,43.2687],[-4.6066,43.3006],[-4.6319,43.2677],[-4.7309,43.2573],[-4.7198,43.236],[-4.7197,43.2358],[-4.72,43.2352],[-4.7434,43.1889],[-4.7458,43.1841],[-4.8128,43.1818],[-4.841,43.1808],[-4.8433,43.1843],[-4.8392,43.1898],[-4.8568,43.2056],[-4.8712,43.2281],[-4.8857,43.2315],[-4.8936,43.2385],[-4.9023,43.2353],[-4.9114,43.2374],[-4.9639,43.2124],[-4.9969,43.1731],[-5.0759,43.1815],[-5.1017,43.1018],[-5.1478,43.1151],[-5.2166,43.0845],[-5.2821,43.0774],[-5.3691,43.0946],[-5.3905,43.0493],[-5.4785,43.0549],[-5.4938,43.0214],[-5.5701,43.0227],[-5.6933,43.0565],[-5.7284,43.0425],[-5.7639,42.9701],[-5.804,42.9626],[-5.9146,42.9927],[-5.9567,43.0186],[-5.975,43.0654],[-6.0202,43.0549],[-6.0819,43.0757],[-6.0968,43.0311],[-6.1367,43.021],[-6.2156,43.0472],[-6.2268,43.0089],[-6.3591,43.0596],[-6.397,43.0383],[-6.4331,42.9398],[-6.5096,42.9205],[-6.6095,42.9216],[-6.6388,42.9255],[-6.6723,42.9223],[-6.6899,42.9225],[-6.7222,42.9175],[-6.7227,42.9175],[-6.7232,42.9174],[-6.7339,42.9096],[-6.7717,42.8833],[-6.7724,42.8857],[-6.7707,42.8986],[-6.7766,42.9002],[-6.7769,42.9014],[-6.7891,42.9036],[-6.8358,42.9163],[-6.8361,42.9578],[-6.9103,42.9901],[-6.9571,43.0368],[-6.9156,43.0734],[-6.8563,43.107],[-6.8276,43.1232],[-6.8216,43.1432],[-6.8682,43.19],[-6.8854,43.1568],[-6.9574,43.1355],[-6.971,43.2043],[-7.0616,43.244],[-7.0598,43.3053],[-7.1312,43.3313],[-7.1275,43.3726],[-7.1825,43.3925],[-7.173,43.4304],[-7.1017,43.4275],[-7.0483,43.4771],[-7.0232,43.5596],[-6.9254,43.575],[-6.8111,43.5545],[-6.7221,43.556],[-6.6263,43.5729],[-6.5333,43.5452],[-6.3558,43.5512],[-6.2445,43.5952],[-6.1864,43.5639],[-6.113,43.5554],[-6.0173,43.5883],[-5.9563,43.5798],[-5.9148,43.6237],[-5.83,43.6401],[-5.7556,43.5834],[-5.6792,43.5412],[-5.6176,43.559],[-5.4938,43.544],[-5.4132,43.5549],[-5.3882,43.5297],[-5.2954,43.5352],[-5.2162,43.4749],[-5.1235,43.4846],[-5.037,43.4607],[-4.9261,43.4624],[-4.6993,43.4048],[-4.5187,43.3958],[-4.5223,43.3358]]]},"properties":{"cod_prov":"33","name":"Asturias","cod_ccaa":"18","cartodb_id":33,"created_at":"2014-09-30T00:00:00Z","updated_at":"2014-12-25T01:56:10Z"}},{"type":"Feature","geometry":{"type":"Polygon","coordinates":[[[-7.691,43.6541],[-7.7355,43.6221],[-7.7179,43.5834],[-7.7603,43.548],[-7.7444,43.5119],[-7.7923,43.4436],[-7.8073,43.4373],[-7.8226,43.4018],[-7.8819,43.4075],[-7.887,43.3372],[-7.9471,43.286],[-7.9219,43.2695],[-7.9614,43.1898],[-7.9168,43.0883],[-7.943,43.0676],[-7.9053,42.9854],[-7.9433,42.9174],[-7.9355,42.9035],[-7.9984,42.85],[-7.9997,42.8489],[-7.9995,42.8488],[-8.0459,42.8315],[-8.0463,42.8318],[-8.0751,42.8533],[-8.1167,42.8412],[-8.1168,42.8412],[-8.1219,42.8426],[-8.1833,42.8601],[-8.2208,42.8443],[-8.2546,42.8367],[-8.3151,42.8458],[-8.3316,42.7944],[-8.4147,42.7666],[-8.4074,42.7541],[-8.4073,42.754],[-8.4078,42.7539],[-8.4448,42.7479],[-8.4704,42.7437],[-8.5537,42.76],[-8.5565,42.7606],[-8.5999,42.7431],[-8.7183,42.706],[-8.747,42.6508],[-8.7949,42.6366],[-8.8446,42.687],[-8.8735,42.6324],[-8.9373,42.6071],[-8.9883,42.5658],[-9.0793,42.5801],[-9.0405,42.6374],[-9.0338,42.6952],[-8.9631,42.7786],[-9.0178,42.781],[-9.0863,42.7377],[-9.1346,42.7907],[-9.1082,42.8355],[-9.1502,42.8722],[-9.1255,42.9056],[-9.2333,42.9268],[-9.2979,42.9231],[-9.2572,43.0024],[-9.2495,43.0715],[-9.1984,43.104],[-9.1993,43.1544],[-9.1501,43.1954],[-9.0597,43.185],[-9.0129,43.2335],[-8.9398,43.2269],[-8.9277,43.282],[-8.8483,43.3196],[-8.7116,43.29],[-8.6072,43.3223],[-8.5681,43.3118],[-8.5059,43.3306],[-8.4398,43.3815],[-8.3743,43.3651],[-8.3069,43.4057],[-8.223,43.3869],[-8.1737,43.4199],[-8.2797,43.4366],[-8.3411,43.4584],[-8.2963,43.535],[-8.1925,43.6031],[-8.1555,43.6153],[-8.033,43.7146],[-8.0004,43.7051],[-7.9045,43.7699],[-7.8126,43.7266],[-7.7011,43.7369],[-7.691,43.6541]]]},"properties":{"cod_prov":"15","name":"A Coruña","cod_ccaa":"11","cartodb_id":15,"created_at":"2014-09-30T00:00:00Z","updated_at":"2014-12-25T01:56:10Z"}},{"type":"Feature","geometry":{"type":"Polygon","coordinates":[[[2.7778,41.65],[2.7579,41.6791],[2.7769,41.7355],[2.6576,41.7477],[2.5473,41.7191],[2.4722,41.7896],[2.352,41.8096],[2.326,41.8557],[2.328,41.883],[2.4812,41.916],[2.4743,41.9693],[2.5062,42.0323],[2.4904,42.0673],[2.4175,42.065],[2.366,42.1214],[2.2151,42.1421],[2.2011,42.1243],[2.0923,42.1443],[2.0604,42.1354],[2.0533,42.2195],[2.0167,42.233],[2.0699,42.2916],[1.9031,42.3233],[1.8453,42.3072],[1.8424,42.3067],[1.8347,42.3551],[1.806,42.3701],[1.8015,42.4249],[1.7319,42.4404],[1.7243,42.487],[1.8236,42.4866],[1.892,42.4477],[1.9367,42.4544],[1.9654,42.3809],[2.0152,42.3474],[2.0846,42.3617],[2.1483,42.4204],[2.2067,42.4174],[2.2569,42.4387],[2.4327,42.3938],[2.4809,42.341],[2.5309,42.3329],[2.571,42.3581],[2.6716,42.3407],[2.6514,42.3863],[2.7335,42.4248],[2.7993,42.4185],[2.8396,42.4593],[2.9184,42.4562],[3.0332,42.4749],[3.0852,42.4258],[3.1606,42.428],[3.1629,42.3605],[3.2293,42.3516],[3.2869,42.3037],[3.2879,42.2657],[3.2295,42.2515],[3.1626,42.2642],[3.1117,42.2059],[3.1239,42.1285],[3.2147,42.0612],[3.1957,42.0138],[3.2336,41.9505],[3.203,41.8916],[3.1319,41.842],[3.1022,41.8449],[3.0563,41.7876],[2.9775,41.7577],[2.9349,41.7204],[2.8195,41.6889],[2.7778,41.65]]]},"properties":{"cod_prov":"17","name":"Girona","cod_ccaa":"08","cartodb_id":17,"created_at":"2014-09-30T00:00:00Z","updated_at":"2014-12-25T01:56:10Z"}},{"type":"Feature","geometry":{"type":"Polygon","coordinates":[[[-8.1219,42.8426],[-8.1168,42.8412],[-8.1167,42.8412],[-8.0751,42.8533],[-8.0463,42.8318],[-8.0459,42.8315],[-7.9995,42.8488],[-7.9564,42.8397],[-7.9784,42.7787],[-7.9354,42.7397],[-7.8664,42.7206],[-7.8926,42.6296],[-7.9306,42.5788],[-7.9925,42.5725],[-8.0186,42.5422],[-8.0905,42.5578],[-8.1468,42.5487],[-8.1739,42.572],[-8.342,42.4657],[-8.3147,42.381],[-8.3247,42.345],[-8.262,42.3154],[-8.2646,42.2529],[-8.2295,42.2329],[-8.1923,42.2091],[-8.1615,42.1789],[-8.199,42.1544],[-8.1982,42.1486],[-8.2081,42.1405],[-8.3224,42.1019],[-8.3319,42.0842],[-8.5236,42.0784],[-8.5567,42.0514],[-8.637,42.0471],[-8.6635,42.0022],[-8.7441,41.9653],[-8.7554,41.9348],[-8.8716,41.8663],[-8.8881,41.9363],[-8.8768,42.0024],[-8.9007,42.1123],[-8.8516,42.1283],[-8.7752,42.2221],[-8.7127,42.2411],[-8.7315,42.2867],[-8.7926,42.2463],[-8.8316,42.2781],[-8.8184,42.3135],[-8.755,42.3399],[-8.7369,42.3766],[-8.8389,42.3843],[-8.8809,42.4148],[-8.8053,42.5008],[-8.8349,42.5648],[-8.7952,42.5801],[-8.7283,42.6677],[-8.7183,42.706],[-8.5999,42.7431],[-8.5563,42.746],[-8.5537,42.76],[-8.4704,42.7437],[-8.4448,42.7479],[-8.4311,42.7462],[-8.4078,42.7539],[-8.4073,42.754],[-8.4074,42.7541],[-8.4147,42.7666],[-8.3316,42.7944],[-8.3151,42.8458],[-8.2546,42.8367],[-8.2208,42.8443],[-8.181,42.8583],[-8.1219,42.8426]]]},"properties":{"cod_prov":"36","name":"Pontevedra","cod_ccaa":"11","cartodb_id":36,"created_at":"2014-09-30T00:00:00Z","updated_at":"2014-12-25T01:56:10Z"}},{"type":"Feature","geometry":{"type":"Polygon","coordinates":[[[-4.72,43.2352],[-4.7197,43.2358],[-4.7198,43.236],[-4.7309,43.2573],[-4.6319,43.2677],[-4.6066,43.3006],[-4.5478,43.2687],[-4.5223,43.3358],[-4.5115,43.3937],[-4.3894,43.3899],[-4.3407,43.4059],[-4.2803,43.388],[-4.1752,43.4011],[-4.0812,43.4383],[-3.9787,43.4409],[-3.9455,43.4711],[-3.7852,43.4918],[-3.7346,43.4593],[-3.5902,43.5136],[-3.4978,43.4722],[-3.4309,43.462],[-3.4252,43.4132],[-3.2213,43.3939],[-3.1533,43.3533],[-3.1515,43.3069],[-3.2252,43.3089],[-3.3401,43.278],[-3.4491,43.2359],[-3.4188,43.1371],[-3.4271,43.1342],[-3.6035,43.1496],[-3.6124,43.1695],[-3.6513,43.1807],[-3.6518,43.1808],[-3.7047,43.1163],[-3.7646,43.081],[-3.8318,43.0638],[-3.8907,43.0418],[-3.9093,43.0161],[-3.9455,43.0058],[-3.9479,43.002],[-3.953,43.0001],[-3.9772,42.9562],[-3.9872,42.9405],[-3.9865,42.9391],[-3.991,42.9311],[-3.9751,42.9135],[-3.9746,42.9124],[-3.9741,42.9124],[-3.9737,42.9119],[-3.9335,42.8996],[-3.9078,42.9145],[-3.8929,42.8874],[-3.9148,42.8601],[-3.8637,42.8898],[-3.834,42.8746],[-3.8253,42.8435],[-3.8233,42.8068],[-3.8604,42.7874],[-3.8624,42.7867],[-3.8944,42.8045],[-3.911,42.7684],[-3.9676,42.7596],[-3.9907,42.771],[-4.0828,42.7643],[-4.0819,42.7653],[-4.0985,42.7912],[-4.1036,42.791],[-4.1052,42.793],[-4.1499,42.7893],[-4.1404,42.829],[-4.1255,42.8543],[-4.1268,42.8553],[-4.1261,42.8566],[-4.1383,42.8641],[-4.1443,42.8686],[-4.1453,42.8683],[-4.1499,42.8711],[-4.209,42.8491],[-4.2154,42.8523],[-4.2402,42.9565],[-4.3485,42.9726],[-4.3981,43.0349],[-4.4757,43.0387],[-4.5209,43.0474],[-4.5584,43.0195],[-4.6381,43.0167],[-4.6995,43.0267],[-4.7295,43.0208],[-4.7373,43.025],[-4.7342,43.0471],[-4.7439,43.0525],[-4.744,43.0565],[-4.7665,43.0745],[-4.8514,43.1259],[-4.8346,43.1575],[-4.848,43.1781],[-4.8128,43.1818],[-4.7458,43.1841],[-4.7434,43.1889],[-4.7342,43.1899],[-4.72,43.2352]]]},"properties":{"cod_prov":"39","name":"Cantabria","cod_ccaa":"05","cartodb_id":39,"created_at":"2014-09-30T00:00:00Z","updated_at":"2014-12-25T01:56:10Z"}},{"type":"Feature","geometry":{"type":"Polygon","coordinates":[[[-4.2871,37.1195],[-4.2725,37.0149],[-4.2313,37.0169],[-4.1666,36.9571],[-4.0999,36.9527],[-4.0457,36.9029],[-3.9295,36.8829],[-3.8676,36.8507],[-3.8267,36.8553],[-3.7681,36.802],[-3.7774,36.7379],[-3.8447,36.7535],[-3.9573,36.7261],[-4.0673,36.7487],[-4.1085,36.7253],[-4.1808,36.7147],[-4.3938,36.7223],[-4.4174,36.7089],[-4.5117,36.5931],[-4.6028,36.563],[-4.6381,36.5071],[-4.7405,36.4826],[-4.8609,36.5076],[-4.935,36.4998],[-5.0049,36.4597],[-5.081,36.4506],[-5.1769,36.4143],[-5.2778,36.3371],[-5.3201,36.3251],[-5.3472,36.4186],[-5.4293,36.5332],[-5.4295,36.5332],[-5.4924,36.5365],[-5.5242,36.4977],[-5.6083,36.5123],[-5.6048,36.5434],[-5.5233,36.5311],[-5.4608,36.5888],[-5.4559,36.6196],[-5.3807,36.6318],[-5.324,36.6733],[-5.3246,36.724],[-5.2909,36.7752],[-5.3407,36.8194],[-5.2698,36.8842],[-5.222,36.8427],[-5.1752,36.8253],[-5.1713,36.8239],[-5.1704,36.8236],[-5.1333,36.8391],[-5.0868,36.9051],[-5.0956,36.9683],[-5.1419,37.0055],[-5.1354,37.0131],[-5.1214,37.0277],[-5.0531,37.0306],[-4.9084,37.1147],[-4.9051,37.1819],[-4.8259,37.2007],[-4.7928,37.154],[-4.7926,37.1539],[-4.7086,37.1977],[-4.7179,37.2399],[-4.7357,37.2448],[-4.6533,37.2558],[-4.6537,37.257],[-4.6499,37.2569],[-4.6453,37.2469],[-4.6141,37.255],[-4.6023,37.2092],[-4.4981,37.2233],[-4.4776,37.2447],[-4.4641,37.2521],[-4.4531,37.2667],[-4.4315,37.2764],[-4.4066,37.2741],[-4.3798,37.2742],[-4.3803,37.2662],[-4.385,37.238],[-4.3824,37.2335],[-4.3826,37.2315],[-4.3735,37.2181],[-4.372,37.2154],[-4.3322,37.1912],[-4.2871,37.1195]]]},"properties":{"cod_prov":"29","name":"Málaga","cod_ccaa":"01","cartodb_id":29,"created_at":"2014-09-30T00:00:00Z","updated_at":"2014-12-25T01:56:10Z"}},{"type":"Feature","geometry":{"type":"Polygon","coordinates":[[[-2.172,37.8887],[-1.9745,37.8685],[-2.0088,37.775],[-1.9958,37.728],[-2.0118,37.6722],[-1.9768,37.6187],[-1.8453,37.4548],[-1.7371,37.4426],[-1.6301,37.3752],[-1.6771,37.3528],[-1.7083,37.3041],[-1.7976,37.2296],[-1.8495,37.0683],[-1.9008,36.9878],[-1.9037,36.9374],[-1.9405,36.9365],[-1.9921,36.8937],[-1.9996,36.84],[-2.06,36.8097],[-2.0604,36.7777],[-2.1243,36.732],[-2.1842,36.7192],[-2.2912,36.8201],[-2.3614,36.8416],[-2.4265,36.8107],[-2.4751,36.837],[-2.5619,36.8161],[-2.6196,36.727],[-2.7003,36.683],[-2.7715,36.6814],[-2.8495,36.6955],[-2.9254,36.7517],[-2.9777,36.7383],[-3.1287,36.7509],[-3.1402,36.7878],[-3.029,36.8444],[-3.0719,36.9193],[-2.9762,36.9781],[-3.0057,37.0233],[-3.0003,37.095],[-2.949,37.0966],[-2.9291,37.1566],[-2.881,37.1871],[-2.8454,37.2792],[-2.779,37.2627],[-2.6601,37.212],[-2.6657,37.2853],[-2.6416,37.3878],[-2.5142,37.4795],[-2.4563,37.5094],[-2.3585,37.5223],[-2.3743,37.5574],[-2.3596,37.6213],[-2.3104,37.63],[-2.311,37.6329],[-2.3089,37.6334],[-2.3233,37.6939],[-2.2768,37.7762],[-2.3018,37.8083],[-2.2949,37.8763],[-2.2134,37.9139],[-2.172,37.8887]]]},"properties":{"cod_prov":"04","name":"Almería","cod_ccaa":"01","cartodb_id":4,"created_at":"2014-09-30T00:00:00Z","updated_at":"2014-12-25T01:56:10Z"}},{"type":"Feature","geometry":{"type":"Polygon","coordinates":[[[-2.0118,37.6722],[-1.9958,37.728],[-2.0088,37.775],[-1.9745,37.8685],[-2.172,37.8887],[-2.2134,37.9139],[-2.2077,37.9166],[-2.2472,37.9344],[-2.2985,38.0021],[-2.3416,38.026],[-2.3299,38.0654],[-2.2616,38.113],[-2.2129,38.203],[-2.1137,38.2382],[-2.0563,38.2982],[-2.0331,38.2999],[-1.9826,38.2814],[-1.9075,38.298],[-1.7711,38.3649],[-1.7692,38.3788],[-1.7666,38.379],[-1.6958,38.368],[-1.6892,38.3663],[-1.6927,38.3378],[-1.6702,38.3116],[-1.5895,38.31],[-1.4785,38.3764],[-1.4799,38.4798],[-1.4877,38.5633],[-1.452,38.5815],[-1.4477,38.6495],[-1.3667,38.704],[-1.3441,38.6771],[-1.2497,38.7386],[-1.1836,38.7551],[-1.1197,38.7377],[-1.1156,38.7114],[-1.0341,38.6566],[-1.0293,38.6566],[-1.0268,38.655],[-1.0261,38.6545],[-1.0016,38.5727],[-1.0261,38.5228],[-1.0136,38.4967],[-1.0772,38.4315],[-1.0844,38.3462],[-0.9892,38.3209],[-0.9677,38.2756],[-0.9885,38.1995],[-1.0368,38.1377],[-1.0226,38.0757],[-0.9071,37.9318],[-0.9002,37.9231],[-0.8391,37.8715],[-0.8314,37.865],[-0.7624,37.847],[-0.798,37.7848],[-0.8448,37.748],[-0.857,37.7134],[-0.8028,37.6582],[-0.7022,37.6303],[-0.7318,37.6015],[-0.82,37.575],[-0.8763,37.5774],[-0.9192,37.5539],[-0.9841,37.5843],[-1.074,37.5842],[-1.1271,37.5521],[-1.2462,37.5761],[-1.3262,37.5627],[-1.4016,37.5072],[-1.4597,37.4866],[-1.4862,37.4229],[-1.519,37.4318],[-1.6268,37.3739],[-1.7371,37.4426],[-1.8453,37.4548],[-2.0118,37.6722]]]},"properties":{"cod_prov":"30","name":"Murcia","cod_ccaa":"15","cartodb_id":30,"created_at":"2014-09-30T00:00:00Z","updated_at":"2014-12-25T01:56:10Z"}},{"type":"Feature","geometry":{"type":"Polygon","coordinates":[[[-1.4844,39.4181],[-1.4837,39.4182],[-1.4682,39.3833],[-1.4147,39.3803],[-1.3366,39.334],[-1.3127,39.3432],[-1.215,39.3216],[-1.1809,39.314],[-1.165,39.3105],[-1.1656,39.3071],[-1.1808,39.2118],[-1.2557,39.1062],[-1.2667,39.051],[-1.2634,39.0488],[-1.2265,39.0247],[-1.1467,38.9294],[-0.9594,38.9446],[-0.9245,38.8918],[-0.9357,38.8559],[-0.9297,38.8378],[-0.9249,38.8234],[-0.9285,38.7877],[-0.9289,38.7838],[-0.9614,38.7748],[-0.9158,38.696],[-0.9625,38.6569],[-1.0293,38.6566],[-1.0341,38.6566],[-1.1156,38.7114],[-1.1197,38.7377],[-1.1836,38.7551],[-1.2497,38.7386],[-1.3441,38.6771],[-1.3667,38.704],[-1.4477,38.6495],[-1.452,38.5815],[-1.4877,38.5633],[-1.4799,38.4798],[-1.4785,38.3764],[-1.5895,38.31],[-1.6702,38.3116],[-1.6927,38.3378],[-1.6892,38.3663],[-1.6958,38.368],[-1.7666,38.379],[-1.7692,38.3788],[-1.7711,38.3649],[-1.9075,38.298],[-1.9826,38.2814],[-2.0226,38.3007],[-2.0331,38.2999],[-2.0563,38.2982],[-2.0638,38.2976],[-2.1137,38.2382],[-2.2129,38.203],[-2.2616,38.113],[-2.3299,38.0654],[-2.3416,38.026],[-2.4221,38.0334],[-2.4229,38.0337],[-2.4309,38.0366],[-2.5475,38.0798],[-2.546,38.0814],[-2.4463,38.1852],[-2.4366,38.2721],[-2.4852,38.3003],[-2.4824,38.3962],[-2.5719,38.4141],[-2.5666,38.4905],[-2.5702,38.4933],[-2.5794,38.5004],[-2.5927,38.5108],[-2.5956,38.5104],[-2.6797,38.4969],[-2.6917,38.5023],[-2.7593,38.5328],[-2.7468,38.5468],[-2.7655,38.5739],[-2.7282,38.6161],[-2.6689,38.6492],[-2.6381,38.7353],[-2.6423,38.7388],[-2.641,38.7431],[-2.6963,38.7829],[-2.7322,38.7818],[-2.7615,38.8798],[-2.7622,38.8803],[-2.7632,38.8812],[-2.7925,38.9056],[-2.8145,38.9058],[-2.8829,38.9385],[-2.8323,39.0232],[-2.805,39.0789],[-2.8427,39.1345],[-2.7235,39.2657],[-2.7222,39.2672],[-2.7432,39.317],[-2.635,39.3268],[-2.5488,39.3235],[-2.511,39.3422],[-2.3741,39.2328],[-2.3212,39.2837],[-2.2887,39.2267],[-2.1687,39.2811],[-2.051,39.2667],[-2.0956,39.3594],[-2.0284,39.3368],[-1.9898,39.2937],[-1.8871,39.3048],[-1.7699,39.2805],[-1.7393,39.3212],[-1.5302,39.4076],[-1.4844,39.4181]]]},"properties":{"cod_prov":"02","name":"Albacete","cod_ccaa":"06","cartodb_id":2,"created_at":"2014-09-30T00:00:00Z","updated_at":"2014-12-25T01:56:10Z"}},{"type":"Feature","geometry":{"type":"Polygon","coordinates":[[[-4.8637,41.094],[-4.815,41.1034],[-4.8135,41.1294],[-4.8007,41.136],[-4.7862,41.1436],[-4.7221,41.1493],[-4.7127,41.0621],[-4.6383,41.0313],[-4.6067,40.9708],[-4.5664,40.9562],[-4.5596,40.8858],[-4.4938,40.8335],[-4.4738,40.7747],[-4.4311,40.7424],[-4.4196,40.6334],[-4.3292,40.6434],[-4.256,40.6515],[-4.2529,40.6895],[-4.1735,40.674],[-4.1612,40.6235],[-4.2454,40.6024],[-4.3282,40.5338],[-4.3157,40.4648],[-4.3413,40.4287],[-4.4437,40.3857],[-4.4558,40.3194],[-4.5294,40.2931],[-4.5686,40.2581],[-4.5695,40.2573],[-4.5659,40.2209],[-4.5657,40.2182],[-4.568,40.2177],[-4.5754,40.216],[-4.5791,40.2172],[-4.6542,40.1981],[-4.6873,40.212],[-4.6981,40.2822],[-4.7616,40.2609],[-4.9247,40.17],[-4.9255,40.136],[-5.0133,40.1111],[-5.0067,40.1299],[-5.0169,40.1443],[-5.0185,40.1591],[-5.0266,40.1577],[-5.053,40.1533],[-5.067,40.1509],[-5.0674,40.1504],[-5.0681,40.1503],[-5.1191,40.1095],[-5.1648,40.088],[-5.1899,40.084],[-5.2005,40.0836],[-5.2153,40.1078],[-5.2163,40.1079],[-5.2164,40.108],[-5.2178,40.108],[-5.336,40.1158],[-5.368,40.1641],[-5.3697,40.2183],[-5.3432,40.2641],[-5.3449,40.2638],[-5.4291,40.2526],[-5.4709,40.2079],[-5.5432,40.1979],[-5.5844,40.2088],[-5.6107,40.2171],[-5.622,40.2459],[-5.6927,40.2921],[-5.673,40.3485],[-5.6784,40.387],[-5.6911,40.4218],[-5.6342,40.4604],[-5.5259,40.4224],[-5.5098,40.4637],[-5.4671,40.464],[-5.4664,40.4659],[-5.4285,40.5645],[-5.5247,40.5407],[-5.5162,40.5854],[-5.4476,40.5796],[-5.3659,40.6488],[-5.3829,40.6685],[-5.3796,40.6744],[-5.2144,40.7578],[-5.219,40.773],[-5.1615,40.814],[-5.1617,40.818],[-5.1575,40.8213],[-5.1638,40.8684],[-5.115,40.9028],[-5.1276,40.9541],[-5.0898,40.9966],[-5.1066,41.0295],[-5.1433,41.0425],[-5.1468,41.0499],[-5.1478,41.074],[-5.1377,41.0995],[-5.1292,41.1054],[-5.1246,41.1321],[-5.124,41.1356],[-5.1001,41.1471],[-5.077,41.1422],[-5.0599,41.1386],[-5.0388,41.1504],[-5.0139,41.1643],[-5.0013,41.1584],[-4.8637,41.094]]]},"properties":{"cod_prov":"05","name":"Ávila","cod_ccaa":"07","cartodb_id":5,"created_at":"2014-09-30T00:00:00Z","updated_at":"2014-12-25T01:56:10Z"}},{"type":"Feature","geometry":{"type":"Polygon","coordinates":[[[-3.0068,43.1966],[-2.9464,43.1709],[-2.9358,43.1362],[-2.9755,43.0995],[-2.8942,43.0464],[-2.6336,43.0199],[-2.6617,43.0743],[-2.5466,43.0882],[-2.5249,43.0453],[-2.5965,43.0092],[-2.6027,42.9822],[-2.5353,42.9734],[-2.3548,42.95],[-2.2635,42.8986],[-2.2531,42.8927],[-2.237,42.8494],[-2.2357,42.8381],[-2.281,42.7851],[-2.3168,42.7393],[-2.3169,42.6825],[-2.2885,42.6551],[-2.3819,42.6343],[-2.4158,42.6627],[-2.4993,42.6105],[-2.4906,42.5854],[-2.3968,42.5991],[-2.3922,42.517],[-2.423,42.5098],[-2.4238,42.5096],[-2.4228,42.5081],[-2.4207,42.4905],[-2.5147,42.4901],[-2.5374,42.4952],[-2.6054,42.5035],[-2.6477,42.4833],[-2.6758,42.5257],[-2.6805,42.5945],[-2.7637,42.6228],[-2.778,42.5813],[-2.8408,42.5812],[-2.8418,42.6086],[-2.8957,42.6546],[-2.9025,42.6936],[-2.9806,42.7038],[-3.0497,42.7656],[-3.1479,42.7567],[-3.1592,42.8046],[-3.1131,42.8611],[-3.1907,42.8695],[-3.2222,42.8386],[-3.2826,42.8755],[-3.2247,42.9497],[-3.1447,42.9347],[-3.0921,42.8988],[-3.0189,42.9085],[-2.9818,42.939],[-2.9812,42.9394],[-2.9972,42.9475],[-3.0432,42.9731],[-3.0439,42.9742],[-2.9557,42.9989],[-3.0185,43.0377],[-3.0497,43.0472],[-3.0841,43.0073],[-3.1778,43.022],[-3.1403,43.0672],[-3.1339,43.0972],[-3.1815,43.1207],[-3.1807,43.1221],[-3.1458,43.1603],[-3.1383,43.1632],[-3.1113,43.1435],[-3.0269,43.1614],[-3.0401,43.2099],[-3.0068,43.1966]],[[-2.8355,42.7963],[-2.8685,42.7399],[-2.7845,42.6989],[-2.7679,42.666],[-2.6592,42.6725],[-2.5726,42.7252],[-2.6023,42.7706],[-2.6437,42.7647],[-2.7316,42.7945],[-2.8355,42.7963]]]},"properties":{"cod_prov":"01","name":"Araba/Álava","cod_ccaa":"17","cartodb_id":1,"created_at":"2014-09-30T00:00:00Z","updated_at":"2014-12-25T01:56:10Z"}},{"type":"Feature","geometry":{"type":"Polygon","coordinates":[[[-4.6731,39.4183],[-4.6717,39.4135],[-4.7042,39.3645],[-4.7067,39.3277],[-4.761,39.3208],[-4.7082,39.2099],[-4.6529,39.1679],[-4.649,39.1649],[-4.8103,39.1994],[-4.8532,39.1524],[-4.8744,39.1004],[-4.8269,39.0641],[-4.88,39.0324],[-4.9625,39.0587],[-4.9182,38.957],[-4.8324,38.9389],[-4.8332,38.9361],[-4.8473,38.8824],[-4.9149,38.8874],[-4.9435,38.8544],[-4.99,38.7398],[-5.0992,38.7077],[-5.1845,38.7197],[-5.1673,38.6805],[-5.2085,38.6677],[-5.2922,38.6108],[-5.3085,38.5776],[-5.3717,38.5836],[-5.3927,38.5535],[-5.4069,38.5437],[-5.4172,38.5166],[-5.4186,38.5127],[-5.4795,38.4847],[-5.4845,38.4634],[-5.5192,38.4635],[-5.5449,38.4477],[-5.5563,38.4407],[-5.5681,38.4334],[-5.5839,38.4016],[-5.5842,38.4009],[-5.5592,38.3669],[-5.5756,38.3291],[-5.526,38.2641],[-5.5387,38.2006],[-5.5397,38.1607],[-5.5759,38.1496],[-5.579,38.1433],[-5.5844,38.1325],[-5.5848,38.1317],[-5.633,38.1381],[-5.6936,38.0837],[-5.7349,38.0863],[-5.7388,38.1328],[-5.6886,38.1819],[-5.7282,38.1974],[-5.8747,38.1583],[-5.9264,38.105],[-5.909,38.0628],[-5.9537,37.9953],[-6.0878,37.9841],[-6.1153,37.9818],[-6.1423,37.9648],[-6.1747,37.9445],[-6.1802,37.941],[-6.2015,37.9621],[-6.2762,37.974],[-6.3036,37.9783],[-6.3404,38.0001],[-6.3478,38.0045],[-6.3527,38.0074],[-6.3672,38.0489],[-6.4139,38.0586],[-6.4293,38.0575],[-6.4463,38.0564],[-6.4524,38.056],[-6.4489,38.0523],[-6.4436,38.047],[-6.4766,38.0078],[-6.5457,38.0281],[-6.5805,38.0528],[-6.6221,38.097],[-6.7328,38.09],[-6.7452,38.0931],[-6.7609,38.0971],[-6.7701,38.0995],[-6.7701,38.1121],[-6.8083,38.1112],[-6.8069,38.1186],[-6.7951,38.1785],[-6.8536,38.179],[-6.8553,38.179],[-6.9279,38.2036],[-6.9378,38.2069],[-7.0112,38.2046],[-7.0856,38.1694],[-7.2805,38.4203],[-7.3359,38.4349],[-7.303,38.5449],[-7.2441,38.6236],[-7.2697,38.6388],[-7.2553,38.7259],[-7.1285,38.8138],[-7.0892,38.8189],[-7.0331,38.8792],[-7.052,38.9072],[-6.9513,39.024],[-6.9959,39.0993],[-7.0391,39.1184],[-7.1058,39.0993],[-7.1438,39.1093],[-7.1346,39.1711],[-7.2414,39.2085],[-7.2478,39.254],[-7.2039,39.2657],[-7.1552,39.3145],[-7.1552,39.318],[-7.1553,39.3227],[-7.1554,39.3297],[-7.1618,39.325],[-7.1685,39.3202],[-7.1773,39.3306],[-7.1777,39.331],[-7.1778,39.3312],[-7.1762,39.3337],[-7.1566,39.3639],[-7.1543,39.3675],[-7.1484,39.3685],[-7.0976,39.3772],[-7.0739,39.3812],[-7.063,39.3723],[-7.0791,39.3514],[-7.0093,39.3885],[-7.0494,39.4367],[-6.8832,39.3828],[-6.8042,39.3893],[-6.8021,39.3895],[-6.797,39.3445],[-6.7467,39.3218],[-6.7612,39.2766],[-6.8009,39.2394],[-6.7675,39.1884],[-6.681,39.1772],[-6.6597,39.1991],[-6.3791,39.1628],[-6.3241,39.1864],[-6.3116,39.1116],[-6.2309,39.0898],[-6.2031,39.0565],[-6.1421,39.0316],[-6.0186,39.1291],[-6.0093,39.0525],[-5.9423,39.1085],[-5.9247,39.0832],[-5.8334,39.1103],[-5.8104,39.1446],[-5.7552,39.1323],[-5.687,39.0821],[-5.6044,39.1004],[-5.5766,39.1509],[-5.6132,39.1882],[-5.551,39.2159],[-5.5146,39.2097],[-5.4598,39.1584],[-5.384,39.1742],[-5.3491,39.2336],[-5.34,39.3333],[-5.2476,39.3018],[-5.1235,39.3365],[-5.1136,39.3875],[-5.0538,39.3624],[-4.9846,39.3717],[-4.974,39.3947],[-4.9531,39.3955],[-4.9527,39.3955],[-4.9486,39.3956],[-4.9405,39.3959],[-4.9365,39.3961],[-4.8709,39.3683],[-4.7739,39.3977],[-4.7724,39.3986],[-4.6903,39.4518],[-4.6779,39.4348],[-4.6731,39.4183]]]},"properties":{"cod_prov":"06","name":"Badajoz","cod_ccaa":"10","cartodb_id":6,"created_at":"2014-09-30T00:00:00Z","updated_at":"2014-12-25T01:56:10Z"}},{"type":"Feature","geometry":{"type":"Polygon","coordinates":[[[-0.9071,37.9318],[-1.0226,38.0757],[-1.0368,38.1377],[-0.9885,38.1995],[-0.9677,38.2756],[-0.9892,38.3209],[-1.0844,38.3462],[-1.0772,38.4315],[-1.0136,38.4967],[-1.0261,38.5228],[-1.0016,38.5727],[-1.0261,38.6545],[-1.0268,38.655],[-1.0269,38.6555],[-0.9625,38.6569],[-0.9158,38.696],[-0.9614,38.7748],[-0.9289,38.7838],[-0.9199,38.7775],[-0.9132,38.7696],[-0.9088,38.7697],[-0.905,38.7671],[-0.8617,38.7709],[-0.8346,38.7324],[-0.7349,38.7594],[-0.7072,38.7338],[-0.644,38.7278],[-0.6425,38.7041],[-0.6324,38.6969],[-0.6287,38.6866],[-0.6222,38.6896],[-0.6181,38.6867],[-0.5071,38.743],[-0.5656,38.7554],[-0.5905,38.7955],[-0.4619,38.8076],[-0.3814,38.8349],[-0.3108,38.8815],[-0.2305,38.8535],[-0.1597,38.8835],[-0.1481,38.8584],[-0.0706,38.8857],[0.1095,38.8455],[0.1975,38.804],[0.1902,38.7735],[0.2339,38.7369],[0.1824,38.7208],[0.1486,38.6793],[0.0985,38.6728],[0.0306,38.6259],[-0.0159,38.6267],[-0.0976,38.5235],[-0.152,38.535],[-0.375,38.443],[-0.4443,38.3633],[-0.5106,38.3259],[-0.5137,38.1975],[-0.5953,38.1879],[-0.6308,38.1489],[-0.6476,38],[-0.6967,37.9695],[-0.7198,37.9114],[-0.7491,37.8997],[-0.7624,37.847],[-0.8314,37.865],[-0.8391,37.8715],[-0.9071,37.9318]]]},"properties":{"cod_prov":"03","name":"Alacant/Alicante","cod_ccaa":"19","cartodb_id":3,"created_at":"2014-09-30T00:00:00Z","updated_at":"2014-12-25T01:56:10Z"}},{"type":"Feature","geometry":{"type":"Polygon","coordinates":[[[-8.1982,42.1486],[-8.199,42.1544],[-8.1615,42.1789],[-8.1923,42.2091],[-8.2295,42.2329],[-8.2646,42.2529],[-8.262,42.3154],[-8.3247,42.345],[-8.3147,42.381],[-8.342,42.4657],[-8.1739,42.572],[-8.1468,42.5487],[-8.0905,42.5578],[-8.0186,42.5422],[-7.9925,42.5725],[-7.9306,42.5788],[-7.9307,42.5786],[-7.9304,42.5783],[-7.891,42.5403],[-7.924,42.525],[-7.8754,42.5109],[-7.8027,42.4803],[-7.8023,42.4804],[-7.765,42.494],[-7.7483,42.48],[-7.7889,42.466],[-7.7132,42.4524],[-7.6314,42.4071],[-7.5761,42.4049],[-7.5076,42.3868],[-7.3992,42.4356],[-7.3699,42.4214],[-7.3055,42.4288],[-7.2201,42.3872],[-7.2027,42.3257],[-7.1493,42.4362],[-7.0997,42.4588],[-7.0762,42.4968],[-7.0709,42.5073],[-6.9785,42.4933],[-6.9601,42.5178],[-6.8601,42.4888],[-6.8083,42.4686],[-6.8435,42.4058],[-6.734,42.3591],[-6.74,42.3079],[-6.7498,42.2896],[-6.7843,42.2536],[-6.7785,42.2515],[-6.7835,42.2489],[-6.7915,42.2522],[-6.8436,42.2283],[-6.9011,42.1896],[-6.9428,42.1733],[-6.9898,42.1213],[-7.0118,42.0524],[-6.9611,42.0279],[-6.9911,41.9883],[-6.9881,41.9816],[-7.0062,41.9505],[-7.0735,41.9503],[-7.1406,41.9908],[-7.1782,41.9797],[-7.1735,41.9195],[-7.1973,41.8801],[-7.3158,41.8428],[-7.3673,41.8517],[-7.4256,41.8311],[-7.4528,41.8651],[-7.5211,41.8419],[-7.6136,41.8293],[-7.5863,41.882],[-7.6538,41.8814],[-7.7012,41.9081],[-7.845,41.8815],[-7.9809,41.8724],[-8.0133,41.8288],[-8.0939,41.8089],[-8.1651,41.8183],[-8.1706,41.879],[-8.217,41.9136],[-8.1635,41.9827],[-8.0855,42.017],[-8.1185,42.0821],[-8.1873,42.0746],[-8.1982,42.1486]]]},"properties":{"cod_prov":"32","name":"Ourense","cod_ccaa":"11","cartodb_id":32,"created_at":"2014-09-30T00:00:00Z","updated_at":"2014-12-25T01:56:10Z"}},{"type":"Feature","geometry":{"type":"Polygon","coordinates":[[[2.0699,42.2916],[2.0167,42.233],[2.0533,42.2195],[2.0604,42.1354],[2.0923,42.1443],[2.2011,42.1243],[2.2151,42.1421],[2.366,42.1214],[2.4175,42.065],[2.4904,42.0673],[2.5062,42.0323],[2.4743,41.9693],[2.4812,41.916],[2.328,41.883],[2.326,41.8557],[2.352,41.8096],[2.4722,41.7896],[2.5473,41.7191],[2.6576,41.7477],[2.7769,41.7355],[2.7579,41.6791],[2.7778,41.65],[2.5554,41.5794],[2.369,41.4904],[2.2665,41.4591],[2.1847,41.3808],[2.1159,41.2905],[1.6474,41.1927],[1.641,41.2354],[1.6368,41.296],[1.5587,41.3431],[1.5093,41.3944],[1.473,41.3808],[1.4902,41.4015],[1.4685,41.444],[1.4846,41.4749],[1.3963,41.5129],[1.4545,41.5692],[1.4066,41.6005],[1.4483,41.6361],[1.3819,41.7058],[1.417,41.7946],[1.4711,41.8009],[1.5307,41.7526],[1.6115,41.8178],[1.6191,41.8815],[1.653,41.9288],[1.6501,41.9797],[1.6993,42.0289],[1.6702,42.0444],[1.6986,42.1357],[1.738,42.1894],[1.6803,42.2062],[1.7046,42.2388],[1.6703,42.2817],[1.8425,42.3063],[1.8425,42.3064],[1.8424,42.3067],[1.8453,42.3072],[1.9182,42.3178],[2.0699,42.2916]]]},"properties":{"cod_prov":"08","name":"Barcelona","cod_ccaa":"08","cartodb_id":8,"created_at":"2014-09-30T00:00:00Z","updated_at":"2014-12-25T01:56:10Z"}},{"type":"Feature","geometry":{"type":"MultiPolygon","coordinates":[[[[-3.2503,43.1956],[-3.2492,43.196],[-3.2241,43.1701],[-3.1412,43.1654],[-3.1458,43.1603],[-3.1807,43.1221],[-3.1815,43.1207],[-3.1339,43.0972],[-3.1403,43.0672],[-3.1778,43.022],[-3.0841,43.0073],[-3.0839,43.0072],[-3.0603,43.0035],[-3.0439,42.9742],[-3.0432,42.9731],[-3.0415,42.9699],[-2.9972,42.9475],[-2.9812,42.9394],[-2.9818,42.939],[-3.0189,42.9085],[-3.0921,42.8988],[-3.1447,42.9347],[-3.2247,42.9497],[-3.2826,42.8755],[-3.2222,42.8386],[-3.1907,42.8695],[-3.1131,42.8611],[-3.1592,42.8046],[-3.1479,42.7567],[-3.0497,42.7656],[-2.9806,42.7038],[-2.9025,42.6936],[-2.916,42.6195],[-2.9465,42.6393],[-3.0842,42.6407],[-3.0598,42.5892],[-3.1343,42.5421],[-3.0726,42.5289],[-3.0947,42.4881],[-3.046,42.4452],[-3.0635,42.3567],[-3.1097,42.3514],[-3.0886,42.2457],[-3.1287,42.1981],[-3.0344,42.086],[-2.9312,42.0868],[-2.9136,42.0229],[-2.9221,42.0162],[-2.9449,41.9983],[-2.9505,41.9939],[-2.9531,41.9856],[-2.9708,41.9293],[-3.0168,41.8869],[-3.0972,41.8811],[-3.1362,41.8119],[-3.2344,41.8406],[-3.2838,41.8838],[-3.2755,41.7687],[-3.3544,41.7373],[-3.3934,41.6906],[-3.4592,41.5896],[-3.4594,41.5897],[-3.5292,41.6126],[-3.5366,41.607],[-3.5412,41.6036],[-3.5504,41.5966],[-3.5416,41.5776],[-3.5665,41.58],[-3.5726,41.5654],[-3.6168,41.5772],[-3.661,41.5661],[-3.6668,41.5619],[-3.7283,41.5176],[-3.7237,41.4792],[-3.7698,41.4602],[-3.8239,41.4811],[-3.8838,41.5413],[-3.8946,41.5522],[-3.9189,41.561],[-3.9807,41.5833],[-3.9816,41.5837],[-3.9856,41.5895],[-4.0059,41.6194],[-4.0353,41.6206],[-4.026,41.6924],[-4.0558,41.7407],[-4.0495,41.7581],[-4.0456,41.7689],[-4.038,41.7899],[-4.0901,41.8309],[-4.0888,41.8707],[-4.0376,41.8728],[-3.9807,41.9006],[-3.9813,41.9307],[-3.892,41.9579],[-3.8897,41.9909],[-3.8915,41.9914],[-3.9002,41.994],[-3.9102,41.997],[-4.033,41.9541],[-4.0148,41.9986],[-3.9711,42.0332],[-4.0392,42.0534],[-4.0562,42.1009],[-4.1202,42.1281],[-4.205,42.1336],[-4.1886,42.1764],[-4.2314,42.2085],[-4.2727,42.3857],[-4.3216,42.3799],[-4.3162,42.41],[-4.3171,42.4589],[-4.2544,42.4679],[-4.247,42.4947],[-4.2939,42.6053],[-4.2639,42.618],[-4.257,42.6881],[-4.145,42.7525],[-4.1096,42.7339],[-4.0853,42.7641],[-4.0834,42.7642],[-4.0828,42.7643],[-3.9907,42.771],[-3.9676,42.7596],[-3.9657,42.7586],[-3.911,42.7684],[-3.8944,42.8045],[-3.8624,42.7867],[-3.8604,42.7874],[-3.8229,42.7991],[-3.8233,42.8068],[-3.8253,42.8435],[-3.8267,42.8709],[-3.834,42.8746],[-3.8637,42.8898],[-3.9148,42.8601],[-3.8929,42.8874],[-3.9078,42.9145],[-3.9335,42.8996],[-3.93,42.9148],[-3.9741,42.9124],[-3.9746,42.9124],[-3.9751,42.9135],[-3.9865,42.9391],[-3.9872,42.9405],[-3.9772,42.9562],[-3.9479,43.002],[-3.9455,43.0058],[-3.9093,43.0161],[-3.8907,43.0418],[-3.8318,43.0638],[-3.7646,43.081],[-3.7047,43.1163],[-3.6518,43.1808],[-3.6513,43.1807],[-3.6124,43.1695],[-3.6035,43.1496],[-3.4346,43.1317],[-3.4271,43.1342],[-3.4188,43.1371],[-3.3351,43.1662],[-3.2503,43.1956]]],[[[-2.8355,42.7963],[-2.7316,42.7945],[-2.6437,42.7647],[-2.6023,42.7706],[-2.5726,42.7252],[-2.6592,42.6725],[-2.7679,42.666],[-2.7845,42.6989],[-2.8685,42.7399],[-2.8355,42.7963]]]]},"properties":{"cod_prov":"09","name":"Burgos","cod_ccaa":"07","cartodb_id":9,"created_at":"2014-09-30T00:00:00Z","updated_at":"2014-12-25T01:56:10Z"}},{"type":"Feature","geometry":{"type":"Polygon","coordinates":[[[-6.1819,40.4668],[-6.1571,40.4566],[-6.147,40.4361],[-6.1295,40.4208],[-6.0852,40.3905],[-6.0824,40.3632],[-6.016,40.3403],[-6.0071,40.3098],[-6.0059,40.3058],[-5.9971,40.3026],[-5.9694,40.2926],[-5.9378,40.2811],[-5.9172,40.2777],[-5.8844,40.3263],[-5.8842,40.3266],[-5.7993,40.3538],[-5.782,40.3125],[-5.8027,40.2976],[-5.802,40.2968],[-5.8016,40.2963],[-5.7931,40.2867],[-5.7744,40.2877],[-5.7494,40.2891],[-5.6927,40.2921],[-5.622,40.2459],[-5.6145,40.2183],[-5.6107,40.2171],[-5.5844,40.2088],[-5.5481,40.1972],[-5.5432,40.1979],[-5.4709,40.2079],[-5.4291,40.2526],[-5.3449,40.2638],[-5.3432,40.2641],[-5.3697,40.2183],[-5.368,40.1641],[-5.336,40.1158],[-5.3516,40.1084],[-5.3607,40.104],[-5.369,40.1001],[-5.3683,40.0783],[-5.3651,39.9829],[-5.4061,39.8777],[-5.3236,39.8917],[-5.284,39.8639],[-5.3126,39.8243],[-5.3081,39.76],[-5.2548,39.7523],[-5.2065,39.7976],[-5.1669,39.7999],[-5.1378,39.715],[-5.1618,39.6424],[-5.2066,39.5972],[-4.9531,39.3955],[-4.974,39.3947],[-4.9846,39.3717],[-5.0538,39.3624],[-5.1136,39.3875],[-5.1235,39.3365],[-5.2476,39.3018],[-5.34,39.3333],[-5.3491,39.2336],[-5.384,39.1742],[-5.4598,39.1584],[-5.5146,39.2097],[-5.551,39.2159],[-5.6132,39.1882],[-5.5766,39.1509],[-5.6044,39.1004],[-5.687,39.0821],[-5.7552,39.1323],[-5.8104,39.1446],[-5.8334,39.1103],[-5.9247,39.0832],[-5.9423,39.1085],[-6.0093,39.0525],[-6.0186,39.1291],[-6.1421,39.0316],[-6.2031,39.0565],[-6.2309,39.0898],[-6.3116,39.1116],[-6.3241,39.1864],[-6.3791,39.1628],[-6.6597,39.1991],[-6.681,39.1772],[-6.7675,39.1884],[-6.8009,39.2394],[-6.7612,39.2766],[-6.7467,39.3218],[-6.797,39.3445],[-6.8021,39.3895],[-6.8042,39.3893],[-6.8044,39.3904],[-6.8832,39.3828],[-7.0494,39.4367],[-7.0093,39.3885],[-7.0791,39.3514],[-7.063,39.3723],[-7.0739,39.3812],[-7.0976,39.3772],[-7.1257,39.3812],[-7.1484,39.3685],[-7.1543,39.3675],[-7.1566,39.3639],[-7.1612,39.3613],[-7.1762,39.3337],[-7.1778,39.3312],[-7.1777,39.331],[-7.1773,39.3306],[-7.1685,39.3202],[-7.1618,39.325],[-7.1553,39.3227],[-7.1552,39.318],[-7.2039,39.2657],[-7.3083,39.3368],[-7.3235,39.3819],[-7.2965,39.4589],[-7.3813,39.4918],[-7.4959,39.5864],[-7.5448,39.6638],[-7.3328,39.6412],[-7.2501,39.6672],[-7.1493,39.6529],[-7.0153,39.6708],[-6.9767,39.7727],[-6.9869,39.8101],[-6.9035,39.8713],[-6.8641,40.0125],[-6.9416,40.1129],[-7.0119,40.1269],[-7.0122,40.2265],[-6.9505,40.2583],[-6.8651,40.2706],[-6.8345,40.2476],[-6.7556,40.2389],[-6.6901,40.2427],[-6.6718,40.2632],[-6.587,40.2707],[-6.5562,40.2908],[-6.5363,40.3472],[-6.4383,40.3728],[-6.3714,40.4019],[-6.3446,40.4428],[-6.2753,40.4585],[-6.2312,40.4861],[-6.2305,40.4866],[-6.2285,40.4858],[-6.1819,40.4668]]]},"properties":{"cod_prov":"10","name":"Cáceres","cod_ccaa":"10","cartodb_id":10,"created_at":"2014-09-30T00:00:00Z","updated_at":"2014-12-25T01:56:10Z"}},{"type":"Feature","geometry":{"type":"Polygon","coordinates":[[[-5.6083,36.5123],[-5.5242,36.4977],[-5.4924,36.5365],[-5.4295,36.5332],[-5.4293,36.5332],[-5.3472,36.4186],[-5.3201,36.3251],[-5.2778,36.3371],[-5.2524,36.3112],[-5.317,36.2292],[-5.3386,36.1535],[-5.3914,36.1809],[-5.4406,36.1621],[-5.4295,36.071],[-5.6111,36.0001],[-5.6525,36.0532],[-5.7972,36.0783],[-5.9149,36.1848],[-6.0345,36.1812],[-6.1028,36.2841],[-6.1511,36.3065],[-6.1822,36.3686],[-6.2188,36.3926],[-6.2298,36.4626],[-6.1732,36.5214],[-6.2291,36.5251],[-6.2998,36.6179],[-6.3883,36.629],[-6.4428,36.7377],[-6.3424,36.7944],[-6.3512,36.8436],[-6.3527,36.856],[-6.331,36.8988],[-6.1562,36.8856],[-6.1044,36.8573],[-5.8911,36.8422],[-5.8765,36.8947],[-5.8455,36.9152],[-5.7138,36.9204],[-5.6676,36.976],[-5.5834,36.9151],[-5.4697,36.9839],[-5.511,37.0336],[-5.4329,37.0501],[-5.4201,37.0132],[-5.4603,36.9753],[-5.4389,36.9353],[-5.3021,37.0374],[-5.3002,37.0137],[-5.2345,36.941],[-5.229,36.9448],[-5.2259,36.9418],[-5.1626,36.9814],[-5.1447,37.0023],[-5.1424,37.0039],[-5.0956,36.9683],[-5.0868,36.9051],[-5.1333,36.8391],[-5.1704,36.8236],[-5.1713,36.8239],[-5.1752,36.8253],[-5.222,36.8427],[-5.2698,36.8842],[-5.3407,36.8194],[-5.2909,36.7752],[-5.3246,36.724],[-5.324,36.6733],[-5.3807,36.6318],[-5.4559,36.6196],[-5.4608,36.5888],[-5.5233,36.5311],[-5.6048,36.5434],[-5.6105,36.5442],[-5.6083,36.5123]]]},"properties":{"cod_prov":"11","name":"Cádiz","cod_ccaa":"01","cartodb_id":11,"created_at":"2014-09-30T00:00:00Z","updated_at":"2014-12-25T01:56:10Z"}},{"type":"Feature","geometry":{"type":"MultiPolygon","coordinates":[[[[-4.1587,39.5768],[-4.0418,39.5754],[-4.0681,39.4571],[-4.1181,39.4569],[-4.1481,39.3628],[-4.1044,39.3411],[-4.0734,39.3653],[-3.9722,39.3522],[-3.9669,39.2986],[-3.8562,39.2591],[-3.7912,39.2929],[-3.7225,39.2696],[-3.6802,39.2983],[-3.5326,39.3042],[-3.4769,39.3431],[-3.4705,39.3721],[-3.4103,39.4046],[-3.3091,39.3992],[-3.2942,39.4708],[-3.1845,39.488],[-3.1573,39.4961],[-3.1529,39.4938],[-3.0696,39.4503],[-2.9568,39.4472],[-2.9318,39.4528],[-2.8704,39.3909],[-2.8699,39.3905],[-2.8966,39.3668],[-2.8824,39.3509],[-2.8341,39.3535],[-2.8327,39.3549],[-2.7932,39.3977],[-2.776,39.3948],[-2.7432,39.317],[-2.7222,39.2672],[-2.7235,39.2657],[-2.8427,39.1345],[-2.805,39.0789],[-2.8323,39.0232],[-2.8829,38.9385],[-2.8358,38.906],[-2.8145,38.9058],[-2.7925,38.9056],[-2.7632,38.8812],[-2.7622,38.8803],[-2.7615,38.8798],[-2.7322,38.7818],[-2.6963,38.7829],[-2.641,38.7431],[-2.6423,38.7388],[-2.6689,38.6492],[-2.7282,38.6161],[-2.7655,38.5739],[-2.7468,38.5468],[-2.7593,38.5328],[-2.78,38.5097],[-2.8815,38.4526],[-2.9636,38.4715],[-2.9935,38.4501],[-3.065,38.4782],[-3.1383,38.4386],[-3.2794,38.4602],[-3.3265,38.4821],[-3.375,38.4752],[-3.3767,38.4396],[-3.4476,38.4025],[-3.4517,38.4003],[-3.4563,38.4008],[-3.5284,38.4086],[-3.5419,38.4454],[-3.5831,38.4515],[-3.5982,38.3985],[-3.7856,38.4253],[-3.8301,38.4128],[-3.8543,38.3751],[-3.9151,38.3688],[-4.1566,38.3813],[-4.2201,38.394],[-4.2578,38.4016],[-4.2643,38.3977],[-4.2702,38.3942],[-4.2768,38.3902],[-4.2873,38.3428],[-4.453,38.4009],[-4.5127,38.4639],[-4.6228,38.5238],[-4.7039,38.5532],[-4.7074,38.5719],[-4.8602,38.614],[-4.877,38.6861],[-5.0046,38.6951],[-4.99,38.7398],[-4.9435,38.8544],[-4.9149,38.8874],[-4.8473,38.8824],[-4.8311,38.9356],[-4.8332,38.9361],[-4.8324,38.9389],[-4.9182,38.957],[-4.9625,39.0587],[-4.88,39.0324],[-4.8269,39.0641],[-4.8744,39.1004],[-4.8532,39.1524],[-4.8103,39.1994],[-4.649,39.1649],[-4.6529,39.1679],[-4.6479,39.1669],[-4.7082,39.2099],[-4.761,39.3208],[-4.7067,39.3277],[-4.7042,39.3645],[-4.6717,39.4135],[-4.6731,39.4183],[-4.6695,39.4245],[-4.6181,39.4544],[-4.6184,39.4847],[-4.5112,39.5221],[-4.4616,39.4785],[-4.4419,39.5231],[-4.3772,39.496],[-4.2421,39.4779],[-4.1932,39.4954],[-4.1587,39.5768]]],[[[-4.7503,39.4959],[-4.7429,39.4875],[-4.7405,39.4562],[-4.7554,39.4157],[-4.7724,39.3986],[-4.7739,39.3977],[-4.8709,39.3683],[-4.9365,39.3961],[-4.9405,39.3959],[-4.9118,39.4829],[-4.9082,39.4937],[-4.9058,39.497],[-4.8631,39.5561],[-4.7678,39.5156],[-4.7584,39.5051],[-4.7503,39.4959]]]]},"properties":{"cod_prov":"13","name":"Ciudad Real","cod_ccaa":"06","cartodb_id":13,"created_at":"2014-09-30T00:00:00Z","updated_at":"2014-12-25T01:56:10Z"}},{"type":"Feature","geometry":{"type":"Polygon","coordinates":[[[-2.5719,38.4141],[-2.4824,38.3962],[-2.4852,38.3003],[-2.4366,38.2721],[-2.4463,38.1852],[-2.5397,38.0926],[-2.5959,38.0532],[-2.6051,37.9981],[-2.6057,37.9978],[-2.6698,37.9614],[-2.7027,37.9715],[-2.7846,37.9176],[-2.9038,37.7512],[-2.9015,37.6893],[-2.9779,37.634],[-2.9782,37.6028],[-3.051,37.6184],[-3.0882,37.5955],[-3.1721,37.6429],[-3.2625,37.6392],[-3.2962,37.5883],[-3.3993,37.5641],[-3.5065,37.6172],[-3.5364,37.5808],[-3.6271,37.5285],[-3.7762,37.4765],[-3.7856,37.4909],[-3.8412,37.3862],[-3.842,37.3862],[-3.9509,37.3783],[-3.9837,37.3885],[-3.9908,37.3973],[-4.0481,37.468],[-4.0877,37.4861],[-4.121,37.5543],[-4.1738,37.6101],[-4.2281,37.6395],[-4.1644,37.6815],[-4.2386,37.7201],[-4.2066,37.7787],[-4.2084,37.7791],[-4.2079,37.7801],[-4.2867,37.7965],[-4.2581,37.9393],[-4.26,38.0222],[-4.2401,38.047],[-4.2179,38.1108],[-4.1612,38.145],[-4.1613,38.1455],[-4.1679,38.1808],[-4.2167,38.247],[-4.2102,38.3015],[-4.2374,38.3415],[-4.2693,38.3477],[-4.2787,38.3775],[-4.2702,38.3942],[-4.2643,38.3977],[-4.2201,38.394],[-4.1566,38.3813],[-3.9151,38.3688],[-3.8543,38.3751],[-3.8301,38.4128],[-3.7856,38.4253],[-3.5982,38.3985],[-3.5831,38.4515],[-3.5284,38.4086],[-3.471,38.398],[-3.4563,38.4008],[-3.4517,38.4003],[-3.4476,38.4025],[-3.4248,38.4068],[-3.3767,38.4396],[-3.375,38.4752],[-3.3265,38.4821],[-3.2794,38.4602],[-3.1383,38.4386],[-3.065,38.4782],[-2.9935,38.4501],[-2.9636,38.4715],[-2.8815,38.4526],[-2.78,38.5097],[-2.7025,38.5011],[-2.6917,38.5023],[-2.6797,38.4969],[-2.5956,38.5104],[-2.5794,38.5004],[-2.5702,38.4933],[-2.5719,38.4141]]]},"properties":{"cod_prov":"23","name":"Jaén","cod_ccaa":"01","cartodb_id":23,"created_at":"2014-09-30T00:00:00Z","updated_at":"2014-12-25T01:56:10Z"}},{"type":"Feature","geometry":{"type":"MultiPolygon","coordinates":[[[[-4.6499,37.2569],[-4.6621,37.2837],[-4.6811,37.29],[-4.6841,37.3154],[-4.6684,37.3198],[-4.6857,37.3303],[-4.7822,37.3285],[-4.8221,37.3582],[-4.8406,37.436],[-4.9041,37.4674],[-4.906,37.4998],[-4.932,37.5459],[-4.9317,37.6173],[-4.9998,37.7066],[-5.0472,37.7183],[-5.0915,37.6799],[-5.0699,37.6594],[-5.1501,37.6609],[-5.1768,37.6806],[-5.3544,37.5867],[-5.414,37.6453],[-5.3763,37.6776],[-5.3271,37.6916],[-5.3076,37.6999],[-5.3071,37.7002],[-5.3091,37.7508],[-5.31,37.7737],[-5.31,37.7742],[-5.3499,37.7946],[-5.3497,37.7958],[-5.3393,37.833],[-5.345,37.8358],[-5.3445,37.8399],[-5.4147,37.8695],[-5.4156,37.9437],[-5.492,37.995],[-5.4932,37.9963],[-5.4951,38.0418],[-5.5388,38.0938],[-5.5553,38.1022],[-5.5842,38.1311],[-5.5848,38.1317],[-5.5844,38.1325],[-5.579,38.1433],[-5.5397,38.1607],[-5.5387,38.2006],[-5.526,38.2641],[-5.5756,38.3291],[-5.5592,38.3669],[-5.5842,38.4009],[-5.5839,38.4016],[-5.5563,38.4407],[-5.5449,38.4477],[-5.4845,38.4634],[-5.4795,38.4847],[-5.4186,38.5127],[-5.4172,38.5166],[-5.41,38.5202],[-5.4069,38.5437],[-5.3927,38.5535],[-5.3717,38.5836],[-5.3085,38.5776],[-5.2922,38.6108],[-5.2085,38.6677],[-5.1673,38.6805],[-5.1845,38.7197],[-5.0992,38.7077],[-5.0354,38.7262],[-5.0046,38.6951],[-4.877,38.6861],[-4.8602,38.614],[-4.7074,38.5719],[-4.7039,38.5532],[-4.6228,38.5238],[-4.5127,38.4639],[-4.453,38.4009],[-4.2873,38.3428],[-4.2374,38.3415],[-4.2102,38.3015],[-4.2167,38.247],[-4.1679,38.1808],[-4.1613,38.1455],[-4.1612,38.145],[-4.2179,38.1108],[-4.2401,38.047],[-4.26,38.0222],[-4.2581,37.9393],[-4.2867,37.7965],[-4.2084,37.7791],[-4.2066,37.7787],[-4.2386,37.7201],[-4.1644,37.6815],[-4.2281,37.6395],[-4.1738,37.6101],[-4.121,37.5543],[-4.0877,37.4861],[-4.0481,37.468],[-4.0008,37.4021],[-4.0859,37.4037],[-4.1578,37.3423],[-4.2364,37.3359],[-4.2633,37.2604],[-4.2553,37.2296],[-4.3276,37.1843],[-4.3226,37.2045],[-4.3716,37.2152],[-4.3735,37.2181],[-4.3826,37.2315],[-4.3824,37.2335],[-4.3803,37.2662],[-4.3798,37.2742],[-4.3797,37.2752],[-4.418,37.2824],[-4.4315,37.2764],[-4.4531,37.2667],[-4.4852,37.2525],[-4.4776,37.2447],[-4.4981,37.2233],[-4.6023,37.2092],[-4.6141,37.255],[-4.6453,37.2469],[-4.6499,37.2569]]],[[[-5.0468,37.6319],[-5.0312,37.6415],[-5.0178,37.5925],[-5.0479,37.6081],[-5.0404,37.6262],[-5.0468,37.6319]]]]},"properties":{"cod_prov":"14","name":"Córdoba","cod_ccaa":"01","cartodb_id":14,"created_at":"2014-09-30T00:00:00Z","updated_at":"2014-12-25T01:56:10Z"}},{"type":"Feature","geometry":{"type":"Polygon","coordinates":[[[-1.5302,39.4076],[-1.7393,39.3212],[-1.7699,39.2805],[-1.8871,39.3048],[-1.9898,39.2937],[-2.0284,39.3368],[-2.0956,39.3594],[-2.051,39.2667],[-2.1687,39.2811],[-2.2887,39.2267],[-2.3212,39.2837],[-2.3741,39.2328],[-2.511,39.3422],[-2.5488,39.3235],[-2.635,39.3268],[-2.7423,39.3182],[-2.776,39.3948],[-2.7932,39.3977],[-2.8327,39.3549],[-2.8824,39.3509],[-2.8966,39.3668],[-2.8699,39.3905],[-2.8704,39.3909],[-2.8702,39.3911],[-2.9323,39.4539],[-2.9315,39.4707],[-2.9255,39.6018],[-2.9082,39.6423],[-2.9977,39.7189],[-3.0763,39.8557],[-3.1272,39.8747],[-3.0971,39.9335],[-3.0966,39.9869],[-3.1426,39.985],[-3.1616,40.0649],[-3.1182,40.0614],[-3.0562,40.1137],[-3.0638,40.1683],[-3.0051,40.2091],[-2.9115,40.1571],[-2.8631,40.2001],[-2.8231,40.205],[-2.8215,40.2052],[-2.8026,40.264],[-2.817,40.364],[-2.7601,40.442],[-2.76,40.4123],[-2.5862,40.4503],[-2.5445,40.4746],[-2.5463,40.519],[-2.5272,40.5443],[-2.496,40.5088],[-2.4118,40.5256],[-2.38,40.5436],[-2.4173,40.5834],[-2.3995,40.6135],[-2.3992,40.6134],[-2.3977,40.6128],[-2.359,40.5968],[-2.3481,40.5775],[-2.3434,40.5694],[-2.3373,40.5699],[-2.3182,40.5713],[-2.2977,40.5728],[-2.2948,40.5775],[-2.2929,40.5808],[-2.286,40.5922],[-2.294,40.6237],[-2.2942,40.6247],[-2.2746,40.6448],[-2.2138,40.6192],[-2.1692,40.6302],[-2.1521,40.6577],[-2.1057,40.6491],[-2.0912,40.6464],[-2.0733,40.6319],[-2.0358,40.6016],[-1.9855,40.5854],[-1.9659,40.592],[-1.9645,40.6115],[-1.962,40.6104],[-1.9534,40.6062],[-1.9234,40.5919],[-1.9219,40.5862],[-1.9095,40.5417],[-1.8955,40.5301],[-1.882,40.5188],[-1.8533,40.4237],[-1.8367,40.4277],[-1.8119,40.4001],[-1.8071,40.399],[-1.8062,40.3987],[-1.806,40.3987],[-1.7778,40.3919],[-1.6977,40.3213],[-1.7295,40.3029],[-1.6903,40.3097],[-1.5405,40.1908],[-1.4392,40.197],[-1.4562,40.131],[-1.4076,40.1014],[-1.3769,40.0165],[-1.248,39.9954],[-1.1652,40.0101],[-1.1424,39.9718],[-1.2038,39.9457],[-1.2082,39.9438],[-1.2,39.8587],[-1.215,39.8088],[-1.2754,39.7386],[-1.262,39.6989],[-1.2685,39.6949],[-1.295,39.6787],[-1.3079,39.6708],[-1.3104,39.6716],[-1.3685,39.6896],[-1.4179,39.6549],[-1.4618,39.5769],[-1.462,39.5768],[-1.5207,39.55],[-1.4992,39.5005],[-1.5134,39.4583],[-1.4966,39.4293],[-1.5052,39.418],[-1.5302,39.4076]]]},"properties":{"cod_prov":"16","name":"Cuenca","cod_ccaa":"06","cartodb_id":16,"created_at":"2014-09-30T00:00:00Z","updated_at":"2014-12-25T01:56:10Z"}},{"type":"Feature","geometry":{"type":"Polygon","coordinates":[[[-3.7774,36.7379],[-3.7681,36.802],[-3.8267,36.8553],[-3.8676,36.8507],[-3.9295,36.8829],[-4.0457,36.9029],[-4.0999,36.9527],[-4.1666,36.9571],[-4.2313,37.0169],[-4.2725,37.0149],[-4.2871,37.1195],[-4.3276,37.1843],[-4.2553,37.2296],[-4.2633,37.2604],[-4.2364,37.3359],[-4.1578,37.3423],[-4.0859,37.4037],[-4.0008,37.4021],[-3.9908,37.3973],[-3.9837,37.3885],[-3.9509,37.3783],[-3.842,37.3862],[-3.8412,37.3862],[-3.7856,37.4909],[-3.7762,37.4765],[-3.6271,37.5285],[-3.5364,37.5808],[-3.5065,37.6172],[-3.3993,37.5641],[-3.2962,37.5883],[-3.2625,37.6392],[-3.1721,37.6429],[-3.0882,37.5955],[-3.051,37.6184],[-2.9782,37.6028],[-2.9779,37.634],[-2.9015,37.6893],[-2.9038,37.7512],[-2.7846,37.9176],[-2.7027,37.9715],[-2.6698,37.9614],[-2.6057,37.9978],[-2.6051,37.9981],[-2.5959,38.0532],[-2.5498,38.0829],[-2.546,38.0814],[-2.5475,38.0798],[-2.4309,38.0366],[-2.4229,38.0337],[-2.4221,38.0334],[-2.3416,38.026],[-2.2985,38.0021],[-2.2472,37.9344],[-2.2077,37.9166],[-2.2134,37.9139],[-2.2949,37.8763],[-2.3018,37.8083],[-2.2768,37.7762],[-2.3233,37.6939],[-2.311,37.6329],[-2.3104,37.63],[-2.3596,37.6213],[-2.3743,37.5574],[-2.3585,37.5223],[-2.4563,37.5094],[-2.5142,37.4795],[-2.6416,37.3878],[-2.6657,37.2853],[-2.6601,37.212],[-2.779,37.2627],[-2.8454,37.2792],[-2.881,37.1871],[-2.9291,37.1566],[-2.949,37.0966],[-3.0003,37.095],[-3.0057,37.0233],[-2.9762,36.9781],[-3.0719,36.9193],[-3.029,36.8444],[-3.1402,36.7878],[-3.1287,36.7509],[-3.25,36.7543],[-3.3373,36.7387],[-3.4199,36.6939],[-3.5537,36.7149],[-3.6023,36.7447],[-3.6577,36.7466],[-3.7343,36.7196],[-3.7774,36.7379]]]},"properties":{"cod_prov":"18","name":"Granada","cod_ccaa":"01","cartodb_id":18,"created_at":"2014-09-30T00:00:00Z","updated_at":"2014-12-25T01:56:10Z"}},{"type":"Feature","geometry":{"type":"Polygon","coordinates":[[[-1.962,40.6104],[-1.9645,40.6115],[-1.9659,40.592],[-1.9855,40.5854],[-2.0733,40.6319],[-2.0912,40.6464],[-2.1057,40.6491],[-2.1101,40.6514],[-2.1569,40.6587],[-2.1692,40.6302],[-2.2138,40.6192],[-2.2746,40.6448],[-2.2942,40.6247],[-2.294,40.6237],[-2.2948,40.6229],[-2.2929,40.5808],[-2.2948,40.5775],[-2.3182,40.5713],[-2.3373,40.5699],[-2.3481,40.5775],[-2.359,40.5968],[-2.3977,40.6128],[-2.3992,40.6134],[-2.3995,40.6135],[-2.4173,40.5834],[-2.4118,40.5256],[-2.496,40.5088],[-2.5272,40.5443],[-2.5463,40.519],[-2.5445,40.4746],[-2.5862,40.4503],[-2.76,40.4123],[-2.7601,40.442],[-2.7809,40.4442],[-2.817,40.364],[-2.8026,40.264],[-2.8231,40.205],[-2.8631,40.2001],[-2.9115,40.1571],[-3.0051,40.2091],[-3.0638,40.1683],[-3.0678,40.1579],[-3.0797,40.2278],[-3.0965,40.2603],[-3.108,40.2824],[-3.1094,40.2852],[-3.1111,40.2844],[-3.1537,40.2637],[-3.1829,40.3083],[-3.1412,40.3505],[-3.1306,40.4052],[-3.1555,40.4394],[-3.1986,40.4423],[-3.2,40.5144],[-3.3283,40.5948],[-3.3385,40.6258],[-3.3165,40.6552],[-3.3456,40.6377],[-3.4686,40.6899],[-3.4349,40.728],[-3.4774,40.8236],[-3.4183,40.9876],[-3.4389,41.0427],[-3.4258,41.0829],[-3.4888,41.0943],[-3.5093,41.1364],[-3.5235,41.1423],[-3.5411,41.1497],[-3.5403,41.159],[-3.5402,41.1601],[-3.5397,41.165],[-3.4669,41.1833],[-3.4115,41.2607],[-3.4151,41.2732],[-3.3363,41.253],[-3.2543,41.2584],[-3.234,41.2905],[-3.2312,41.2949],[-3.2173,41.2991],[-3.2033,41.3034],[-3.1998,41.3044],[-3.0619,41.2734],[-2.9501,41.2926],[-2.9412,41.3139],[-2.901,41.3256],[-2.8947,41.3239],[-2.8783,41.3195],[-2.869,41.3171],[-2.8688,41.3142],[-2.8669,41.2745],[-2.7755,41.2501],[-2.7609,41.274],[-2.646,41.2402],[-2.6292,41.2152],[-2.5365,41.1625],[-2.4695,41.0781],[-2.4189,41.0577],[-2.3553,41.0865],[-2.3234,41.0565],[-2.2635,41.0675],[-2.2321,41.097],[-2.1753,41.0838],[-2.1319,41.1181],[-2.0656,41.0958],[-2.0492,41.1475],[-1.959,41.1725],[-1.9324,41.1386],[-1.8033,41.0899],[-1.631,40.95],[-1.6239,40.9488],[-1.6174,40.9437],[-1.6214,40.8804],[-1.5444,40.813],[-1.5399,40.7607],[-1.562,40.7398],[-1.5356,40.687],[-1.5987,40.5621],[-1.6781,40.591],[-1.7016,40.5411],[-1.6925,40.4868],[-1.735,40.472],[-1.7396,40.4668],[-1.7486,40.4629],[-1.7926,40.4137],[-1.8006,40.4142],[-1.8062,40.3987],[-1.8071,40.399],[-1.8367,40.4277],[-1.8533,40.4237],[-1.882,40.5188],[-1.8955,40.5301],[-1.9165,40.5828],[-1.9219,40.5862],[-1.9234,40.5919],[-1.9534,40.6062],[-1.9618,40.6115],[-1.962,40.6104]]]},"properties":{"cod_prov":"19","name":"Guadalajara","cod_ccaa":"06","cartodb_id":19,"created_at":"2014-09-30T00:00:00Z","updated_at":"2014-12-25T01:56:10Z"}},{"type":"Feature","geometry":{"type":"Polygon","coordinates":[[[-2.2635,42.8986],[-2.3548,42.95],[-2.5353,42.9734],[-2.6027,42.9822],[-2.5965,43.0092],[-2.5249,43.0453],[-2.5011,43.0965],[-2.5097,43.1614],[-2.4979,43.2199],[-2.4366,43.2437],[-2.439,43.2949],[-2.4117,43.3242],[-2.3529,43.2987],[-2.2024,43.3117],[-2.1305,43.2875],[-2.0305,43.321],[-1.9238,43.332],[-1.865,43.3724],[-1.7969,43.3825],[-1.7374,43.3302],[-1.7299,43.2964],[-1.7832,43.2868],[-1.795,43.2469],[-1.8819,43.2068],[-1.9475,43.0975],[-2.0228,43.0652],[-2.0383,42.981],[-2.0952,42.9726],[-2.116,42.9445],[-2.1237,42.9416],[-2.181,42.9351],[-2.2356,42.9266],[-2.2399,42.8955],[-2.2408,42.8954],[-2.2635,42.8986]]]},"properties":{"cod_prov":"20","name":"Gipuzkoa/Guipúzcoa","cod_ccaa":"17","cartodb_id":20,"created_at":"2014-09-30T00:00:00Z","updated_at":"2014-12-25T01:56:10Z"}},{"type":"Feature","geometry":{"type":"Polygon","coordinates":[[[-6.3404,38.0001],[-6.3036,37.9783],[-6.2762,37.974],[-6.2392,37.9589],[-6.2015,37.9621],[-6.1828,37.9311],[-6.1841,37.929],[-6.175,37.9151],[-6.1733,37.9154],[-6.17,37.9098],[-6.1452,37.9205],[-6.1643,37.862],[-6.1217,37.8166],[-6.134,37.7878],[-6.2024,37.8055],[-6.2523,37.7631],[-6.311,37.7649],[-6.45,37.7189],[-6.5361,37.651],[-6.5286,37.6158],[-6.4433,37.6234],[-6.3953,37.6112],[-6.3924,37.5541],[-6.3061,37.433],[-6.3563,37.4122],[-6.3846,37.3375],[-6.333,37.2991],[-6.3598,37.2381],[-6.3452,37.2183],[-6.3597,37.1384],[-6.3424,37.123],[-6.3864,37.0763],[-6.3859,37.075],[-6.3864,37.0744],[-6.3539,36.9885],[-6.3789,36.9347],[-6.331,36.8988],[-6.3527,36.856],[-6.3512,36.8436],[-6.3455,36.7987],[-6.3972,36.8073],[-6.4493,36.9078],[-6.5219,36.9772],[-6.9167,37.1763],[-6.9241,37.1648],[-7.0597,37.2108],[-7.2709,37.2018],[-7.3764,37.1712],[-7.4075,37.1834],[-7.4338,37.2497],[-7.4402,37.3903],[-7.4638,37.4869],[-7.5115,37.5244],[-7.489,37.6036],[-7.4211,37.7591],[-7.3241,37.8158],[-7.2835,37.8691],[-7.2485,37.9545],[-7.2632,37.9799],[-7.2022,38.0035],[-7.1328,37.9999],[-7.0988,38.0438],[-7.0593,38.0174],[-7.0024,38.0227],[-6.9874,38.1039],[-6.9521,38.1528],[-6.9689,38.1662],[-6.9279,38.2036],[-6.8553,38.179],[-6.8536,38.179],[-6.8484,38.1772],[-6.7951,38.1785],[-6.8158,38.1201],[-6.8069,38.1186],[-6.8083,38.1112],[-6.7701,38.1121],[-6.7701,38.0995],[-6.7609,38.0971],[-6.7582,38.0927],[-6.7452,38.0931],[-6.7328,38.09],[-6.6221,38.097],[-6.5805,38.0528],[-6.5457,38.0281],[-6.4766,38.0078],[-6.4436,38.047],[-6.4489,38.0523],[-6.4463,38.0564],[-6.4293,38.0575],[-6.3672,38.0489],[-6.3527,38.0074],[-6.3478,38.0045],[-6.347,38.0028],[-6.3404,38.0001]]]},"properties":{"cod_prov":"21","name":"Huelva","cod_ccaa":"01","cartodb_id":21,"created_at":"2014-09-30T00:00:00Z","updated_at":"2014-12-25T01:56:10Z"}},{"type":"Feature","geometry":{"type":"Polygon","coordinates":[[[0.706,42.6268],[0.7078,42.6211],[0.7675,42.6112],[0.7398,42.5052],[0.6905,42.4876],[0.7713,42.3506],[0.7026,42.19],[0.6996,42.107],[0.6567,42.0404],[0.6578,42.0365],[0.6639,42.0145],[0.6419,41.9821],[0.5619,41.9382],[0.5928,41.8844],[0.5801,41.8509],[0.4832,41.8015],[0.4686,41.765],[0.3847,41.7403],[0.328,41.6793],[0.3278,41.677],[0.3262,41.6622],[0.358,41.6317],[0.3496,41.5995],[0.4285,41.6024],[0.4469,41.5422],[0.3553,41.4518],[0.3358,41.4075],[0.3291,41.4089],[0.2406,41.4284],[0.1637,41.4065],[0.0934,41.35],[-0.0727,41.3772],[-0.105,41.4855],[-0.1567,41.5353],[-0.1674,41.5811],[-0.2057,41.6023],[-0.2448,41.5731],[-0.3126,41.6241],[-0.3595,41.6352],[-0.3745,41.6881],[-0.4449,41.7037],[-0.4894,41.7317],[-0.5167,41.8368],[-0.6033,41.8828],[-0.6578,41.9575],[-0.7782,41.9574],[-0.8849,42.0036],[-0.8129,42.0925],[-0.7631,42.0675],[-0.7594,42.2636],[-0.7289,42.2963],[-0.7293,42.2974],[-0.7446,42.3387],[-0.7718,42.3467],[-0.8065,42.2705],[-0.877,42.2816],[-0.8442,42.3846],[-0.9044,42.4348],[-0.895,42.5491],[-0.9276,42.6562],[-0.9225,42.7008],[-0.9005,42.7605],[-0.8475,42.7859],[-0.8568,42.8469],[-0.8191,42.9007],[-0.7473,42.9224],[-0.602,42.8322],[-0.5676,42.7806],[-0.5053,42.8274],[-0.4417,42.7954],[-0.3947,42.799],[-0.3133,42.8494],[-0.1887,42.7869],[-0.16,42.798],[-0.1064,42.7206],[-0.0564,42.6923],[0.0003,42.6853],[0.117,42.7112],[0.1758,42.737],[0.26,42.716],[0.2953,42.6732],[0.3602,42.7243],[0.4221,42.6905],[0.6601,42.6909],[0.6959,42.6589],[0.706,42.6268]]]},"properties":{"cod_prov":"22","name":"Huesca","cod_ccaa":"02","cartodb_id":22,"created_at":"2014-09-30T00:00:00Z","updated_at":"2014-12-25T01:56:10Z"}},{"type":"Feature","geometry":{"type":"Polygon","coordinates":[[[-4.8433,43.1843],[-4.848,43.1781],[-4.8518,43.1731],[-4.8346,43.1575],[-4.8514,43.1259],[-4.8328,43.1027],[-4.7439,43.0525],[-4.7342,43.0471],[-4.7373,43.025],[-4.7381,43.0192],[-4.7381,43.019],[-4.7948,42.9867],[-4.8092,42.9303],[-4.8656,42.8605],[-4.8984,42.8631],[-4.8959,42.7852],[-4.9356,42.7565],[-4.9316,42.7492],[-4.9159,42.7206],[-4.8947,42.6239],[-4.916,42.5548],[-4.888,42.537],[-4.9034,42.3857],[-4.9726,42.3744],[-4.9842,42.3379],[-4.9534,42.2972],[-5.0383,42.2971],[-5.0938,42.3093],[-5.1827,42.2642],[-5.2365,42.2733],[-5.2656,42.2109],[-5.3075,42.1993],[-5.3612,42.2252],[-5.3881,42.2214],[-5.3875,42.2183],[-5.3715,42.1301],[-5.3901,42.0898],[-5.3763,42.0415],[-5.3769,42.0414],[-5.3807,42.0408],[-5.3911,42.0391],[-5.4387,42.0315],[-5.4809,42.0524],[-5.5434,42.0994],[-5.5607,42.056],[-5.6201,42.1067],[-5.6768,42.1203],[-5.7429,42.1133],[-5.7767,42.1358],[-5.8449,42.1107],[-5.8974,42.1561],[-5.9535,42.1237],[-6.0493,42.1599],[-6.1602,42.1658],[-6.2124,42.1481],[-6.2937,42.178],[-6.3126,42.2066],[-6.4279,42.2019],[-6.4976,42.182],[-6.526,42.2034],[-6.7104,42.2129],[-6.7197,42.2134],[-6.7245,42.2204],[-6.7348,42.2356],[-6.7785,42.2515],[-6.7843,42.2536],[-6.7498,42.2896],[-6.7411,42.2987],[-6.74,42.3079],[-6.734,42.3591],[-6.8435,42.4058],[-6.8083,42.4686],[-6.8601,42.4888],[-6.9601,42.5178],[-6.9785,42.4933],[-7.0709,42.5073],[-7.0771,42.5082],[-7.0599,42.5293],[-7.0336,42.5841],[-7.047,42.6327],[-7.0044,42.6429],[-7.0452,42.6948],[-7.0109,42.7237],[-6.9356,42.7409],[-6.8674,42.7872],[-6.8403,42.8234],[-6.8337,42.8821],[-6.8149,42.8708],[-6.848,42.9143],[-6.7891,42.9036],[-6.7769,42.9014],[-6.7766,42.9002],[-6.7724,42.8857],[-6.7717,42.8833],[-6.7339,42.9096],[-6.7232,42.9174],[-6.7227,42.9175],[-6.7222,42.9175],[-6.6899,42.9225],[-6.6723,42.9223],[-6.6095,42.9216],[-6.5096,42.9205],[-6.4898,42.9202],[-6.4331,42.9398],[-6.397,43.0383],[-6.3591,43.0596],[-6.2268,43.0089],[-6.2156,43.0472],[-6.1367,43.021],[-6.0968,43.0311],[-6.0819,43.0757],[-6.0202,43.0549],[-5.975,43.0654],[-5.9567,43.0186],[-5.9146,42.9927],[-5.804,42.9626],[-5.7639,42.9701],[-5.7284,43.0425],[-5.6933,43.0565],[-5.5701,43.0227],[-5.4938,43.0214],[-5.4785,43.0549],[-5.3905,43.0493],[-5.3691,43.0946],[-5.2821,43.0774],[-5.2166,43.0845],[-5.1478,43.1151],[-5.1017,43.1018],[-5.0759,43.1815],[-4.9969,43.1731],[-4.9639,43.2124],[-4.9023,43.2353],[-4.8936,43.2385],[-4.8857,43.2315],[-4.8568,43.2056],[-4.8392,43.1898],[-4.8433,43.1843]]]},"properties":{"cod_prov":"24","name":"León","cod_ccaa":"07","cartodb_id":24,"created_at":"2014-09-30T00:00:00Z","updated_at":"2014-12-25T01:56:10Z"}},{"type":"Feature","geometry":{"type":"Polygon","coordinates":[[[1.8424,42.3067],[1.8425,42.3064],[1.8425,42.3063],[1.6703,42.2817],[1.7046,42.2388],[1.6803,42.2062],[1.738,42.1894],[1.6986,42.1357],[1.6702,42.0444],[1.6993,42.0289],[1.6501,41.9797],[1.653,41.9288],[1.6191,41.8815],[1.6115,41.8178],[1.5307,41.7526],[1.4711,41.8009],[1.417,41.7946],[1.3819,41.7058],[1.4483,41.6361],[1.4066,41.6005],[1.4034,41.5582],[1.2199,41.5696],[1.1647,41.5345],[1.1809,41.4881],[1.0749,41.4584],[0.9452,41.3498],[0.7515,41.3178],[0.6282,41.2909],[0.5544,41.3267],[0.5033,41.2897],[0.4655,41.3303],[0.4613,41.3349],[0.4458,41.3264],[0.4415,41.3241],[0.4344,41.3202],[0.4332,41.276],[0.3857,41.2788],[0.3484,41.3289],[0.374,41.3515],[0.3723,41.3529],[0.32,41.3942],[0.3291,41.4089],[0.3358,41.4075],[0.3553,41.4518],[0.4469,41.5422],[0.4285,41.6024],[0.3496,41.5995],[0.358,41.6317],[0.3278,41.677],[0.328,41.6793],[0.3847,41.7403],[0.4686,41.765],[0.4832,41.8015],[0.5801,41.8509],[0.5928,41.8844],[0.5619,41.9382],[0.6419,41.9821],[0.6639,42.0145],[0.6578,42.0365],[0.6996,42.107],[0.7026,42.19],[0.7713,42.3506],[0.6905,42.4876],[0.7398,42.5052],[0.7675,42.6112],[0.706,42.6268],[0.6959,42.6589],[0.6597,42.839],[0.716,42.8583],[0.8555,42.8268],[0.9264,42.7893],[1.0789,42.7883],[1.1661,42.7089],[1.3573,42.7197],[1.443,42.6028],[1.4684,42.51],[1.4444,42.4414],[1.5517,42.4325],[1.5974,42.4663],[1.7036,42.4898],[1.7319,42.4404],[1.8015,42.4249],[1.806,42.3701],[1.8347,42.3551],[1.8424,42.3067]]]},"properties":{"cod_prov":"25","name":"Lleida","cod_ccaa":"08","cartodb_id":25,"created_at":"2014-09-30T00:00:00Z","updated_at":"2014-12-25T01:56:10Z"}},{"type":"Feature","geometry":{"type":"Polygon","coordinates":[[[-2.4207,42.4905],[-2.4156,42.4906],[-2.4099,42.4873],[-2.4002,42.4718],[-2.3768,42.4688],[-2.3458,42.4514],[-2.33,42.4688],[-2.175,42.4078],[-2.1155,42.3991],[-2.09,42.347],[-1.9984,42.3631],[-1.993,42.3612],[-1.966,42.3352],[-1.965,42.3343],[-1.9645,42.3338],[-1.9185,42.327],[-1.8023,42.2234],[-1.7253,42.2145],[-1.7042,42.192],[-1.7009,42.1731],[-1.7199,42.1334],[-1.8324,42.1482],[-1.9023,42.0739],[-1.9022,42.0673],[-1.9092,42.0591],[-1.9016,42.0297],[-1.8462,42.0014],[-1.844,41.9873],[-1.8652,41.9776],[-1.9703,41.9191],[-2.0364,41.9394],[-2.1108,41.9602],[-2.1241,41.9953],[-2.1619,42.0667],[-2.1272,42.0805],[-2.1273,42.0972],[-2.1323,42.0976],[-2.1334,42.1011],[-2.1768,42.1017],[-2.2089,42.1047],[-2.2179,42.1023],[-2.2365,42.1025],[-2.2696,42.0886],[-2.2822,42.1317],[-2.3182,42.1452],[-2.337,42.1439],[-2.344,42.1455],[-2.4262,42.1381],[-2.439,42.1369],[-2.4405,42.1368],[-2.4844,42.1063],[-2.5491,42.0515],[-2.5799,41.9963],[-2.7464,42.0092],[-2.7526,42.0221],[-2.7573,42.033],[-2.7059,42.1036],[-2.7347,42.125],[-2.7749,42.1235],[-2.783,42.1112],[-2.7916,42.1088],[-2.7929,42.0963],[-2.8033,42.0805],[-2.798,42.0468],[-2.8894,42.0105],[-2.8898,42.0105],[-2.9136,42.0229],[-2.9312,42.0868],[-3.0344,42.086],[-3.1287,42.1981],[-3.0886,42.2457],[-3.1097,42.3514],[-3.0635,42.3567],[-3.046,42.4452],[-3.0947,42.4881],[-3.0726,42.5289],[-3.1343,42.5421],[-3.0598,42.5892],[-3.0842,42.6407],[-2.9465,42.6393],[-2.916,42.6195],[-2.8418,42.6086],[-2.8408,42.5812],[-2.778,42.5813],[-2.7637,42.6228],[-2.6805,42.5945],[-2.6758,42.5257],[-2.6477,42.4833],[-2.6054,42.5035],[-2.5374,42.4952],[-2.5147,42.4901],[-2.4207,42.4905]]]},"properties":{"cod_prov":"26","name":"La Rioja","cod_ccaa":"12","cartodb_id":26,"created_at":"2014-09-30T00:00:00Z","updated_at":"2014-12-25T01:56:10Z"}},{"type":"Feature","geometry":{"type":"Polygon","coordinates":[[[-2.9449,41.9983],[-2.9221,42.0162],[-2.8898,42.0105],[-2.8894,42.0105],[-2.8838,42.0095],[-2.798,42.0468],[-2.8033,42.0805],[-2.7929,42.0963],[-2.783,42.1112],[-2.7749,42.1235],[-2.7347,42.125],[-2.7059,42.1036],[-2.7573,42.033],[-2.7526,42.0221],[-2.7464,42.0092],[-2.5799,41.9963],[-2.5491,42.0515],[-2.4844,42.1063],[-2.4405,42.1368],[-2.439,42.1369],[-2.4262,42.1381],[-2.344,42.1455],[-2.337,42.1439],[-2.2822,42.1317],[-2.2696,42.0886],[-2.2179,42.1023],[-2.2089,42.1047],[-2.1768,42.1017],[-2.1323,42.0976],[-2.1273,42.0972],[-2.1272,42.0805],[-2.1619,42.0667],[-2.1241,41.9953],[-2.1108,41.9602],[-2.11,41.9579],[-2.0364,41.9394],[-1.9703,41.9191],[-1.8635,41.9632],[-1.8573,41.9095],[-1.8191,41.8288],[-1.8529,41.7896],[-1.8524,41.7892],[-1.8059,41.7551],[-1.7754,41.7248],[-1.859,41.6615],[-1.9231,41.5983],[-1.9932,41.6005],[-1.9673,41.5461],[-1.9811,41.4864],[-1.9373,41.4079],[-2.0293,41.3842],[-2.0356,41.4269],[-2.1015,41.4458],[-2.116,41.382],[-2.1631,41.3554],[-2.1705,41.3188],[-2.1696,41.314],[-2.1737,41.2881],[-2.1462,41.1844],[-2.0517,41.1468],[-2.0656,41.0958],[-2.1319,41.1181],[-2.1753,41.0838],[-2.2321,41.097],[-2.2635,41.0675],[-2.3234,41.0565],[-2.3553,41.0865],[-2.4189,41.0577],[-2.4695,41.0781],[-2.5365,41.1625],[-2.6292,41.2152],[-2.646,41.2402],[-2.7609,41.274],[-2.7755,41.2501],[-2.8669,41.2745],[-2.8668,41.3131],[-2.8688,41.3142],[-2.869,41.3171],[-2.8783,41.3195],[-2.8884,41.3252],[-2.8947,41.3239],[-2.901,41.3256],[-2.9412,41.3139],[-2.9501,41.2926],[-3.0619,41.2734],[-3.1998,41.3044],[-3.2033,41.3034],[-3.2074,41.3042],[-3.3505,41.3949],[-3.3304,41.4607],[-3.4133,41.4761],[-3.4214,41.5139],[-3.4234,41.5152],[-3.4375,41.5246],[-3.4524,41.5335],[-3.4797,41.5209],[-3.5383,41.552],[-3.5412,41.6036],[-3.5366,41.607],[-3.4597,41.5893],[-3.4594,41.5897],[-3.4592,41.5896],[-3.3934,41.6906],[-3.3544,41.7373],[-3.2755,41.7687],[-3.2838,41.8838],[-3.2344,41.8406],[-3.1362,41.8119],[-3.0972,41.8811],[-3.0168,41.8869],[-2.9708,41.9293],[-2.9531,41.9856],[-2.9449,41.9983]]]},"properties":{"cod_prov":"42","name":"Soria","cod_ccaa":"07","cartodb_id":42,"created_at":"2014-09-30T00:00:00Z","updated_at":"2014-12-25T01:56:10Z"}},{"type":"Feature","geometry":{"type":"Polygon","coordinates":[[[-2.2531,42.8927],[-2.2531,42.8928],[-2.2408,42.8954],[-2.2399,42.8955],[-2.2378,42.896],[-2.2356,42.9266],[-2.181,42.9351],[-2.1237,42.9416],[-2.1176,42.9422],[-2.116,42.9445],[-2.0952,42.9726],[-2.0383,42.981],[-2.0228,43.0652],[-1.9475,43.0975],[-1.8819,43.2068],[-1.795,43.2469],[-1.7832,43.2868],[-1.7299,43.2964],[-1.6523,43.3102],[-1.6087,43.252],[-1.5757,43.2499],[-1.5355,43.2949],[-1.3843,43.2537],[-1.3814,43.1897],[-1.4141,43.1283],[-1.4734,43.0866],[-1.4412,43.0464],[-1.3542,43.0281],[-1.309,43.0712],[-1.2627,43.044],[-1.2126,43.0517],[-1.0813,43.0006],[-1.0121,42.9926],[-0.9451,42.9534],[-0.9085,42.9645],[-0.8096,42.9514],[-0.8191,42.9007],[-0.8568,42.8469],[-0.8475,42.7859],[-0.9005,42.7605],[-0.9487,42.7115],[-1.028,42.7001],[-1.0519,42.6426],[-1.152,42.6479],[-1.158,42.5992],[-1.2028,42.5497],[-1.2648,42.5568],[-1.2702,42.5489],[-1.2744,42.5428],[-1.2881,42.5228],[-1.2875,42.521],[-1.2935,42.511],[-1.2728,42.4819],[-1.3415,42.4239],[-1.3599,42.378],[-1.3291,42.3554],[-1.3991,42.2913],[-1.4175,42.2124],[-1.3919,42.1814],[-1.3989,42.1262],[-1.3048,42.0429],[-1.3395,42.018],[-1.3981,41.9366],[-1.4136,41.9189],[-1.441,41.9179],[-1.4776,41.9249],[-1.5593,41.9139],[-1.6541,41.9654],[-1.7152,41.957],[-1.7669,41.9958],[-1.8337,41.9951],[-1.8472,42.008],[-1.8462,42.0014],[-1.9016,42.0297],[-1.9022,42.0673],[-1.9023,42.0739],[-1.8324,42.1482],[-1.7199,42.1334],[-1.7009,42.1731],[-1.7042,42.192],[-1.7253,42.2145],[-1.8023,42.2234],[-1.9185,42.327],[-1.9645,42.3338],[-1.965,42.3343],[-1.966,42.3352],[-1.993,42.3612],[-1.9955,42.3636],[-1.9984,42.3631],[-2.09,42.347],[-2.1155,42.3991],[-2.175,42.4078],[-2.33,42.4688],[-2.3522,42.4656],[-2.3768,42.4688],[-2.4002,42.4718],[-2.4099,42.4873],[-2.4228,42.5081],[-2.4238,42.5096],[-2.423,42.5098],[-2.3922,42.517],[-2.3968,42.5991],[-2.4906,42.5854],[-2.4993,42.6105],[-2.4158,42.6627],[-2.3819,42.6343],[-2.2885,42.6551],[-2.3169,42.6825],[-2.3168,42.7393],[-2.281,42.7851],[-2.2357,42.8381],[-2.2337,42.8405],[-2.237,42.8494],[-2.2531,42.8927]]]},"properties":{"cod_prov":"31","name":"Navarra","cod_ccaa":"16","cartodb_id":31,"created_at":"2014-09-30T00:00:00Z","updated_at":"2014-12-25T01:56:10Z"}},{"type":"Feature","geometry":{"type":"Polygon","coordinates":[[[-5.345,35.8711],[-5.3729,35.8835],[-5.3789,35.9162],[-5.317,35.8894],[-5.345,35.8711]]]},"properties":{"cod_prov":"51","name":"Ceuta","cod_ccaa":"09","cartodb_id":52,"created_at":"2014-09-30T00:00:00Z","updated_at":"2014-12-25T01:56:10Z"}},{"type":"Feature","geometry":{"type":"Polygon","coordinates":[[[-6.8563,43.107],[-6.9156,43.0734],[-6.9571,43.0368],[-6.9103,42.9901],[-6.8361,42.9578],[-6.848,42.9143],[-6.8149,42.8708],[-6.8337,42.8821],[-6.8403,42.8234],[-6.8674,42.7872],[-6.9356,42.7409],[-7.0109,42.7237],[-7.0452,42.6948],[-7.0044,42.6429],[-7.047,42.6327],[-7.0336,42.5841],[-7.0599,42.5293],[-7.0771,42.5082],[-7.0709,42.5073],[-7.0762,42.4968],[-7.0997,42.4588],[-7.1493,42.4362],[-7.2027,42.3257],[-7.2201,42.3872],[-7.3055,42.4288],[-7.3699,42.4214],[-7.3992,42.4356],[-7.5076,42.3868],[-7.5761,42.4049],[-7.6314,42.4071],[-7.7132,42.4524],[-7.7889,42.466],[-7.7483,42.48],[-7.765,42.494],[-7.8023,42.4804],[-7.8027,42.4803],[-7.8754,42.5109],[-7.924,42.525],[-7.8887,42.5381],[-7.891,42.5403],[-7.9304,42.5783],[-7.9307,42.5786],[-7.9306,42.5788],[-7.8926,42.6296],[-7.8664,42.7206],[-7.9354,42.7397],[-7.9784,42.7787],[-7.9564,42.8397],[-7.9995,42.8488],[-7.9997,42.8489],[-7.9984,42.85],[-7.9355,42.9035],[-7.9433,42.9174],[-7.9053,42.9854],[-7.943,43.0676],[-7.9168,43.0883],[-7.9614,43.1898],[-7.9219,43.2695],[-7.9471,43.286],[-7.887,43.3372],[-7.8819,43.4075],[-7.8231,43.4007],[-7.8226,43.4018],[-7.8073,43.4373],[-7.7923,43.4436],[-7.7803,43.4486],[-7.7444,43.5119],[-7.7603,43.548],[-7.7179,43.5834],[-7.7355,43.6221],[-7.691,43.6541],[-7.6998,43.7352],[-7.6296,43.7221],[-7.4682,43.7242],[-7.3571,43.6712],[-7.2944,43.5923],[-7.2361,43.5691],[-7.0372,43.5523],[-7.0483,43.4771],[-7.1017,43.4275],[-7.173,43.4304],[-7.1825,43.3925],[-7.1275,43.3726],[-7.1312,43.3313],[-7.0598,43.3053],[-7.0616,43.244],[-6.971,43.2043],[-6.9574,43.1355],[-6.8854,43.1568],[-6.8682,43.19],[-6.8216,43.1432],[-6.8563,43.107]]]},"properties":{"cod_prov":"27","name":"Lugo","cod_ccaa":"11","cartodb_id":27,"created_at":"2014-09-30T00:00:00Z","updated_at":"2014-12-25T01:56:10Z"}},{"type":"Feature","geometry":{"type":"Polygon","coordinates":[[[-4.5686,40.2581],[-4.5294,40.2931],[-4.4558,40.3194],[-4.4437,40.3857],[-4.3413,40.4287],[-4.3157,40.4648],[-4.3282,40.5338],[-4.2454,40.6024],[-4.1612,40.6235],[-4.1716,40.6806],[-4.1572,40.6935],[-4.1253,40.7222],[-4.097,40.7477],[-4.0816,40.779],[-4.0767,40.7889],[-4.0741,40.7888],[-3.9797,40.7846],[-3.9471,40.863],[-3.9506,40.8838],[-3.9523,40.8936],[-3.9448,40.9039],[-3.9093,40.9524],[-3.9072,40.9553],[-3.9052,40.956],[-3.7814,41.0003],[-3.7405,41.0536],[-3.6761,41.0867],[-3.6137,41.1491],[-3.5402,41.1601],[-3.5403,41.159],[-3.5411,41.1497],[-3.5235,41.1423],[-3.4888,41.0943],[-3.4258,41.0829],[-3.4389,41.0427],[-3.4183,40.9876],[-3.4774,40.8236],[-3.4349,40.728],[-3.4686,40.6899],[-3.3456,40.6377],[-3.3165,40.6552],[-3.3385,40.6258],[-3.3283,40.5948],[-3.2,40.5144],[-3.1986,40.4423],[-3.1555,40.4394],[-3.1306,40.4052],[-3.1412,40.3505],[-3.1829,40.3083],[-3.1537,40.2637],[-3.1111,40.2844],[-3.108,40.2824],[-3.0965,40.2603],[-3.0678,40.1579],[-3.0562,40.1137],[-3.1182,40.0614],[-3.1616,40.0649],[-3.201,40.0605],[-3.2753,40.0474],[-3.296,40.0592],[-3.3332,40.0804],[-3.3344,40.0811],[-3.3651,40.0766],[-3.3753,40.0751],[-3.3777,40.0748],[-3.3758,40.0513],[-3.4011,40.0342],[-3.5069,40.0487],[-3.5197,40.0211],[-3.59,40.0132],[-3.6345,39.9659],[-3.7439,39.9408],[-3.8128,39.8874],[-3.8647,39.9037],[-3.8684,39.905],[-3.8752,39.9287],[-3.7636,39.9675],[-3.7705,39.9506],[-3.6999,40.0195],[-3.6361,40.0416],[-3.6076,40.109],[-3.7222,40.1477],[-3.7705,40.1394],[-3.8046,40.1768],[-3.9529,40.2128],[-3.991,40.2095],[-4.024,40.249],[-4.0729,40.2655],[-4.1043,40.2418],[-4.1909,40.2974],[-4.248,40.2735],[-4.27,40.2357],[-4.3485,40.2367],[-4.3564,40.3086],[-4.3835,40.289],[-4.4374,40.2367],[-4.5279,40.2001],[-4.5702,40.2142],[-4.568,40.2177],[-4.5657,40.2182],[-4.5659,40.2209],[-4.5593,40.2313],[-4.5686,40.2581]]]},"properties":{"cod_prov":"28","name":"Madrid","cod_ccaa":"13","cartodb_id":28,"created_at":"2014-09-30T00:00:00Z","updated_at":"2014-12-25T01:56:10Z"}},{"type":"Feature","geometry":{"type":"Polygon","coordinates":[[[-4.0828,42.7643],[-4.0834,42.7642],[-4.0853,42.7641],[-4.1096,42.7339],[-4.145,42.7525],[-4.257,42.6881],[-4.2639,42.618],[-4.2939,42.6053],[-4.247,42.4947],[-4.2544,42.4679],[-4.3171,42.4589],[-4.3162,42.41],[-4.3216,42.3799],[-4.2727,42.3857],[-4.2314,42.2085],[-4.1886,42.1764],[-4.205,42.1336],[-4.1202,42.1281],[-4.0562,42.1009],[-4.0392,42.0534],[-3.9711,42.0332],[-4.0148,41.9986],[-4.033,41.9541],[-3.9002,41.994],[-3.8915,41.9914],[-3.892,41.9579],[-3.9813,41.9307],[-3.9807,41.9006],[-4.0376,41.8728],[-4.0888,41.8707],[-4.0901,41.8309],[-4.038,41.7899],[-4.0456,41.7689],[-4.1003,41.7747],[-4.1232,41.8073],[-4.2139,41.7994],[-4.236,41.814],[-4.3176,41.7634],[-4.3893,41.7878],[-4.4539,41.7593],[-4.4542,41.7592],[-4.5012,41.7714],[-4.4873,41.8201],[-4.5661,41.8126],[-4.6319,41.8617],[-4.6341,41.8725],[-4.6373,41.8881],[-4.6631,41.898],[-4.6657,41.899],[-4.6697,41.9005],[-4.7282,41.8688],[-4.7892,41.818],[-4.8691,41.9317],[-4.9496,41.9338],[-4.9837,41.91],[-4.9846,41.9112],[-4.9881,41.9158],[-5.0048,41.9379],[-5.0024,41.9422],[-4.9655,42.0071],[-4.9476,42.0543],[-4.9042,42.0784],[-4.9275,42.1502],[-5.027,42.1539],[-5.0124,42.1898],[-5.0188,42.2539],[-5.0021,42.2891],[-4.9534,42.2972],[-4.9842,42.3379],[-4.9726,42.3744],[-4.9034,42.3857],[-4.888,42.537],[-4.916,42.5548],[-4.8947,42.6239],[-4.9159,42.7206],[-4.9316,42.7492],[-4.8959,42.7852],[-4.8656,42.8605],[-4.8092,42.9303],[-4.7948,42.9867],[-4.7381,43.019],[-4.7381,43.0192],[-4.7295,43.0208],[-4.6995,43.0267],[-4.6381,43.0167],[-4.5584,43.0195],[-4.5209,43.0474],[-4.4757,43.0387],[-4.3981,43.0349],[-4.3485,42.9726],[-4.2402,42.9565],[-4.2247,42.8568],[-4.2154,42.8523],[-4.209,42.8491],[-4.1997,42.8446],[-4.1812,42.8587],[-4.1453,42.8683],[-4.1443,42.8686],[-4.1383,42.8641],[-4.1268,42.8553],[-4.1255,42.8543],[-4.1404,42.829],[-4.1499,42.7893],[-4.1036,42.791],[-4.0985,42.7912],[-4.0819,42.7653],[-4.0828,42.7643]]]},"properties":{"cod_prov":"34","name":"Palencia","cod_ccaa":"07","cartodb_id":34,"created_at":"2014-09-30T00:00:00Z","updated_at":"2014-12-25T01:56:10Z"}},{"type":"Feature","geometry":{"type":"Polygon","coordinates":[[[-5.3659,40.6488],[-5.4476,40.5796],[-5.5162,40.5854],[-5.5247,40.5407],[-5.4285,40.5645],[-5.4664,40.4659],[-5.4671,40.464],[-5.5098,40.4637],[-5.5259,40.4224],[-5.6342,40.4604],[-5.6911,40.4218],[-5.6784,40.387],[-5.673,40.3485],[-5.7494,40.2891],[-5.7744,40.2877],[-5.8016,40.2963],[-5.802,40.2968],[-5.782,40.3125],[-5.7993,40.3538],[-5.8842,40.3266],[-5.8844,40.3263],[-5.9172,40.2777],[-5.9694,40.2926],[-5.9971,40.3026],[-6.0071,40.3098],[-6.016,40.3403],[-6.0824,40.3632],[-6.0852,40.3905],[-6.1295,40.4208],[-6.147,40.4361],[-6.1571,40.4566],[-6.1819,40.4668],[-6.1991,40.4818],[-6.2285,40.4858],[-6.2305,40.4866],[-6.2312,40.4861],[-6.2346,40.4866],[-6.2753,40.4585],[-6.3446,40.4428],[-6.3714,40.4019],[-6.4383,40.3728],[-6.5363,40.3472],[-6.5562,40.2908],[-6.587,40.2707],[-6.6718,40.2632],[-6.6901,40.2427],[-6.7556,40.2389],[-6.8345,40.2476],[-6.8651,40.2706],[-6.8629,40.2974],[-6.7942,40.3288],[-6.781,40.3647],[-6.8348,40.4082],[-6.8497,40.4526],[-6.795,40.5119],[-6.8008,40.5506],[-6.8448,40.5659],[-6.7939,40.6617],[-6.8312,40.7526],[-6.8261,40.8432],[-6.8088,40.882],[-6.8485,40.9008],[-6.8602,40.9489],[-6.9301,41.0301],[-6.8084,41.0365],[-6.754,41.1028],[-6.7674,41.1352],[-6.7013,41.1804],[-6.6478,41.2476],[-6.5713,41.239],[-6.49,41.2887],[-6.3177,41.2709],[-6.1345,41.1904],[-6.062,41.2211],[-6.0088,41.2005],[-5.9532,41.1401],[-5.9131,41.1783],[-5.8977,41.2386],[-5.7673,41.2157],[-5.6612,41.2444],[-5.657,41.2455],[-5.6283,41.2145],[-5.5651,41.217],[-5.4769,41.1783],[-5.4163,41.1847],[-5.4076,41.1856],[-5.4035,41.1634],[-5.4002,41.1454],[-5.3922,41.1446],[-5.357,41.1408],[-5.2979,41.1259],[-5.2903,41.1818],[-5.2885,41.1956],[-5.253,41.1998],[-5.2182,41.1596],[-5.1797,41.1673],[-5.1249,41.132],[-5.1377,41.0995],[-5.1478,41.074],[-5.1526,41.062],[-5.1468,41.0499],[-5.1433,41.0425],[-5.1408,41.0372],[-5.1066,41.0295],[-5.0898,40.9966],[-5.1276,40.9541],[-5.115,40.9028],[-5.1638,40.8684],[-5.1575,40.8213],[-5.1617,40.818],[-5.219,40.773],[-5.2144,40.7578],[-5.3777,40.6778],[-5.3796,40.6744],[-5.3829,40.6685],[-5.3858,40.6633],[-5.3659,40.6488]]]},"properties":{"cod_prov":"37","name":"Salamanca","cod_ccaa":"07","cartodb_id":37,"created_at":"2014-09-30T00:00:00Z","updated_at":"2014-12-25T01:56:10Z"}},{"type":"Feature","geometry":{"type":"Polygon","coordinates":[[[-4.3292,40.6434],[-4.4196,40.6334],[-4.4311,40.7424],[-4.4738,40.7747],[-4.4938,40.8335],[-4.5596,40.8858],[-4.5664,40.9562],[-4.6067,40.9708],[-4.6383,41.0313],[-4.7127,41.0621],[-4.7207,41.1505],[-4.6806,41.1857],[-4.6509,41.2214],[-4.5286,41.3211],[-4.4706,41.3185],[-4.515,41.4097],[-4.4106,41.4416],[-4.1583,41.4821],[-4.1425,41.4699],[-4.0087,41.5166],[-3.9999,41.5161],[-3.9988,41.5201],[-3.9958,41.5211],[-3.9929,41.5407],[-3.9807,41.5833],[-3.9189,41.561],[-3.8838,41.5413],[-3.8239,41.4811],[-3.7698,41.4602],[-3.7237,41.4792],[-3.7283,41.5176],[-3.6668,41.5619],[-3.6168,41.5772],[-3.5726,41.5654],[-3.5383,41.552],[-3.4797,41.5209],[-3.4524,41.5335],[-3.4375,41.5246],[-3.4234,41.5152],[-3.4133,41.4761],[-3.3304,41.4607],[-3.3505,41.3949],[-3.2074,41.3042],[-3.2173,41.2991],[-3.2312,41.2949],[-3.234,41.2905],[-3.2389,41.2879],[-3.2543,41.2584],[-3.3363,41.253],[-3.4151,41.2732],[-3.4115,41.2607],[-3.4669,41.1833],[-3.5397,41.165],[-3.5402,41.1601],[-3.6137,41.1491],[-3.6761,41.0867],[-3.7405,41.0536],[-3.7814,41.0003],[-3.8905,40.969],[-3.9052,40.956],[-3.9072,40.9553],[-3.9093,40.9524],[-3.9379,40.9272],[-3.9448,40.9039],[-3.9523,40.8936],[-3.9506,40.8838],[-3.9797,40.7846],[-4.0701,40.7939],[-4.0741,40.7888],[-4.0767,40.7889],[-4.0816,40.779],[-4.1253,40.7222],[-4.1572,40.6935],[-4.2529,40.6895],[-4.3162,40.6668],[-4.3292,40.6434]]]},"properties":{"cod_prov":"40","name":"Segovia","cod_ccaa":"07","cartodb_id":40,"created_at":"2014-09-30T00:00:00Z","updated_at":"2014-12-25T01:56:10Z"}},{"type":"Feature","geometry":{"type":"Polygon","coordinates":[[[-5.1419,37.0055],[-5.1447,37.0023],[-5.1626,36.9814],[-5.2259,36.9418],[-5.229,36.9448],[-5.3002,37.0137],[-5.3021,37.0374],[-5.4389,36.9353],[-5.4603,36.9753],[-5.4201,37.0132],[-5.4329,37.0501],[-5.4337,37.0524],[-5.511,37.0336],[-5.4697,36.9839],[-5.5834,36.9151],[-5.6676,36.976],[-5.7138,36.9204],[-5.8455,36.9152],[-5.8765,36.8947],[-5.8911,36.8422],[-6.1044,36.8573],[-6.1562,36.8856],[-6.331,36.8988],[-6.3789,36.9347],[-6.3539,36.9885],[-6.3864,37.0744],[-6.3859,37.075],[-6.3424,37.123],[-6.3597,37.1384],[-6.3452,37.2183],[-6.3598,37.2381],[-6.333,37.2991],[-6.3846,37.3375],[-6.3563,37.4122],[-6.3061,37.433],[-6.3924,37.5541],[-6.3953,37.6112],[-6.4433,37.6234],[-6.5286,37.6158],[-6.5361,37.651],[-6.45,37.7189],[-6.311,37.7649],[-6.2523,37.7631],[-6.2024,37.8055],[-6.134,37.7878],[-6.1217,37.8166],[-6.1643,37.862],[-6.1452,37.9205],[-6.1733,37.9154],[-6.175,37.9151],[-6.1841,37.929],[-6.1828,37.9311],[-6.1747,37.9445],[-6.1423,37.9648],[-6.0878,37.9841],[-5.9537,37.9953],[-5.909,38.0628],[-5.9264,38.105],[-5.8747,38.1583],[-5.7251,38.1958],[-5.6886,38.1819],[-5.7388,38.1328],[-5.7349,38.0863],[-5.6936,38.0837],[-5.633,38.1381],[-5.5848,38.1317],[-5.5842,38.1311],[-5.5553,38.1022],[-5.4951,38.0418],[-5.4932,37.9963],[-5.492,37.995],[-5.4156,37.9437],[-5.4147,37.8695],[-5.345,37.8358],[-5.3393,37.833],[-5.3497,37.7958],[-5.3499,37.7946],[-5.31,37.7742],[-5.31,37.7737],[-5.3091,37.7508],[-5.3071,37.7002],[-5.3076,37.6999],[-5.3271,37.6916],[-5.3763,37.6776],[-5.414,37.6453],[-5.358,37.5848],[-5.3544,37.5867],[-5.1768,37.6806],[-5.1501,37.6609],[-5.0699,37.6594],[-5.0915,37.6799],[-5.0472,37.7183],[-4.9998,37.7066],[-4.9317,37.6173],[-4.932,37.5459],[-4.906,37.4998],[-4.9041,37.4674],[-4.8406,37.436],[-4.8221,37.3582],[-4.7822,37.3285],[-4.6857,37.3303],[-4.6684,37.3198],[-4.6841,37.3154],[-4.6811,37.29],[-4.6621,37.2837],[-4.6537,37.257],[-4.6533,37.2558],[-4.7357,37.2448],[-4.7179,37.2399],[-4.7086,37.1977],[-4.7926,37.1539],[-4.7928,37.154],[-4.8259,37.2007],[-4.9051,37.1819],[-4.9084,37.1147],[-5.0531,37.0306],[-5.1214,37.0277],[-5.1354,37.0131],[-5.1419,37.0055]],[[-5.0468,37.6319],[-5.0404,37.6262],[-5.0479,37.6081],[-5.0178,37.5925],[-5.0312,37.6415],[-5.0468,37.6319]]]},"properties":{"cod_prov":"41","name":"Sevilla","cod_ccaa":"01","cartodb_id":41,"created_at":"2014-09-30T00:00:00Z","updated_at":"2014-12-25T01:56:10Z"}},{"type":"Feature","geometry":{"type":"Polygon","coordinates":[[[-4.5754,40.216],[-4.5702,40.2142],[-4.5279,40.2001],[-4.4374,40.2367],[-4.3835,40.289],[-4.3564,40.3086],[-4.3485,40.2367],[-4.27,40.2357],[-4.248,40.2735],[-4.1909,40.2974],[-4.1043,40.2418],[-4.0729,40.2655],[-4.024,40.249],[-3.991,40.2095],[-3.9529,40.2128],[-3.8046,40.1768],[-3.7705,40.1394],[-3.7222,40.1477],[-3.6076,40.109],[-3.6361,40.0416],[-3.6999,40.0195],[-3.7705,39.9506],[-3.7636,39.9675],[-3.8752,39.9287],[-3.8684,39.905],[-3.8647,39.9037],[-3.8149,39.8857],[-3.8128,39.8874],[-3.7439,39.9408],[-3.6345,39.9659],[-3.59,40.0132],[-3.5197,40.0211],[-3.5069,40.0487],[-3.4011,40.0342],[-3.3758,40.0513],[-3.3777,40.0748],[-3.3753,40.0751],[-3.3651,40.0766],[-3.3344,40.0811],[-3.3332,40.0804],[-3.296,40.0592],[-3.2753,40.0474],[-3.201,40.0605],[-3.1702,40.0481],[-3.1426,39.985],[-3.0966,39.9869],[-3.0971,39.9335],[-3.1272,39.8747],[-3.0763,39.8557],[-2.9977,39.7189],[-2.9082,39.6423],[-2.9255,39.6018],[-2.9315,39.4707],[-2.9568,39.4472],[-3.0696,39.4503],[-3.1434,39.4955],[-3.1529,39.4938],[-3.1573,39.4961],[-3.1845,39.488],[-3.2942,39.4708],[-3.3091,39.3992],[-3.4103,39.4046],[-3.4705,39.3721],[-3.4769,39.3431],[-3.5326,39.3042],[-3.6802,39.2983],[-3.7225,39.2696],[-3.7912,39.2929],[-3.8562,39.2591],[-3.9669,39.2986],[-3.9722,39.3522],[-4.0734,39.3653],[-4.1044,39.3411],[-4.1481,39.3628],[-4.1181,39.4569],[-4.0681,39.4571],[-4.0418,39.5754],[-4.1587,39.5768],[-4.1932,39.4954],[-4.2421,39.4779],[-4.3772,39.496],[-4.4419,39.5231],[-4.4616,39.4785],[-4.5112,39.5221],[-4.6184,39.4847],[-4.6181,39.4544],[-4.6903,39.4518],[-4.7554,39.4157],[-4.7405,39.4562],[-4.7429,39.4875],[-4.7503,39.4959],[-4.7517,39.5018],[-4.7584,39.5051],[-4.7678,39.5156],[-4.8631,39.5561],[-4.903,39.5037],[-4.9058,39.497],[-4.9082,39.4937],[-4.9118,39.4829],[-4.9486,39.3956],[-4.9527,39.3955],[-4.9531,39.3955],[-5.2066,39.5972],[-5.1618,39.6424],[-5.1378,39.715],[-5.1669,39.7999],[-5.2065,39.7976],[-5.2548,39.7523],[-5.3081,39.76],[-5.3126,39.8243],[-5.284,39.8639],[-5.3236,39.8917],[-5.4061,39.8777],[-5.3651,39.9829],[-5.3683,40.0783],[-5.3607,40.104],[-5.3516,40.1084],[-5.2178,40.108],[-5.2164,40.108],[-5.2163,40.1079],[-5.2035,40.0834],[-5.2005,40.0836],[-5.1899,40.084],[-5.1716,40.0848],[-5.1648,40.088],[-5.1191,40.1095],[-5.0878,40.1243],[-5.0674,40.1504],[-5.067,40.1509],[-5.053,40.1533],[-5.0266,40.1577],[-5.0185,40.1591],[-5.0169,40.1443],[-5.0133,40.1111],[-4.9255,40.136],[-4.9247,40.17],[-4.7616,40.2609],[-4.6981,40.2822],[-4.6873,40.212],[-4.6542,40.1981],[-4.5791,40.2172],[-4.5754,40.216]]]},"properties":{"cod_prov":"45","name":"Toledo","cod_ccaa":"06","cartodb_id":45,"created_at":"2014-09-30T00:00:00Z","updated_at":"2014-12-25T01:56:10Z"}},{"type":"Feature","geometry":{"type":"Polygon","coordinates":[[[1.4545,41.5692],[1.3963,41.5129],[1.4846,41.4749],[1.4685,41.444],[1.4902,41.4015],[1.473,41.3808],[1.5093,41.3944],[1.5587,41.3431],[1.6368,41.296],[1.641,41.2354],[1.6447,41.1934],[1.5133,41.178],[1.3949,41.1316],[1.2979,41.1278],[1.215,41.1042],[1.1703,41.0546],[1.1234,41.0747],[1.0491,41.0641],[0.9666,41.0284],[0.8622,40.9471],[0.7413,40.8233],[0.8636,40.6899],[0.7452,40.6361],[0.6013,40.6221],[0.5379,40.5672],[0.5147,40.523],[0.438,40.5471],[0.4439,40.5782],[0.402,40.6024],[0.2823,40.6276],[0.2365,40.7017],[0.1592,40.7506],[0.23,40.7674],[0.2782,40.8209],[0.2389,40.8847],[0.2935,40.9706],[0.2177,41.0437],[0.2304,41.0553],[0.2201,41.0829],[0.2012,41.0847],[0.2012,41.1268],[0.253,41.1502],[0.292,41.1564],[0.2944,41.1619],[0.3033,41.1644],[0.3224,41.2252],[0.3813,41.2364],[0.3857,41.2788],[0.4332,41.276],[0.4415,41.3241],[0.4458,41.3264],[0.4655,41.3303],[0.5033,41.2897],[0.5544,41.3267],[0.6282,41.2909],[0.7515,41.3178],[0.9452,41.3498],[1.0749,41.4584],[1.1809,41.4881],[1.1647,41.5345],[1.2199,41.5696],[1.4034,41.5582],[1.4545,41.5692]]]},"properties":{"cod_prov":"43","name":"Tarragona","cod_ccaa":"08","cartodb_id":43,"created_at":"2014-09-30T00:00:00Z","updated_at":"2014-12-25T01:56:10Z"}},{"type":"Feature","geometry":{"type":"Polygon","coordinates":[[[-1.4392,40.197],[-1.5405,40.1908],[-1.6903,40.3097],[-1.7295,40.3029],[-1.6977,40.3213],[-1.7778,40.3919],[-1.806,40.3987],[-1.8062,40.3987],[-1.8006,40.4142],[-1.7926,40.4137],[-1.7854,40.4132],[-1.7396,40.4668],[-1.735,40.472],[-1.6925,40.4868],[-1.7016,40.5411],[-1.6781,40.591],[-1.5987,40.5621],[-1.5356,40.687],[-1.562,40.7398],[-1.5399,40.7607],[-1.5423,40.8112],[-1.5444,40.813],[-1.6214,40.8804],[-1.6174,40.9437],[-1.5616,40.9386],[-1.4466,40.9846],[-1.4052,41.0663],[-1.2874,41.0489],[-1.2714,41.1033],[-1.21,41.1388],[-1.1216,41.1349],[-1.1057,41.1676],[-0.9529,41.0754],[-0.8599,41.108],[-0.7928,41.1056],[-0.7614,41.1697],[-0.694,41.1123],[-0.6099,41.1917],[-0.6297,41.3118],[-0.5818,41.3481],[-0.5026,41.3544],[-0.4702,41.3182],[-0.4208,41.3117],[-0.4059,41.2724],[-0.3372,41.2414],[-0.3175,41.2575],[-0.2242,41.1895],[-0.181,41.1881],[-0.0159,41.1227],[0.0369,41.0466],[0.0786,41.0803],[0.1459,41.063],[0.2203,41.0714],[0.2177,41.0437],[0.2935,40.9706],[0.2389,40.8847],[0.2782,40.8209],[0.23,40.7674],[0.1592,40.7506],[0.0422,40.691],[0.0157,40.7284],[-0.0647,40.7274],[-0.1268,40.7533],[-0.1445,40.7854],[-0.1972,40.7845],[-0.224,40.7542],[-0.236,40.6911],[-0.307,40.6595],[-0.378,40.6675],[-0.3705,40.6136],[-0.2933,40.611],[-0.3018,40.5154],[-0.2726,40.4738],[-0.3474,40.4439],[-0.2854,40.3865],[-0.3406,40.34],[-0.3836,40.2648],[-0.4945,40.2287],[-0.5442,40.2517],[-0.5786,40.1373],[-0.6285,40.1026],[-0.6272,40.0762],[-0.6829,40.0442],[-0.7536,40.0466],[-0.7776,39.9984],[-0.8378,39.9768],[-0.8404,39.925],[-0.7977,39.8811],[-0.8636,39.8474],[-0.9111,39.8716],[-0.9126,39.8724],[-0.9125,39.8728],[-0.9027,39.9319],[-0.9319,39.9561],[-0.9866,39.9806],[-0.9894,39.9818],[-1.105,39.975],[-1.1424,39.9718],[-1.1652,40.0101],[-1.1162,40.0259],[-1.0842,40.0362],[-1.0788,40.0471],[-1.0753,40.0541],[-1.0721,40.0605],[-1.148,40.1145],[-1.2446,40.1158],[-1.2931,40.2069],[-1.323,40.1849],[-1.3199,40.1479],[-1.3197,40.1464],[-1.3452,40.1344],[-1.3555,40.1296],[-1.3571,40.1289],[-1.4489,40.1453],[-1.4392,40.197]]]},"properties":{"cod_prov":"44","name":"Teruel","cod_ccaa":"02","cartodb_id":44,"created_at":"2014-09-30T00:00:00Z","updated_at":"2014-12-25T01:56:10Z"}},{"type":"Feature","geometry":{"type":"MultiPolygon","coordinates":[[[[-1.215,39.3216],[-1.3127,39.3432],[-1.3366,39.334],[-1.4147,39.3803],[-1.4682,39.3833],[-1.4837,39.4182],[-1.4844,39.4181],[-1.4833,39.4225],[-1.4966,39.4293],[-1.5134,39.4583],[-1.4992,39.5005],[-1.5207,39.55],[-1.462,39.5768],[-1.4618,39.5769],[-1.4179,39.6549],[-1.3685,39.6896],[-1.3128,39.6705],[-1.3104,39.6716],[-1.3079,39.6708],[-1.295,39.6787],[-1.2679,39.6911],[-1.2685,39.6949],[-1.262,39.6989],[-1.2754,39.7386],[-1.215,39.8088],[-1.2,39.8587],[-1.2038,39.9457],[-1.1424,39.9718],[-1.105,39.975],[-0.9871,39.9807],[-0.9866,39.9806],[-0.9319,39.9561],[-0.9027,39.9319],[-0.9125,39.8728],[-0.9126,39.8724],[-0.9111,39.8716],[-0.8886,39.8521],[-0.8636,39.8474],[-0.7938,39.8814],[-0.7305,39.8148],[-0.6911,39.8525],[-0.6562,39.836],[-0.6523,39.7541],[-0.5882,39.7417],[-0.5306,39.796],[-0.4562,39.7147],[-0.3961,39.7586],[-0.3779,39.7999],[-0.3283,39.8015],[-0.2642,39.7455],[-0.1885,39.7219],[-0.2157,39.6551],[-0.2543,39.6208],[-0.316,39.5234],[-0.3357,39.4247],[-0.2785,39.2785],[-0.2163,39.1863],[-0.2395,39.1469],[-0.2035,39.066],[-0.0706,38.8857],[-0.1481,38.8584],[-0.1608,38.8874],[-0.2305,38.8535],[-0.3108,38.8815],[-0.3814,38.8349],[-0.4619,38.8076],[-0.5905,38.7955],[-0.5952,38.7951],[-0.5656,38.7554],[-0.5071,38.743],[-0.6222,38.6896],[-0.6287,38.6866],[-0.6324,38.6969],[-0.6434,38.7278],[-0.644,38.7278],[-0.7072,38.7338],[-0.7349,38.7594],[-0.8346,38.7324],[-0.8617,38.7709],[-0.9088,38.7697],[-0.9132,38.7696],[-0.9199,38.7775],[-0.9285,38.7877],[-0.9249,38.8234],[-0.9297,38.8378],[-0.9245,38.8918],[-0.9594,38.9446],[-1.1467,38.9294],[-1.2265,39.0247],[-1.2634,39.0488],[-1.2557,39.1062],[-1.1808,39.2118],[-1.1619,39.3054],[-1.1656,39.3071],[-1.165,39.3105],[-1.1809,39.314],[-1.2079,39.3262],[-1.215,39.3216]]],[[[-1.1652,40.0101],[-1.248,39.9954],[-1.3769,40.0165],[-1.4076,40.1014],[-1.4489,40.1453],[-1.3571,40.1289],[-1.3555,40.1296],[-1.3452,40.1344],[-1.3197,40.1464],[-1.3199,40.1479],[-1.3166,40.1497],[-1.323,40.1849],[-1.2931,40.2069],[-1.2446,40.1158],[-1.148,40.1145],[-1.0753,40.0541],[-1.0788,40.0471],[-1.1162,40.0259],[-1.1652,40.0101]]]]},"properties":{"cod_prov":"46","name":"València/Valencia","cod_ccaa":"19","cartodb_id":46,"created_at":"2014-09-30T00:00:00Z","updated_at":"2014-12-25T01:56:10Z"}},{"type":"Feature","geometry":{"type":"MultiPolygon","coordinates":[[[[-4.7221,41.1493],[-4.7862,41.1436],[-4.8007,41.136],[-4.8058,41.1352],[-4.8637,41.094],[-4.9897,41.1608],[-5.0013,41.1584],[-5.0139,41.1643],[-5.0388,41.1504],[-5.077,41.1422],[-5.1001,41.1471],[-5.124,41.1356],[-5.1246,41.1321],[-5.1249,41.132],[-5.1797,41.1673],[-5.2182,41.1596],[-5.253,41.1998],[-5.3403,41.1941],[-5.2937,41.2263],[-5.2917,41.2692],[-5.3346,41.3706],[-5.3075,41.4141],[-5.3447,41.4793],[-5.2289,41.5284],[-5.3289,41.6159],[-5.3274,41.6805],[-5.3581,41.6997],[-5.3752,41.7198],[-5.389,41.7546],[-5.3797,41.7661],[-5.2786,41.8148],[-5.3065,41.8578],[-5.2937,41.9199],[-5.3352,41.9375],[-5.2806,41.9788],[-5.3255,42.0204],[-5.3764,42.0396],[-5.3769,42.0414],[-5.3763,42.0415],[-5.3901,42.0898],[-5.3715,42.1301],[-5.3875,42.2183],[-5.3612,42.2252],[-5.3075,42.1993],[-5.2656,42.2109],[-5.2365,42.2733],[-5.1827,42.2642],[-5.0938,42.3093],[-5.0383,42.2971],[-5.0021,42.2891],[-5.0188,42.2539],[-5.0124,42.1898],[-5.027,42.1539],[-4.9275,42.1502],[-4.9042,42.0784],[-4.9476,42.0543],[-4.9655,42.0071],[-5.0051,41.9472],[-5.0024,41.9422],[-5.0048,41.9379],[-4.9881,41.9158],[-4.9846,41.9112],[-4.9837,41.91],[-4.9496,41.9338],[-4.8691,41.9317],[-4.7892,41.818],[-4.7282,41.8688],[-4.6657,41.899],[-4.6631,41.898],[-4.6341,41.8725],[-4.6319,41.8617],[-4.5661,41.8126],[-4.4873,41.8201],[-4.5012,41.7714],[-4.4542,41.7592],[-4.4539,41.7593],[-4.4501,41.7584],[-4.3893,41.7878],[-4.3176,41.7634],[-4.236,41.814],[-4.2139,41.7994],[-4.1232,41.8073],[-4.1003,41.7747],[-4.0456,41.7689],[-4.0495,41.7581],[-4.0764,41.7261],[-4.026,41.6924],[-4.0353,41.6206],[-4.0059,41.6194],[-3.9856,41.5895],[-3.9929,41.5407],[-3.9958,41.5211],[-3.9988,41.5201],[-4.0087,41.5166],[-4.1425,41.4699],[-4.1583,41.4821],[-4.4106,41.4416],[-4.515,41.4097],[-4.4706,41.3185],[-4.5286,41.3211],[-4.6509,41.2214],[-4.6806,41.1857],[-4.7207,41.1505],[-4.7221,41.1493]]],[[[-5.4809,42.0524],[-5.4474,42.0137],[-5.4383,41.9674],[-5.4714,42.0101],[-5.4809,42.0524]]]]},"properties":{"cod_prov":"47","name":"Valladolid","cod_ccaa":"07","cartodb_id":47,"created_at":"2014-09-30T00:00:00Z","updated_at":"2014-12-25T01:56:10Z"}},{"type":"Feature","geometry":{"type":"MultiPolygon","coordinates":[[[[-3.4188,43.1371],[-3.4491,43.2359],[-3.3401,43.278],[-3.2252,43.3089],[-3.1515,43.3069],[-3.1533,43.3533],[-3.0396,43.3733],[-2.9469,43.436],[-2.807,43.4305],[-2.7515,43.4566],[-2.6957,43.4068],[-2.5097,43.3774],[-2.439,43.2949],[-2.4366,43.2437],[-2.4979,43.2199],[-2.5097,43.1614],[-2.5011,43.0965],[-2.6617,43.0743],[-2.6336,43.0199],[-2.8942,43.0464],[-2.9755,43.0995],[-2.9358,43.1362],[-2.9464,43.1709],[-3.0068,43.1966],[-3.0401,43.2099],[-3.0269,43.1614],[-3.1113,43.1435],[-3.158,43.178],[-3.2241,43.1701],[-3.2492,43.196],[-3.2503,43.1956],[-3.2534,43.1986],[-3.3351,43.1662],[-3.4188,43.1371]],[[-3.2698,43.2321],[-3.2494,43.2597],[-3.3058,43.2535],[-3.2652,43.2058],[-3.2698,43.2321]]],[[[-3.0185,43.0377],[-2.9557,42.9989],[-3.0385,42.9819],[-3.0603,43.0035],[-3.0839,43.0072],[-3.049,43.0461],[-3.0185,43.0377]]]]},"properties":{"cod_prov":"48","name":"Bizkaia/Vizcaya","cod_ccaa":"17","cartodb_id":48,"created_at":"2014-09-30T00:00:00Z","updated_at":"2014-12-25T01:56:10Z"}},{"type":"Feature","geometry":{"type":"Polygon","coordinates":[[[-6.7835,42.2489],[-6.7611,42.2399],[-6.7245,42.2204],[-6.7197,42.2134],[-6.7104,42.2129],[-6.7038,42.2094],[-6.526,42.2034],[-6.4976,42.182],[-6.4279,42.2019],[-6.3126,42.2066],[-6.2937,42.178],[-6.2124,42.1481],[-6.1602,42.1658],[-6.0493,42.1599],[-5.9535,42.1237],[-5.8974,42.1561],[-5.8449,42.1107],[-5.7767,42.1358],[-5.7429,42.1133],[-5.6768,42.1203],[-5.6201,42.1067],[-5.5607,42.056],[-5.5434,42.0994],[-5.4714,42.0101],[-5.4383,41.9674],[-5.4474,42.0137],[-5.3911,42.0391],[-5.3807,42.0408],[-5.3769,42.0414],[-5.3764,42.0396],[-5.3255,42.0204],[-5.2806,41.9788],[-5.3352,41.9375],[-5.2937,41.9199],[-5.3065,41.8578],[-5.2786,41.8148],[-5.3797,41.7661],[-5.3914,41.7605],[-5.389,41.7546],[-5.3752,41.7198],[-5.3581,41.6997],[-5.3274,41.6805],[-5.3289,41.6159],[-5.2289,41.5284],[-5.3447,41.4793],[-5.3075,41.4141],[-5.3346,41.3706],[-5.2917,41.2692],[-5.2937,41.2263],[-5.3403,41.1941],[-5.3303,41.1776],[-5.2903,41.1818],[-5.2979,41.1259],[-5.357,41.1408],[-5.3922,41.1446],[-5.4035,41.1634],[-5.4076,41.1856],[-5.4163,41.1847],[-5.4181,41.1877],[-5.4769,41.1783],[-5.5651,41.217],[-5.6283,41.2145],[-5.657,41.2455],[-5.6612,41.2444],[-5.6628,41.2458],[-5.7673,41.2157],[-5.8977,41.2386],[-5.9131,41.1783],[-5.9532,41.1401],[-6.0088,41.2005],[-6.062,41.2211],[-6.1345,41.1904],[-6.3177,41.2709],[-6.4376,41.3057],[-6.3899,41.3854],[-6.3328,41.4115],[-6.2624,41.4865],[-6.2559,41.5139],[-6.1893,41.575],[-6.3022,41.6627],[-6.4445,41.6848],[-6.4985,41.6571],[-6.5482,41.6856],[-6.569,41.7435],[-6.5158,41.8707],[-6.5712,41.8836],[-6.5458,41.9359],[-6.5885,41.9678],[-6.6212,41.94],[-6.9417,41.9443],[-6.9579,41.9693],[-6.9845,41.9736],[-6.9881,41.9816],[-6.9911,41.9883],[-6.9611,42.0279],[-7.0118,42.0524],[-6.9898,42.1213],[-6.949,42.1357],[-6.9428,42.1733],[-6.9011,42.1896],[-6.8436,42.2283],[-6.7915,42.2522],[-6.7835,42.2489]]]},"properties":{"cod_prov":"49","name":"Zamora","cod_ccaa":"07","cartodb_id":49,"created_at":"2014-09-30T00:00:00Z","updated_at":"2014-12-25T01:56:10Z"}},{"type":"Feature","geometry":{"type":"Polygon","coordinates":[[[-2.0492,41.1475],[-2.0517,41.1468],[-2.1462,41.1844],[-2.1696,41.314],[-2.1705,41.3188],[-2.1631,41.3554],[-2.116,41.382],[-2.1015,41.4458],[-2.0356,41.4269],[-2.0293,41.3842],[-1.9373,41.4079],[-1.9811,41.4864],[-1.9673,41.5461],[-1.9932,41.6005],[-1.9231,41.5983],[-1.859,41.6615],[-1.7754,41.7248],[-1.8059,41.7551],[-1.8524,41.7892],[-1.8529,41.7896],[-1.8191,41.8288],[-1.8573,41.9095],[-1.8635,41.9632],[-1.8652,41.9776],[-1.844,41.9873],[-1.8462,42.0014],[-1.8472,42.008],[-1.8337,41.9951],[-1.7669,41.9958],[-1.7152,41.957],[-1.6541,41.9654],[-1.5593,41.9139],[-1.441,41.9179],[-1.4136,41.9189],[-1.4108,41.919],[-1.3981,41.9366],[-1.3395,42.018],[-1.3048,42.0429],[-1.3989,42.1262],[-1.3919,42.1814],[-1.4175,42.2124],[-1.3991,42.2913],[-1.3291,42.3554],[-1.3599,42.378],[-1.3415,42.4239],[-1.2728,42.4819],[-1.2875,42.521],[-1.2881,42.5228],[-1.2744,42.5428],[-1.2702,42.5489],[-1.2648,42.5568],[-1.2028,42.5497],[-1.158,42.5992],[-1.152,42.6479],[-1.0519,42.6426],[-1.028,42.7001],[-0.9225,42.7008],[-0.9276,42.6562],[-0.895,42.5491],[-0.9044,42.4348],[-0.8442,42.3846],[-0.877,42.2816],[-0.8065,42.2705],[-0.7718,42.3467],[-0.7446,42.3387],[-0.7293,42.2974],[-0.7289,42.2963],[-0.7594,42.2636],[-0.7631,42.0675],[-0.8129,42.0925],[-0.8849,42.0036],[-0.7782,41.9574],[-0.6578,41.9575],[-0.6033,41.8828],[-0.5167,41.8368],[-0.4894,41.7317],[-0.4449,41.7037],[-0.3745,41.6881],[-0.3595,41.6352],[-0.3126,41.6241],[-0.2448,41.5731],[-0.2057,41.6023],[-0.1674,41.5811],[-0.1567,41.5353],[-0.105,41.4855],[-0.0727,41.3772],[0.0934,41.35],[0.1637,41.4065],[0.2406,41.4284],[0.32,41.3942],[0.3723,41.3529],[0.374,41.3515],[0.3484,41.3289],[0.3857,41.2788],[0.3813,41.2364],[0.3224,41.2252],[0.2944,41.1619],[0.292,41.1564],[0.253,41.1502],[0.2012,41.1268],[0.2012,41.0847],[0.2203,41.0714],[0.1459,41.063],[0.0786,41.0803],[0.0369,41.0466],[-0.0159,41.1227],[-0.181,41.1881],[-0.2242,41.1895],[-0.3175,41.2575],[-0.3372,41.2414],[-0.4059,41.2724],[-0.4208,41.3117],[-0.4702,41.3182],[-0.5026,41.3544],[-0.5818,41.3481],[-0.6297,41.3118],[-0.6099,41.1917],[-0.694,41.1123],[-0.7614,41.1697],[-0.7928,41.1056],[-0.8599,41.108],[-0.9529,41.0754],[-1.1057,41.1676],[-1.1216,41.1349],[-1.21,41.1388],[-1.2714,41.1033],[-1.2874,41.0489],[-1.4052,41.0663],[-1.4466,40.9846],[-1.5616,40.9386],[-1.6239,40.9488],[-1.631,40.95],[-1.8033,41.0899],[-1.9324,41.1386],[-1.959,41.1725],[-2.0492,41.1475]]]},"properties":{"cod_prov":"50","name":"Zaragoza","cod_ccaa":"02","cartodb_id":50,"created_at":"2014-09-30T00:00:00Z","updated_at":"2014-12-25T01:56:10Z"}},{"type":"Feature","geometry":{"type":"Polygon","coordinates":[[[-2.9506,35.2655],[-2.9703,35.2887],[-2.9526,35.3203],[-2.9233,35.2902],[-2.9506,35.2655]]]},"properties":{"cod_prov":"52","name":"Melilla","cod_ccaa":"14","cartodb_id":51,"created_at":"2014-09-30T00:00:00Z","updated_at":"2014-12-25T01:56:10Z"}},{"type":"Feature","geometry":{"type":"MultiPolygon","coordinates":[[[[-0.164957,40.788631],[-0.144533,40.785443],[-0.126841,40.753317],[-0.064699,40.727407],[0.015738,40.72843],[0.026438,40.694951],[0.042175,40.691006],[0.112501,40.727137],[0.143917,40.718252],[0.226115,40.733164],[0.236523,40.701683],[0.262431,40.705852],[0.29184,40.688553],[0.267831,40.659001],[0.27883,40.630058],[0.401962,40.602381],[0.443944,40.578223],[0.437964,40.54706],[0.513165,40.516011],[0.417827,40.400591],[0.408446,40.357348],[0.278363,40.244149],[0.264005,40.208554],[0.190507,40.170433],[0.147554,40.082915],[0.049673,40.035439],[-0.005156,39.91517],[-0.06699,39.857356],[-0.088872,39.85398],[-0.188272,39.721908],[-0.264177,39.745497],[-0.276528,39.770542],[-0.328259,39.801482],[-0.377919,39.799877],[-0.396095,39.758614],[-0.456176,39.714698],[-0.530586,39.795977],[-0.577049,39.773202],[-0.588224,39.741688],[-0.652347,39.754084],[-0.656151,39.835961],[-0.691111,39.852463],[-0.71255,39.816845],[-0.730456,39.814828],[-0.773562,39.869796],[-0.832895,39.911],[-0.846297,39.947698],[-0.837944,39.97655],[-0.777646,39.998407],[-0.753621,40.046608],[-0.68294,40.044225],[-0.627222,40.076202],[-0.613589,40.070013],[-0.628533,40.102578],[-0.57864,40.137335],[-0.544187,40.251659],[-0.494515,40.228732],[-0.428072,40.243803],[-0.383626,40.264848],[-0.400408,40.294853],[-0.388637,40.306937],[-0.366273,40.305052],[-0.340617,40.339991],[-0.282026,40.36529],[-0.285244,40.386317],[-0.347355,40.44394],[-0.27264,40.473762],[-0.277638,40.501532],[-0.301837,40.515404],[-0.293286,40.611041],[-0.370483,40.613592],[-0.381126,40.66423],[-0.328818,40.680279],[-0.306998,40.659497],[-0.235991,40.691108],[-0.224034,40.754158],[-0.197176,40.784456],[-0.164957,40.788631]]],[[[0.687624,39.900631],[0.684474,39.89684],[0.686174,39.893444],[0.683726,39.897287],[0.687624,39.900631]]],[[[0.671245,39.875977],[0.67244,39.875372],[0.671807,39.874248],[0.670528,39.874802],[0.671245,39.875977]]],[[[0.669508,39.890524],[0.668192,39.891277],[0.668066,39.891984],[0.669013,39.891972],[0.669508,39.890524]]],[[[0.690537,39.895467],[0.690527,39.8959],[0.690962,39.896372],[0.691076,39.895666],[0.690537,39.895467]]],[[[0.671979,39.852294],[0.672448,39.85209],[0.672206,39.851494],[0.671844,39.851938],[0.671979,39.852294]]],[[[0.689535,39.894625],[0.689083,39.894703],[0.689153,39.895124],[0.689539,39.89513],[0.689535,39.894625]]],[[[0.672978,39.87449],[0.672559,39.874315],[0.672392,39.874473],[0.672851,39.874972],[0.672978,39.87449]]],[[[0.6708,39.891942],[0.671108,39.891788],[0.670664,39.891361],[0.670278,39.891797],[0.6708,39.891942]]],[[[0.667323,39.88945],[0.667855,39.889559],[0.667943,39.889241],[0.667598,39.889117],[0.667323,39.88945]]],[[[0.679145,39.851238],[0.679232,39.851343],[0.679688,39.85113],[0.67946,39.850795],[0.679145,39.851238]]],[[[0.670601,39.890192],[0.670265,39.890032],[0.670106,39.890334],[0.670322,39.890435],[0.670601,39.890192]]],[[[0.679483,39.850137],[0.679132,39.850121],[0.679036,39.850295],[0.679373,39.850474],[0.679483,39.850137]]],[[[0.670286,39.878818],[0.670083,39.878734],[0.669907,39.878938],[0.670137,39.879093],[0.670286,39.878818]]],[[[0.674122,39.850839],[0.673899,39.850828],[0.673906,39.851179],[0.674071,39.851201],[0.674122,39.850839]]],[[[0.673354,39.850899],[0.673437,39.85114],[0.673682,39.851132],[0.673477,39.850796],[0.673354,39.850899]]],[[[0.671108,39.891788],[0.67127,39.891981],[0.671426,39.891832],[0.671334,39.891655],[0.671108,39.891788]]],[[[0.690185,39.895397],[0.690537,39.895467],[0.690325,39.895177],[0.690185,39.895397]]],[[[0.673717,39.851293],[0.673877,39.851504],[0.674022,39.851373],[0.673717,39.851293]]],[[[0.674372,39.851137],[0.674582,39.851139],[0.674488,39.850899],[0.674372,39.851137]]],[[[0.672587,39.851851],[0.6728,39.851898],[0.67274,39.851657],[0.672587,39.851851]]],[[[0.674194,39.851305],[0.674329,39.851436],[0.674437,39.851261],[0.674194,39.851305]]]]},"properties":{"cod_prov":"12","name":"Castelló/Castellón","cod_ccaa":"19","cartodb_id":12,"created_at":"2014-09-30T00:00:00Z","updated_at":"2014-12-25T01:56:10Z"}}]}